{
  "type": "FeatureCollection",
  "features": [
    {
      "type": "Feature",
      "properties": {
        "id": "ada-watersports-day",
        "kind": "osrm-walk"
      },
      "geometry": {
        "type": "LineString",
        "coordinates": [
          [
            20.408096,
            44.785034
          ],
          [
            20.408847,
            44.785052
          ],
          [
            20.40915,
            44.785063
          ],
          [
            20.40927,
            44.785071
          ],
          [
            20.40957,
            44.785091
          ],
          [
            20.409787,
            44.785107
          ],
          [
            20.410137,
            44.785133
          ],
          [
            20.410262,
            44.785144
          ],
          [
            20.410461,
            44.785169
          ],
          [
            20.410655,
            44.785207
          ],
          [
            20.41097,
            44.785277
          ],
          [
            20.411139,
            44.785147
          ],
          [
            20.411673,
            44.784733
          ],
          [
            20.411707,
            44.784706
          ],
          [
            20.411824,
            44.784617
          ],
          [
            20.411963,
            44.784534
          ],
          [
            20.412043,
            44.784592
          ],
          [
            20.412196,
            44.784693
          ],
          [
            20.412353,
            44.784797
          ],
          [
            20.412709,
            44.785035
          ],
          [
            20.412806,
            44.7851
          ],
          [
            20.413229,
            44.78536
          ],
          [
            20.413853,
            44.785761
          ],
          [
            20.414482,
            44.786141
          ],
          [
            20.414572,
            44.786194
          ],
          [
            20.414813,
            44.786343
          ],
          [
            20.4152,
            44.786576
          ],
          [
            20.415229,
            44.786593
          ],
          [
            20.415334,
            44.78665
          ],
          [
            20.415566,
            44.78677
          ],
          [
            20.415674,
            44.786828
          ],
          [
            20.415792,
            44.786889
          ],
          [
            20.41627,
            44.787127
          ],
          [
            20.416616,
            44.787285
          ],
          [
            20.416827,
            44.787379
          ],
          [
            20.41736,
            44.78759
          ],
          [
            20.417826,
            44.787769
          ],
          [
            20.4183,
            44.787938
          ],
          [
            20.418478,
            44.787998
          ],
          [
            20.418544,
            44.788021
          ],
          [
            20.41863,
            44.788052
          ],
          [
            20.418858,
            44.788134
          ],
          [
            20.419484,
            44.788351
          ],
          [
            20.41994,
            44.788524
          ],
          [
            20.420351,
            44.788686
          ],
          [
            20.42064,
            44.788814
          ],
          [
            20.420913,
            44.788936
          ],
          [
            20.42116,
            44.789057
          ],
          [
            20.421406,
            44.789183
          ],
          [
            20.421536,
            44.789252
          ],
          [
            20.421667,
            44.789324
          ],
          [
            20.421805,
            44.789403
          ],
          [
            20.421934,
            44.789479
          ],
          [
            20.42219,
            44.789632
          ],
          [
            20.422486,
            44.789814
          ],
          [
            20.42289,
            44.790078
          ],
          [
            20.423257,
            44.790333
          ],
          [
            20.423642,
            44.790584
          ],
          [
            20.423763,
            44.790659
          ],
          [
            20.423851,
            44.790683
          ],
          [
            20.423987,
            44.790725
          ],
          [
            20.424171,
            44.790819
          ],
          [
            20.424276,
            44.790862
          ],
          [
            20.424387,
            44.790907
          ],
          [
            20.424459,
            44.790937
          ],
          [
            20.424562,
            44.790978
          ],
          [
            20.42462,
            44.790999
          ],
          [
            20.424731,
            44.791036
          ],
          [
            20.4248,
            44.791055
          ],
          [
            20.424852,
            44.791066
          ],
          [
            20.424917,
            44.791079
          ],
          [
            20.424972,
            44.791087
          ],
          [
            20.425039,
            44.791094
          ],
          [
            20.425098,
            44.791098
          ],
          [
            20.425142,
            44.7911
          ],
          [
            20.42519,
            44.791099
          ],
          [
            20.425235,
            44.791098
          ],
          [
            20.425297,
            44.791095
          ],
          [
            20.425345,
            44.791091
          ],
          [
            20.425412,
            44.791082
          ],
          [
            20.42547,
            44.791072
          ],
          [
            20.425539,
            44.791058
          ],
          [
            20.425603,
            44.791041
          ],
          [
            20.425657,
            44.791025
          ],
          [
            20.425801,
            44.790972
          ],
          [
            20.425866,
            44.790944
          ],
          [
            20.426005,
            44.790886
          ],
          [
            20.426114,
            44.790844
          ],
          [
            20.426233,
            44.790813
          ],
          [
            20.426327,
            44.7908
          ],
          [
            20.426447,
            44.790796
          ],
          [
            20.426524,
            44.790799
          ],
          [
            20.426598,
            44.790801
          ],
          [
            20.426643,
            44.790802
          ],
          [
            20.426688,
            44.7908
          ],
          [
            20.426736,
            44.790794
          ],
          [
            20.426793,
            44.790784
          ],
          [
            20.426957,
            44.790745
          ],
          [
            20.427014,
            44.790722
          ],
          [
            20.427091,
            44.790701
          ],
          [
            20.427172,
            44.790689
          ],
          [
            20.427254,
            44.790686
          ],
          [
            20.427336,
            44.790693
          ],
          [
            20.427415,
            44.790709
          ],
          [
            20.42749,
            44.790734
          ],
          [
            20.427558,
            44.790767
          ],
          [
            20.427617,
            44.790808
          ],
          [
            20.427667,
            44.790855
          ],
          [
            20.427705,
            44.790907
          ],
          [
            20.42773,
            44.790962
          ],
          [
            20.427743,
            44.791026
          ],
          [
            20.427743,
            44.791071
          ],
          [
            20.42774,
            44.791086
          ],
          [
            20.427735,
            44.791115
          ],
          [
            20.427719,
            44.791158
          ],
          [
            20.427696,
            44.791199
          ],
          [
            20.427666,
            44.791238
          ],
          [
            20.42763,
            44.791274
          ],
          [
            20.427587,
            44.791306
          ],
          [
            20.427539,
            44.791335
          ],
          [
            20.427461,
            44.791369
          ],
          [
            20.427397,
            44.79143
          ],
          [
            20.427364,
            44.791484
          ],
          [
            20.427342,
            44.791536
          ],
          [
            20.427315,
            44.791605
          ],
          [
            20.427284,
            44.791701
          ],
          [
            20.427257,
            44.791805
          ],
          [
            20.42722,
            44.791977
          ],
          [
            20.42719,
            44.792124
          ],
          [
            20.427162,
            44.792255
          ],
          [
            20.427138,
            44.792339
          ],
          [
            20.427091,
            44.792444
          ],
          [
            20.427047,
            44.792535
          ],
          [
            20.42701,
            44.792613
          ],
          [
            20.426962,
            44.792672
          ],
          [
            20.426915,
            44.792725
          ],
          [
            20.426869,
            44.792939
          ],
          [
            20.426823,
            44.793153
          ],
          [
            20.426814,
            44.793193
          ],
          [
            20.426187,
            44.796208
          ],
          [
            20.42578,
            44.798138
          ],
          [
            20.425445,
            44.799725
          ],
          [
            20.425305,
            44.8004
          ],
          [
            20.425212,
            44.800835
          ],
          [
            20.425157,
            44.801082
          ],
          [
            20.425087,
            44.801367
          ],
          [
            20.42502,
            44.801557
          ],
          [
            20.424957,
            44.801707
          ],
          [
            20.424874,
            44.80189
          ],
          [
            20.424811,
            44.802001
          ],
          [
            20.424747,
            44.802103
          ],
          [
            20.424706,
            44.802165
          ],
          [
            20.424633,
            44.802268
          ],
          [
            20.424605,
            44.802304
          ],
          [
            20.424572,
            44.802347
          ],
          [
            20.42455,
            44.802426
          ],
          [
            20.42452,
            44.802484
          ],
          [
            20.424458,
            44.802592
          ],
          [
            20.424384,
            44.802693
          ],
          [
            20.424247,
            44.80288
          ],
          [
            20.424153,
            44.802994
          ],
          [
            20.424105,
            44.803051
          ],
          [
            20.423716,
            44.803561
          ],
          [
            20.423614,
            44.803695
          ],
          [
            20.423515,
            44.8038
          ],
          [
            20.423437,
            44.80387
          ],
          [
            20.423355,
            44.803929
          ],
          [
            20.423275,
            44.803976
          ],
          [
            20.423156,
            44.804024
          ],
          [
            20.423072,
            44.804051
          ],
          [
            20.422964,
            44.804073
          ],
          [
            20.422856,
            44.804085
          ],
          [
            20.422735,
            44.804094
          ],
          [
            20.422586,
            44.804082
          ],
          [
            20.42242,
            44.804055
          ],
          [
            20.422249,
            44.804023
          ],
          [
            20.421983,
            44.803962
          ],
          [
            20.421769,
            44.803916
          ],
          [
            20.421585,
            44.80388
          ],
          [
            20.421451,
            44.80385
          ],
          [
            20.421303,
            44.803818
          ],
          [
            20.421131,
            44.803787
          ],
          [
            20.420364,
            44.803825
          ],
          [
            20.420101,
            44.803837
          ],
          [
            20.419716,
            44.803856
          ],
          [
            20.419555,
            44.803864
          ],
          [
            20.41884,
            44.803898
          ],
          [
            20.418442,
            44.803917
          ],
          [
            20.41791,
            44.803943
          ],
          [
            20.417573,
            44.803958
          ],
          [
            20.417446,
            44.803965
          ],
          [
            20.417241,
            44.803977
          ],
          [
            20.417194,
            44.80398
          ],
          [
            20.417197,
            44.803932
          ],
          [
            20.417209,
            44.80375
          ],
          [
            20.417215,
            44.803662
          ],
          [
            20.417235,
            44.803353
          ],
          [
            20.417256,
            44.803233
          ],
          [
            20.417276,
            44.803095
          ],
          [
            20.41729,
            44.803054
          ],
          [
            20.417326,
            44.803005
          ],
          [
            20.417356,
            44.802983
          ],
          [
            20.417396,
            44.802961
          ],
          [
            20.417447,
            44.802947
          ],
          [
            20.417491,
            44.80186
          ],
          [
            20.417523,
            44.801092
          ],
          [
            20.417542,
            44.800775
          ],
          [
            20.417606,
            44.799725
          ],
          [
            20.417674,
            44.798627
          ],
          [
            20.417713,
            44.798585
          ],
          [
            20.417757,
            44.798557
          ],
          [
            20.418393,
            44.798428
          ],
          [
            20.418525,
            44.798402
          ],
          [
            20.418731,
            44.798357
          ],
          [
            20.419633,
            44.798164
          ],
          [
            20.420113,
            44.798072
          ],
          [
            20.420344,
            44.798036
          ],
          [
            20.420629,
            44.797992
          ],
          [
            20.420743,
            44.797961
          ],
          [
            20.420821,
            44.797941
          ],
          [
            20.420933,
            44.797928
          ],
          [
            20.421098,
            44.797939
          ],
          [
            20.421209,
            44.797956
          ],
          [
            20.421556,
            44.798022
          ],
          [
            20.422067,
            44.798161
          ],
          [
            20.42253,
            44.798282
          ],
          [
            20.422858,
            44.798363
          ],
          [
            20.423167,
            44.798421
          ],
          [
            20.423365,
            44.798463
          ],
          [
            20.423839,
            44.79856
          ],
          [
            20.424207,
            44.798633
          ],
          [
            20.424373,
            44.798666
          ],
          [
            20.424544,
            44.798712
          ],
          [
            20.424713,
            44.798761
          ],
          [
            20.424826,
            44.798803
          ],
          [
            20.42496,
            44.798876
          ],
          [
            20.425074,
            44.798943
          ],
          [
            20.425302,
            44.799108
          ],
          [
            20.425508,
            44.799211
          ],
          [
            20.425599,
            44.799245
          ],
          [
            20.425634,
            44.79925
          ],
          [
            20.42566,
            44.799253
          ],
          [
            20.42569,
            44.799252
          ],
          [
            20.425717,
            44.799252
          ],
          [
            20.425746,
            44.799251
          ],
          [
            20.425799,
            44.799246
          ],
          [
            20.425845,
            44.799239
          ],
          [
            20.425887,
            44.799227
          ],
          [
            20.425926,
            44.799216
          ],
          [
            20.425983,
            44.799215
          ],
          [
            20.42609,
            44.799226
          ],
          [
            20.426353,
            44.79925
          ],
          [
            20.426604,
            44.799262
          ],
          [
            20.426953,
            44.799276
          ],
          [
            20.427244,
            44.799308
          ],
          [
            20.427666,
            44.799359
          ],
          [
            20.428,
            44.799417
          ],
          [
            20.428047,
            44.799423
          ],
          [
            20.428205,
            44.799443
          ],
          [
            20.428886,
            44.799521
          ],
          [
            20.429099,
            44.799536
          ],
          [
            20.429223,
            44.799532
          ],
          [
            20.429331,
            44.79951
          ],
          [
            20.429401,
            44.799485
          ],
          [
            20.429453,
            44.799454
          ],
          [
            20.429506,
            44.79942
          ],
          [
            20.42964,
            44.799344
          ],
          [
            20.429733,
            44.799289
          ],
          [
            20.429784,
            44.799257
          ],
          [
            20.429829,
            44.799235
          ],
          [
            20.429873,
            44.799222
          ],
          [
            20.429923,
            44.799215
          ],
          [
            20.430018,
            44.799212
          ],
          [
            20.43017,
            44.799251
          ],
          [
            20.430761,
            44.79942
          ],
          [
            20.430925,
            44.799467
          ],
          [
            20.431402,
            44.799618
          ],
          [
            20.431442,
            44.799907
          ],
          [
            20.431402,
            44.799618
          ],
          [
            20.430925,
            44.799467
          ],
          [
            20.43017,
            44.799251
          ],
          [
            20.430018,
            44.799212
          ],
          [
            20.429923,
            44.799215
          ],
          [
            20.429873,
            44.799222
          ],
          [
            20.429829,
            44.799235
          ],
          [
            20.429784,
            44.799257
          ],
          [
            20.429733,
            44.799289
          ],
          [
            20.42964,
            44.799344
          ],
          [
            20.429506,
            44.79942
          ],
          [
            20.429453,
            44.799454
          ],
          [
            20.429401,
            44.799485
          ],
          [
            20.429331,
            44.79951
          ],
          [
            20.429223,
            44.799532
          ],
          [
            20.429099,
            44.799536
          ],
          [
            20.428886,
            44.799521
          ],
          [
            20.428205,
            44.799443
          ],
          [
            20.428047,
            44.799423
          ],
          [
            20.428,
            44.799417
          ],
          [
            20.427666,
            44.799359
          ],
          [
            20.427244,
            44.799308
          ],
          [
            20.426953,
            44.799276
          ],
          [
            20.426604,
            44.799262
          ],
          [
            20.426353,
            44.79925
          ],
          [
            20.42609,
            44.799226
          ],
          [
            20.425983,
            44.799215
          ],
          [
            20.425926,
            44.799216
          ],
          [
            20.425887,
            44.799227
          ],
          [
            20.425845,
            44.799239
          ],
          [
            20.425799,
            44.799246
          ],
          [
            20.425746,
            44.799251
          ],
          [
            20.425717,
            44.799252
          ],
          [
            20.42569,
            44.799252
          ],
          [
            20.42566,
            44.799253
          ],
          [
            20.425634,
            44.79925
          ],
          [
            20.425599,
            44.799245
          ],
          [
            20.425508,
            44.799211
          ],
          [
            20.425302,
            44.799108
          ],
          [
            20.425074,
            44.798943
          ],
          [
            20.42496,
            44.798876
          ],
          [
            20.424826,
            44.798803
          ],
          [
            20.424713,
            44.798761
          ],
          [
            20.424544,
            44.798712
          ],
          [
            20.424373,
            44.798666
          ],
          [
            20.424207,
            44.798633
          ],
          [
            20.423839,
            44.79856
          ],
          [
            20.423365,
            44.798463
          ],
          [
            20.423167,
            44.798421
          ],
          [
            20.422858,
            44.798363
          ],
          [
            20.42253,
            44.798282
          ],
          [
            20.422067,
            44.798161
          ],
          [
            20.421556,
            44.798022
          ],
          [
            20.421209,
            44.797956
          ],
          [
            20.421098,
            44.797939
          ],
          [
            20.420933,
            44.797928
          ],
          [
            20.420821,
            44.797941
          ],
          [
            20.420743,
            44.797961
          ],
          [
            20.420629,
            44.797992
          ],
          [
            20.420344,
            44.798036
          ],
          [
            20.420113,
            44.798072
          ],
          [
            20.419633,
            44.798164
          ],
          [
            20.418731,
            44.798357
          ],
          [
            20.418525,
            44.798402
          ],
          [
            20.418393,
            44.798428
          ],
          [
            20.417757,
            44.798557
          ],
          [
            20.417713,
            44.798585
          ],
          [
            20.417674,
            44.798627
          ],
          [
            20.417606,
            44.799725
          ],
          [
            20.417542,
            44.800775
          ],
          [
            20.417523,
            44.801092
          ],
          [
            20.417491,
            44.80186
          ],
          [
            20.417447,
            44.802947
          ],
          [
            20.417435,
            44.80325
          ],
          [
            20.417431,
            44.803365
          ],
          [
            20.41759,
            44.803576
          ],
          [
            20.417617,
            44.803597
          ],
          [
            20.417653,
            44.803615
          ],
          [
            20.417733,
            44.80364
          ],
          [
            20.417824,
            44.803662
          ],
          [
            20.418076,
            44.803707
          ],
          [
            20.418623,
            44.803684
          ],
          [
            20.419303,
            44.803653
          ],
          [
            20.41952,
            44.803643
          ],
          [
            20.419713,
            44.803634
          ],
          [
            20.420127,
            44.803618
          ],
          [
            20.420831,
            44.80359
          ],
          [
            20.423235,
            44.803489
          ],
          [
            20.423681,
            44.803483
          ],
          [
            20.424043,
            44.803482
          ],
          [
            20.424167,
            44.803482
          ],
          [
            20.424225,
            44.803448
          ],
          [
            20.424286,
            44.803402
          ],
          [
            20.424329,
            44.803359
          ],
          [
            20.424514,
            44.803175
          ],
          [
            20.42505,
            44.802512
          ],
          [
            20.425151,
            44.802392
          ],
          [
            20.425188,
            44.802363
          ],
          [
            20.425244,
            44.802339
          ],
          [
            20.425336,
            44.802319
          ],
          [
            20.425424,
            44.802309
          ],
          [
            20.425915,
            44.802303
          ],
          [
            20.425962,
            44.802304
          ],
          [
            20.426579,
            44.802315
          ],
          [
            20.426648,
            44.80232
          ],
          [
            20.426737,
            44.802326
          ],
          [
            20.42706,
            44.802364
          ],
          [
            20.427232,
            44.802387
          ],
          [
            20.427399,
            44.80242
          ],
          [
            20.42768,
            44.802507
          ],
          [
            20.427928,
            44.802594
          ],
          [
            20.428705,
            44.802944
          ],
          [
            20.429123,
            44.803166
          ],
          [
            20.429587,
            44.803349
          ],
          [
            20.430459,
            44.803596
          ],
          [
            20.430679,
            44.803654
          ],
          [
            20.4312,
            44.803798
          ],
          [
            20.431554,
            44.803885
          ],
          [
            20.432284,
            44.8041
          ],
          [
            20.432716,
            44.804185
          ],
          [
            20.43294,
            44.80422
          ],
          [
            20.433173,
            44.804236
          ],
          [
            20.433562,
            44.804246
          ],
          [
            20.433843,
            44.804242
          ],
          [
            20.434096,
            44.804219
          ],
          [
            20.43435,
            44.804189
          ],
          [
            20.434629,
            44.804138
          ],
          [
            20.434879,
            44.804075
          ],
          [
            20.435156,
            44.803993
          ],
          [
            20.435348,
            44.803923
          ],
          [
            20.435551,
            44.803829
          ],
          [
            20.436041,
            44.803527
          ],
          [
            20.436444,
            44.803254
          ],
          [
            20.436666,
            44.803116
          ],
          [
            20.43689,
            44.80297
          ],
          [
            20.437114,
            44.802852
          ],
          [
            20.437233,
            44.802809
          ],
          [
            20.437328,
            44.802797
          ],
          [
            20.437397,
            44.8028
          ],
          [
            20.437438,
            44.802808
          ],
          [
            20.437489,
            44.802828
          ],
          [
            20.437522,
            44.802846
          ],
          [
            20.43759,
            44.802891
          ],
          [
            20.437628,
            44.80293
          ],
          [
            20.437651,
            44.802975
          ],
          [
            20.437656,
            44.803031
          ],
          [
            20.437641,
            44.803089
          ],
          [
            20.437544,
            44.803209
          ],
          [
            20.43749,
            44.803273
          ],
          [
            20.437428,
            44.803344
          ],
          [
            20.437368,
            44.803448
          ],
          [
            20.437321,
            44.803582
          ],
          [
            20.437328,
            44.803667
          ],
          [
            20.437354,
            44.803723
          ],
          [
            20.437405,
            44.803786
          ],
          [
            20.437636,
            44.803932
          ],
          [
            20.437823,
            44.804056
          ],
          [
            20.438177,
            44.804291
          ],
          [
            20.437656,
            44.804576
          ],
          [
            20.438303,
            44.805122
          ],
          [
            20.439661,
            44.806255
          ],
          [
            20.439696,
            44.806286
          ],
          [
            20.442027,
            44.808241
          ],
          [
            20.443122,
            44.809132
          ],
          [
            20.443209,
            44.809251
          ],
          [
            20.443272,
            44.809387
          ],
          [
            20.443377,
            44.809515
          ],
          [
            20.443672,
            44.80994
          ],
          [
            20.443959,
            44.810352
          ],
          [
            20.443531,
            44.810501
          ],
          [
            20.443327,
            44.810564
          ],
          [
            20.443269,
            44.810583
          ],
          [
            20.442294,
            44.810917
          ],
          [
            20.441613,
            44.811129
          ],
          [
            20.44156,
            44.811149
          ],
          [
            20.44151,
            44.811168
          ],
          [
            20.441481,
            44.81118
          ],
          [
            20.441458,
            44.811198
          ],
          [
            20.441439,
            44.811217
          ],
          [
            20.441427,
            44.81124
          ],
          [
            20.441416,
            44.811268
          ],
          [
            20.441419,
            44.811303
          ],
          [
            20.441429,
            44.811333
          ],
          [
            20.441459,
            44.811401
          ],
          [
            20.441495,
            44.811488
          ],
          [
            20.441507,
            44.81153
          ],
          [
            20.44151,
            44.811541
          ],
          [
            20.441528,
            44.811599
          ],
          [
            20.441543,
            44.811677
          ],
          [
            20.441563,
            44.811853
          ],
          [
            20.441583,
            44.811996
          ],
          [
            20.441592,
            44.812129
          ],
          [
            20.441587,
            44.812201
          ],
          [
            20.441571,
            44.812307
          ],
          [
            20.44156,
            44.81241
          ],
          [
            20.441557,
            44.812618
          ],
          [
            20.441575,
            44.812829
          ],
          [
            20.441606,
            44.813119
          ],
          [
            20.441607,
            44.81313
          ],
          [
            20.441606,
            44.813157
          ],
          [
            20.4416,
            44.813182
          ],
          [
            20.441593,
            44.813211
          ],
          [
            20.441589,
            44.813229
          ],
          [
            20.44158,
            44.813251
          ],
          [
            20.44157,
            44.813272
          ],
          [
            20.441538,
            44.813314
          ],
          [
            20.441518,
            44.813336
          ],
          [
            20.44148,
            44.813378
          ],
          [
            20.44145,
            44.813408
          ],
          [
            20.441373,
            44.813484
          ],
          [
            20.441261,
            44.813601
          ],
          [
            20.441088,
            44.813762
          ],
          [
            20.44099,
            44.813842
          ],
          [
            20.44092,
            44.813894
          ],
          [
            20.440808,
            44.813972
          ],
          [
            20.440558,
            44.814192
          ],
          [
            20.440526,
            44.814219
          ],
          [
            20.440501,
            44.814241
          ],
          [
            20.440489,
            44.814266
          ],
          [
            20.440483,
            44.814289
          ],
          [
            20.440481,
            44.814307
          ],
          [
            20.440484,
            44.814327
          ],
          [
            20.440492,
            44.814345
          ],
          [
            20.440502,
            44.81436
          ],
          [
            20.440516,
            44.814374
          ],
          [
            20.440547,
            44.814392
          ],
          [
            20.440605,
            44.814422
          ],
          [
            20.440812,
            44.814442
          ],
          [
            20.44119,
            44.814478
          ],
          [
            20.441408,
            44.814489
          ],
          [
            20.442984,
            44.81457
          ],
          [
            20.445379,
            44.814698
          ],
          [
            20.448014,
            44.814826
          ],
          [
            20.448807,
            44.814864
          ],
          [
            20.45028,
            44.814935
          ],
          [
            20.450856,
            44.814963
          ],
          [
            20.451273,
            44.814983
          ],
          [
            20.451465,
            44.814988
          ],
          [
            20.45158,
            44.814961
          ],
          [
            20.451798,
            44.814894
          ],
          [
            20.451843,
            44.81488
          ],
          [
            20.451936,
            44.814856
          ],
          [
            20.452031,
            44.814834
          ],
          [
            20.452141,
            44.814812
          ],
          [
            20.452257,
            44.814794
          ],
          [
            20.45239,
            44.814779
          ],
          [
            20.45253,
            44.814765
          ],
          [
            20.45273,
            44.814752
          ],
          [
            20.452879,
            44.81473
          ],
          [
            20.452921,
            44.814719
          ],
          [
            20.452968,
            44.814703
          ],
          [
            20.453014,
            44.814685
          ],
          [
            20.453052,
            44.814663
          ],
          [
            20.453098,
            44.814624
          ],
          [
            20.453152,
            44.814574
          ],
          [
            20.453186,
            44.814476
          ],
          [
            20.453183,
            44.814442
          ],
          [
            20.453178,
            44.814422
          ],
          [
            20.45317,
            44.814401
          ],
          [
            20.453147,
            44.814387
          ],
          [
            20.453131,
            44.814369
          ],
          [
            20.453128,
            44.814357
          ],
          [
            20.453128,
            44.814344
          ],
          [
            20.453131,
            44.814329
          ],
          [
            20.453144,
            44.814311
          ],
          [
            20.453166,
            44.814297
          ],
          [
            20.453192,
            44.81429
          ],
          [
            20.453221,
            44.814289
          ],
          [
            20.453248,
            44.814294
          ],
          [
            20.45338,
            44.814284
          ],
          [
            20.453516,
            44.814181
          ],
          [
            20.453665,
            44.814073
          ],
          [
            20.45398,
            44.813851
          ],
          [
            20.454062,
            44.813797
          ],
          [
            20.454172,
            44.813717
          ],
          [
            20.454297,
            44.813621
          ],
          [
            20.45444,
            44.813494
          ],
          [
            20.454542,
            44.813404
          ],
          [
            20.454646,
            44.813309
          ],
          [
            20.45494,
            44.813011
          ],
          [
            20.45501,
            44.812938
          ],
          [
            20.455077,
            44.812874
          ],
          [
            20.455443,
            44.812536
          ],
          [
            20.455789,
            44.812169
          ],
          [
            20.455832,
            44.812132
          ],
          [
            20.455895,
            44.812061
          ],
          [
            20.456155,
            44.811763
          ],
          [
            20.456347,
            44.811542
          ],
          [
            20.456422,
            44.81145
          ],
          [
            20.456479,
            44.811379
          ],
          [
            20.456516,
            44.811334
          ],
          [
            20.456596,
            44.81124
          ],
          [
            20.456686,
            44.811135
          ],
          [
            20.457029,
            44.810736
          ],
          [
            20.457072,
            44.810685
          ],
          [
            20.457472,
            44.810213
          ],
          [
            20.457818,
            44.809834
          ],
          [
            20.457924,
            44.80974
          ],
          [
            20.458127,
            44.809558
          ],
          [
            20.458291,
            44.809428
          ],
          [
            20.458444,
            44.809332
          ],
          [
            20.458607,
            44.809242
          ],
          [
            20.45876,
            44.809156
          ],
          [
            20.458886,
            44.809081
          ],
          [
            20.459,
            44.809018
          ],
          [
            20.45952,
            44.808714
          ],
          [
            20.45973,
            44.80859
          ],
          [
            20.459891,
            44.808499
          ],
          [
            20.460415,
            44.808182
          ],
          [
            20.460507,
            44.808129
          ],
          [
            20.460546,
            44.808106
          ],
          [
            20.460623,
            44.808059
          ],
          [
            20.460997,
            44.807834
          ],
          [
            20.461066,
            44.807793
          ],
          [
            20.461211,
            44.807708
          ],
          [
            20.461749,
            44.807393
          ],
          [
            20.461834,
            44.807341
          ],
          [
            20.461871,
            44.807302
          ],
          [
            20.461886,
            44.807278
          ],
          [
            20.461902,
            44.807242
          ],
          [
            20.461917,
            44.807198
          ],
          [
            20.461937,
            44.807135
          ],
          [
            20.461779,
            44.806992
          ],
          [
            20.461509,
            44.806751
          ],
          [
            20.461332,
            44.806607
          ],
          [
            20.461232,
            44.806526
          ],
          [
            20.460828,
            44.8062
          ],
          [
            20.460415,
            44.805857
          ],
          [
            20.460325,
            44.805786
          ],
          [
            20.460287,
            44.805754
          ],
          [
            20.460251,
            44.805725
          ],
          [
            20.460205,
            44.805686
          ],
          [
            20.460362,
            44.805594
          ],
          [
            20.460634,
            44.805427
          ],
          [
            20.461323,
            44.805007
          ],
          [
            20.461808,
            44.804711
          ],
          [
            20.461933,
            44.804635
          ],
          [
            20.46204,
            44.804571
          ],
          [
            20.462119,
            44.804524
          ],
          [
            20.463546,
            44.803657
          ],
          [
            20.463752,
            44.803531
          ],
          [
            20.463863,
            44.803464
          ],
          [
            20.464431,
            44.803119
          ],
          [
            20.46477,
            44.802913
          ],
          [
            20.464845,
            44.802867
          ],
          [
            20.464959,
            44.802794
          ],
          [
            20.465286,
            44.802579
          ],
          [
            20.465386,
            44.802513
          ],
          [
            20.465555,
            44.802442
          ],
          [
            20.46569,
            44.802404
          ],
          [
            20.46586,
            44.802369
          ],
          [
            20.46593,
            44.802363
          ],
          [
            20.46597,
            44.802359
          ],
          [
            20.465991,
            44.802333
          ],
          [
            20.466016,
            44.802308
          ],
          [
            20.466045,
            44.802286
          ],
          [
            20.466077,
            44.802265
          ],
          [
            20.466112,
            44.802248
          ],
          [
            20.46615,
            44.802233
          ],
          [
            20.466189,
            44.802222
          ],
          [
            20.466225,
            44.802214
          ],
          [
            20.466262,
            44.802209
          ],
          [
            20.4663,
            44.802207
          ],
          [
            20.466337,
            44.802207
          ],
          [
            20.466374,
            44.80221
          ],
          [
            20.466411,
            44.802215
          ],
          [
            20.466447,
            44.802223
          ],
          [
            20.466482,
            44.802233
          ],
          [
            20.466514,
            44.802245
          ],
          [
            20.466546,
            44.80226
          ],
          [
            20.466574,
            44.802276
          ],
          [
            20.466601,
            44.802295
          ],
          [
            20.466625,
            44.802315
          ],
          [
            20.466646,
            44.802337
          ],
          [
            20.466664,
            44.80236
          ],
          [
            20.466676,
            44.802379
          ],
          [
            20.466695,
            44.802411
          ],
          [
            20.466777,
            44.80243
          ],
          [
            20.466823,
            44.80244
          ],
          [
            20.466905,
            44.802447
          ],
          [
            20.466955,
            44.802447
          ],
          [
            20.467039,
            44.802433
          ],
          [
            20.467137,
            44.802404
          ],
          [
            20.467206,
            44.802378
          ],
          [
            20.467246,
            44.802358
          ],
          [
            20.467395,
            44.802278
          ],
          [
            20.467858,
            44.80202
          ],
          [
            20.468282,
            44.801791
          ],
          [
            20.469056,
            44.80136
          ],
          [
            20.469264,
            44.801243
          ],
          [
            20.469431,
            44.801154
          ],
          [
            20.469628,
            44.801041
          ],
          [
            20.469763,
            44.800962
          ],
          [
            20.469746,
            44.800954
          ],
          [
            20.469731,
            44.800948
          ],
          [
            20.469699,
            44.800936
          ],
          [
            20.46962,
            44.800908
          ],
          [
            20.469142,
            44.800775
          ],
          [
            20.46909,
            44.800761
          ],
          [
            20.469107,
            44.800731
          ],
          [
            20.469848,
            44.799413
          ],
          [
            20.469885,
            44.799344
          ],
          [
            20.469583,
            44.799278
          ],
          [
            20.469284,
            44.799212
          ],
          [
            20.469304,
            44.799174
          ],
          [
            20.469326,
            44.799134
          ],
          [
            20.469414,
            44.79897
          ],
          [
            20.469443,
            44.798917
          ],
          [
            20.46949,
            44.798852
          ],
          [
            20.469539,
            44.798802
          ],
          [
            20.469591,
            44.798748
          ],
          [
            20.469646,
            44.798708
          ],
          [
            20.469708,
            44.798659
          ],
          [
            20.469801,
            44.798581
          ],
          [
            20.469847,
            44.798546
          ],
          [
            20.469919,
            44.798481
          ],
          [
            20.469987,
            44.798402
          ],
          [
            20.470041,
            44.798318
          ],
          [
            20.470066,
            44.798259
          ],
          [
            20.470079,
            44.798226
          ],
          [
            20.470094,
            44.798149
          ],
          [
            20.470096,
            44.798075
          ],
          [
            20.470089,
            44.797987
          ],
          [
            20.470066,
            44.797902
          ],
          [
            20.46981,
            44.797476
          ],
          [
            20.469746,
            44.797488
          ],
          [
            20.46964,
            44.797509
          ],
          [
            20.469566,
            44.797523
          ],
          [
            20.469351,
            44.797497
          ],
          [
            20.46926,
            44.797484
          ],
          [
            20.469183,
            44.797474
          ],
          [
            20.469183,
            44.797474
          ],
          [
            20.469207,
            44.797375
          ],
          [
            20.469183,
            44.797474
          ],
          [
            20.46926,
            44.797484
          ],
          [
            20.469351,
            44.797497
          ],
          [
            20.469566,
            44.797523
          ],
          [
            20.46964,
            44.797509
          ],
          [
            20.469746,
            44.797488
          ],
          [
            20.46981,
            44.797476
          ],
          [
            20.470066,
            44.797902
          ],
          [
            20.470089,
            44.797987
          ],
          [
            20.470096,
            44.798075
          ],
          [
            20.470094,
            44.798149
          ],
          [
            20.470079,
            44.798226
          ],
          [
            20.470066,
            44.798259
          ],
          [
            20.470041,
            44.798318
          ],
          [
            20.469987,
            44.798402
          ],
          [
            20.469919,
            44.798481
          ],
          [
            20.469847,
            44.798546
          ],
          [
            20.469801,
            44.798581
          ],
          [
            20.469708,
            44.798659
          ],
          [
            20.469646,
            44.798708
          ],
          [
            20.469591,
            44.798748
          ],
          [
            20.469539,
            44.798802
          ],
          [
            20.46949,
            44.798852
          ],
          [
            20.469443,
            44.798917
          ],
          [
            20.469414,
            44.79897
          ],
          [
            20.469326,
            44.799134
          ],
          [
            20.469304,
            44.799174
          ],
          [
            20.469284,
            44.799212
          ],
          [
            20.468715,
            44.79908
          ],
          [
            20.468588,
            44.799049
          ],
          [
            20.468553,
            44.799113
          ],
          [
            20.468474,
            44.799258
          ],
          [
            20.468406,
            44.799384
          ],
          [
            20.467864,
            44.800378
          ],
          [
            20.467844,
            44.800415
          ],
          [
            20.467817,
            44.800464
          ],
          [
            20.466907,
            44.802118
          ],
          [
            20.466866,
            44.802169
          ],
          [
            20.466837,
            44.802198
          ],
          [
            20.466784,
            44.80224
          ],
          [
            20.466722,
            44.802288
          ],
          [
            20.46669,
            44.802323
          ],
          [
            20.466664,
            44.80236
          ],
          [
            20.466676,
            44.802379
          ],
          [
            20.466695,
            44.802411
          ],
          [
            20.466703,
            44.802458
          ],
          [
            20.466704,
            44.802489
          ],
          [
            20.4667,
            44.80252
          ],
          [
            20.466692,
            44.80255
          ],
          [
            20.466675,
            44.802585
          ],
          [
            20.466652,
            44.802619
          ],
          [
            20.466623,
            44.80265
          ],
          [
            20.466588,
            44.802678
          ],
          [
            20.466589,
            44.802678
          ],
          [
            20.466525,
            44.802712
          ],
          [
            20.466516,
            44.802809
          ],
          [
            20.466497,
            44.802906
          ],
          [
            20.466488,
            44.802933
          ],
          [
            20.46648,
            44.802952
          ],
          [
            20.466474,
            44.802962
          ],
          [
            20.466409,
            44.803057
          ],
          [
            20.466386,
            44.803087
          ],
          [
            20.46635,
            44.803131
          ],
          [
            20.466338,
            44.803153
          ],
          [
            20.466057,
            44.803659
          ],
          [
            20.465978,
            44.803802
          ],
          [
            20.465929,
            44.803893
          ],
          [
            20.465405,
            44.80489
          ],
          [
            20.465333,
            44.805021
          ],
          [
            20.464874,
            44.805863
          ],
          [
            20.464464,
            44.806613
          ],
          [
            20.464435,
            44.806669
          ],
          [
            20.464418,
            44.806703
          ],
          [
            20.464403,
            44.806732
          ],
          [
            20.464355,
            44.80682
          ],
          [
            20.463978,
            44.807519
          ],
          [
            20.463557,
            44.808265
          ],
          [
            20.463491,
            44.808369
          ],
          [
            20.463471,
            44.808406
          ],
          [
            20.463409,
            44.808517
          ],
          [
            20.463005,
            44.809268
          ],
          [
            20.462886,
            44.809481
          ],
          [
            20.462768,
            44.809687
          ],
          [
            20.462617,
            44.809952
          ],
          [
            20.462329,
            44.810477
          ],
          [
            20.462137,
            44.810841
          ],
          [
            20.462126,
            44.810861
          ],
          [
            20.462069,
            44.810963
          ],
          [
            20.462048,
            44.811004
          ],
          [
            20.461715,
            44.811734
          ],
          [
            20.461581,
            44.812081
          ],
          [
            20.461371,
            44.812524
          ],
          [
            20.461017,
            44.813202
          ],
          [
            20.460869,
            44.813487
          ],
          [
            20.460874,
            44.813503
          ],
          [
            20.460872,
            44.81352
          ],
          [
            20.460865,
            44.813535
          ],
          [
            20.460853,
            44.813549
          ],
          [
            20.460836,
            44.813561
          ],
          [
            20.460708,
            44.813871
          ],
          [
            20.460598,
            44.814084
          ],
          [
            20.460528,
            44.814219
          ],
          [
            20.460474,
            44.814324
          ],
          [
            20.460426,
            44.814409
          ],
          [
            20.46038,
            44.814497
          ],
          [
            20.460348,
            44.814582
          ],
          [
            20.460336,
            44.814641
          ],
          [
            20.460335,
            44.814704
          ],
          [
            20.46034,
            44.814822
          ],
          [
            20.460339,
            44.815032
          ],
          [
            20.460384,
            44.815155
          ],
          [
            20.460425,
            44.815248
          ],
          [
            20.460546,
            44.815473
          ],
          [
            20.460629,
            44.815633
          ],
          [
            20.460666,
            44.815704
          ],
          [
            20.460684,
            44.815731
          ],
          [
            20.460713,
            44.815756
          ],
          [
            20.460742,
            44.815775
          ],
          [
            20.460773,
            44.815791
          ],
          [
            20.460892,
            44.815852
          ],
          [
            20.461011,
            44.815914
          ],
          [
            20.461025,
            44.815882
          ],
          [
            20.461053,
            44.815856
          ],
          [
            20.461091,
            44.815836
          ],
          [
            20.461135,
            44.815826
          ],
          [
            20.461182,
            44.815826
          ],
          [
            20.461226,
            44.815836
          ],
          [
            20.461264,
            44.815855
          ],
          [
            20.461292,
            44.815881
          ],
          [
            20.461308,
            44.815913
          ],
          [
            20.461308,
            44.815947
          ],
          [
            20.461294,
            44.815979
          ],
          [
            20.461266,
            44.816007
          ],
          [
            20.461228,
            44.816027
          ],
          [
            20.461182,
            44.816037
          ],
          [
            20.461134,
            44.816037
          ],
          [
            20.461039,
            44.816161
          ],
          [
            20.460921,
            44.816257
          ],
          [
            20.460866,
            44.816302
          ],
          [
            20.460854,
            44.816358
          ],
          [
            20.460852,
            44.816407
          ],
          [
            20.46086,
            44.816465
          ],
          [
            20.46088,
            44.816507
          ],
          [
            20.460898,
            44.816537
          ],
          [
            20.460948,
            44.816588
          ],
          [
            20.460999,
            44.816634
          ],
          [
            20.461025,
            44.816673
          ],
          [
            20.461046,
            44.816719
          ],
          [
            20.461091,
            44.816748
          ],
          [
            20.461881,
            44.817241
          ],
          [
            20.461962,
            44.817292
          ],
          [
            20.462403,
            44.817568
          ],
          [
            20.462471,
            44.817614
          ],
          [
            20.462541,
            44.817661
          ],
          [
            20.462865,
            44.817862
          ],
          [
            20.463652,
            44.818345
          ],
          [
            20.463722,
            44.818388
          ],
          [
            20.464333,
            44.818776
          ],
          [
            20.464398,
            44.818817
          ],
          [
            20.464303,
            44.818875
          ],
          [
            20.463761,
            44.819192
          ],
          [
            20.463725,
            44.819213
          ],
          [
            20.463642,
            44.819266
          ],
          [
            20.462918,
            44.819706
          ],
          [
            20.462897,
            44.819721
          ],
          [
            20.462867,
            44.819702
          ],
          [
            20.462832,
            44.819678
          ],
          [
            20.4626,
            44.8195
          ],
          [
            20.462276,
            44.819252
          ],
          [
            20.462216,
            44.819208
          ],
          [
            20.462273,
            44.819177
          ],
          [
            20.463033,
            44.818757
          ],
          [
            20.463078,
            44.818732
          ],
          [
            20.46311,
            44.818715
          ],
          [
            20.463639,
            44.81843
          ],
          [
            20.463722,
            44.818388
          ],
          [
            20.463652,
            44.818345
          ],
          [
            20.462865,
            44.817862
          ],
          [
            20.462541,
            44.817661
          ],
          [
            20.462471,
            44.817614
          ],
          [
            20.462403,
            44.817568
          ],
          [
            20.461962,
            44.817292
          ],
          [
            20.461881,
            44.817241
          ],
          [
            20.461091,
            44.816748
          ],
          [
            20.461046,
            44.816719
          ],
          [
            20.460979,
            44.816695
          ],
          [
            20.460938,
            44.816677
          ],
          [
            20.460844,
            44.816618
          ],
          [
            20.460771,
            44.816573
          ],
          [
            20.460625,
            44.816477
          ],
          [
            20.460744,
            44.816389
          ],
          [
            20.460866,
            44.816302
          ],
          [
            20.460921,
            44.816257
          ],
          [
            20.461039,
            44.816161
          ],
          [
            20.461134,
            44.816037
          ],
          [
            20.461102,
            44.816031
          ],
          [
            20.461072,
            44.816019
          ],
          [
            20.461047,
            44.816003
          ],
          [
            20.461027,
            44.815983
          ],
          [
            20.461014,
            44.815961
          ],
          [
            20.461009,
            44.815938
          ],
          [
            20.461011,
            44.815914
          ],
          [
            20.461025,
            44.815882
          ],
          [
            20.461053,
            44.815856
          ],
          [
            20.461091,
            44.815836
          ],
          [
            20.461135,
            44.815826
          ],
          [
            20.461182,
            44.815826
          ],
          [
            20.461226,
            44.815836
          ],
          [
            20.461264,
            44.815855
          ],
          [
            20.461292,
            44.815881
          ],
          [
            20.461443,
            44.815823
          ],
          [
            20.461618,
            44.815788
          ],
          [
            20.462024,
            44.815752
          ],
          [
            20.462108,
            44.815744
          ],
          [
            20.462305,
            44.815727
          ],
          [
            20.462302,
            44.815667
          ],
          [
            20.462303,
            44.815645
          ],
          [
            20.46231,
            44.815617
          ],
          [
            20.462315,
            44.815603
          ],
          [
            20.462323,
            44.815579
          ],
          [
            20.46237,
            44.81545
          ],
          [
            20.46241,
            44.815339
          ],
          [
            20.462436,
            44.815269
          ],
          [
            20.462483,
            44.815146
          ],
          [
            20.462501,
            44.815099
          ],
          [
            20.462612,
            44.814831
          ],
          [
            20.462586,
            44.814707
          ],
          [
            20.462562,
            44.814654
          ],
          [
            20.462533,
            44.814609
          ],
          [
            20.462516,
            44.814588
          ],
          [
            20.462493,
            44.814561
          ],
          [
            20.46247,
            44.814535
          ],
          [
            20.462425,
            44.814505
          ],
          [
            20.46239,
            44.814485
          ],
          [
            20.462247,
            44.814426
          ],
          [
            20.461913,
            44.814375
          ],
          [
            20.461561,
            44.814337
          ],
          [
            20.461107,
            44.814291
          ],
          [
            20.460857,
            44.814265
          ],
          [
            20.460617,
            44.814241
          ],
          [
            20.460401,
            44.814223
          ],
          [
            20.460177,
            44.814204
          ],
          [
            20.459708,
            44.814173
          ],
          [
            20.45929,
            44.814149
          ],
          [
            20.458852,
            44.814131
          ],
          [
            20.458685,
            44.814128
          ],
          [
            20.458507,
            44.814128
          ],
          [
            20.458433,
            44.81413
          ],
          [
            20.458373,
            44.814134
          ],
          [
            20.458268,
            44.814143
          ],
          [
            20.458191,
            44.814153
          ],
          [
            20.458096,
            44.814166
          ],
          [
            20.458044,
            44.814175
          ],
          [
            20.457399,
            44.814308
          ],
          [
            20.456948,
            44.814402
          ],
          [
            20.456907,
            44.814411
          ],
          [
            20.456451,
            44.814505
          ],
          [
            20.456247,
            44.814548
          ],
          [
            20.456151,
            44.814568
          ],
          [
            20.454009,
            44.814992
          ],
          [
            20.453813,
            44.815053
          ],
          [
            20.45366,
            44.815084
          ],
          [
            20.453512,
            44.815101
          ],
          [
            20.453297,
            44.81511
          ],
          [
            20.453245,
            44.815112
          ],
          [
            20.453098,
            44.815118
          ],
          [
            20.452985,
            44.815121
          ],
          [
            20.452573,
            44.815116
          ],
          [
            20.45226,
            44.815107
          ],
          [
            20.451736,
            44.81509
          ],
          [
            20.451433,
            44.815079
          ],
          [
            20.451275,
            44.815074
          ],
          [
            20.450651,
            44.815047
          ],
          [
            20.450397,
            44.815034
          ],
          [
            20.442975,
            44.814666
          ],
          [
            20.440972,
            44.814567
          ],
          [
            20.440758,
            44.814556
          ],
          [
            20.439977,
            44.814517
          ],
          [
            20.439823,
            44.814508
          ],
          [
            20.439692,
            44.814503
          ],
          [
            20.439535,
            44.814504
          ],
          [
            20.439497,
            44.814546
          ],
          [
            20.439449,
            44.814582
          ],
          [
            20.439391,
            44.814611
          ],
          [
            20.439326,
            44.814631
          ],
          [
            20.439263,
            44.814641
          ],
          [
            20.439199,
            44.814643
          ],
          [
            20.439136,
            44.814637
          ],
          [
            20.439075,
            44.814622
          ],
          [
            20.439019,
            44.814601
          ],
          [
            20.438969,
            44.814572
          ],
          [
            20.438927,
            44.814538
          ],
          [
            20.438895,
            44.8145
          ],
          [
            20.438873,
            44.814458
          ],
          [
            20.438771,
            44.814434
          ],
          [
            20.438643,
            44.814416
          ],
          [
            20.43851,
            44.814407
          ],
          [
            20.438437,
            44.814405
          ],
          [
            20.438316,
            44.814401
          ],
          [
            20.438198,
            44.814398
          ],
          [
            20.438048,
            44.814397
          ],
          [
            20.437745,
            44.814401
          ],
          [
            20.437229,
            44.814426
          ],
          [
            20.436735,
            44.814461
          ],
          [
            20.436583,
            44.814476
          ],
          [
            20.436437,
            44.814496
          ],
          [
            20.436114,
            44.814546
          ],
          [
            20.435861,
            44.814592
          ],
          [
            20.435496,
            44.814663
          ],
          [
            20.435386,
            44.814685
          ],
          [
            20.435319,
            44.814699
          ],
          [
            20.435219,
            44.81472
          ],
          [
            20.435096,
            44.814746
          ],
          [
            20.434807,
            44.814816
          ],
          [
            20.434677,
            44.814849
          ],
          [
            20.434586,
            44.814745
          ],
          [
            20.434483,
            44.814632
          ],
          [
            20.434411,
            44.814553
          ],
          [
            20.434352,
            44.814487
          ],
          [
            20.43423,
            44.814353
          ],
          [
            20.433386,
            44.813423
          ],
          [
            20.433331,
            44.813363
          ],
          [
            20.433098,
            44.813106
          ],
          [
            20.432992,
            44.812987
          ],
          [
            20.433095,
            44.812896
          ],
          [
            20.433141,
            44.812875
          ],
          [
            20.433204,
            44.812846
          ],
          [
            20.434936,
            44.812058
          ],
          [
            20.435019,
            44.812021
          ]
        ]
      }
    }
  ]
}