{
  "type": "FeatureCollection",
  "features": [
    {
      "type": "Feature",
      "properties": {
        "id": "family-day",
        "kind": "osrm-walk"
      },
      "geometry": {
        "type": "LineString",
        "coordinates": [
          [
            20.448397,
            44.821125
          ],
          [
            20.448397,
            44.821125
          ],
          [
            20.448138,
            44.821286
          ],
          [
            20.447775,
            44.821493
          ],
          [
            20.447577,
            44.821617
          ],
          [
            20.447426,
            44.82171
          ],
          [
            20.447206,
            44.821849
          ],
          [
            20.447057,
            44.821953
          ],
          [
            20.446975,
            44.822023
          ],
          [
            20.446869,
            44.82213
          ],
          [
            20.446745,
            44.822263
          ],
          [
            20.446586,
            44.822448
          ],
          [
            20.446512,
            44.822546
          ],
          [
            20.446464,
            44.822638
          ],
          [
            20.446435,
            44.822725
          ],
          [
            20.446412,
            44.822858
          ],
          [
            20.446401,
            44.822955
          ],
          [
            20.446394,
            44.823133
          ],
          [
            20.446392,
            44.823387
          ],
          [
            20.446372,
            44.823495
          ],
          [
            20.446343,
            44.823593
          ],
          [
            20.446263,
            44.823804
          ],
          [
            20.446168,
            44.82406
          ],
          [
            20.446088,
            44.824289
          ],
          [
            20.446057,
            44.824427
          ],
          [
            20.446041,
            44.824566
          ],
          [
            20.446034,
            44.824753
          ],
          [
            20.446037,
            44.824939
          ],
          [
            20.446047,
            44.825123
          ],
          [
            20.446083,
            44.825371
          ],
          [
            20.446107,
            44.825454
          ],
          [
            20.446129,
            44.825516
          ],
          [
            20.446174,
            44.825619
          ],
          [
            20.446234,
            44.825726
          ],
          [
            20.446279,
            44.825785
          ],
          [
            20.446328,
            44.825847
          ],
          [
            20.446457,
            44.825986
          ],
          [
            20.4466,
            44.826122
          ],
          [
            20.446638,
            44.826157
          ],
          [
            20.446686,
            44.826197
          ],
          [
            20.446762,
            44.82626
          ],
          [
            20.447107,
            44.826514
          ],
          [
            20.447235,
            44.826609
          ],
          [
            20.447299,
            44.826654
          ],
          [
            20.447355,
            44.826692
          ],
          [
            20.447394,
            44.826717
          ],
          [
            20.447472,
            44.826763
          ],
          [
            20.447579,
            44.826813
          ],
          [
            20.447646,
            44.826839
          ],
          [
            20.447722,
            44.826865
          ],
          [
            20.448089,
            44.826953
          ],
          [
            20.448164,
            44.826971
          ],
          [
            20.448706,
            44.827101
          ],
          [
            20.451375,
            44.827738
          ],
          [
            20.451504,
            44.827754
          ],
          [
            20.451637,
            44.827763
          ],
          [
            20.451764,
            44.827762
          ],
          [
            20.451823,
            44.827759
          ],
          [
            20.451861,
            44.827757
          ],
          [
            20.451955,
            44.827738
          ],
          [
            20.452019,
            44.827722
          ],
          [
            20.452074,
            44.827705
          ],
          [
            20.452139,
            44.827678
          ],
          [
            20.452169,
            44.827663
          ],
          [
            20.452312,
            44.827586
          ],
          [
            20.452335,
            44.827573
          ],
          [
            20.452437,
            44.827516
          ],
          [
            20.45247,
            44.827497
          ],
          [
            20.452503,
            44.827478
          ],
          [
            20.452537,
            44.827459
          ],
          [
            20.452709,
            44.827359
          ],
          [
            20.45285,
            44.827277
          ],
          [
            20.452925,
            44.827236
          ],
          [
            20.452992,
            44.8272
          ],
          [
            20.45303,
            44.827179
          ],
          [
            20.453104,
            44.827139
          ],
          [
            20.453594,
            44.826874
          ],
          [
            20.454484,
            44.826398
          ],
          [
            20.454602,
            44.826335
          ],
          [
            20.455481,
            44.825867
          ],
          [
            20.455541,
            44.825834
          ],
          [
            20.455765,
            44.825716
          ],
          [
            20.455758,
            44.825629
          ],
          [
            20.455746,
            44.825441
          ],
          [
            20.455737,
            44.825339
          ],
          [
            20.455735,
            44.825321
          ],
          [
            20.455734,
            44.825316
          ],
          [
            20.455733,
            44.825302
          ],
          [
            20.455728,
            44.82527
          ],
          [
            20.455673,
            44.824906
          ],
          [
            20.455633,
            44.824903
          ],
          [
            20.45558,
            44.8249
          ],
          [
            20.455564,
            44.8249
          ],
          [
            20.455459,
            44.824887
          ],
          [
            20.455399,
            44.824909
          ],
          [
            20.455351,
            44.824907
          ],
          [
            20.455305,
            44.82489
          ],
          [
            20.454177,
            44.824847
          ],
          [
            20.453233,
            44.8248
          ],
          [
            20.453156,
            44.824798
          ],
          [
            20.452813,
            44.824785
          ],
          [
            20.452557,
            44.824758
          ],
          [
            20.452399,
            44.824735
          ],
          [
            20.452299,
            44.82471
          ],
          [
            20.452134,
            44.824701
          ],
          [
            20.452482,
            44.824366
          ],
          [
            20.452482,
            44.824366
          ],
          [
            20.452134,
            44.824701
          ],
          [
            20.452299,
            44.82471
          ],
          [
            20.452399,
            44.824735
          ],
          [
            20.452557,
            44.824758
          ],
          [
            20.452813,
            44.824785
          ],
          [
            20.453156,
            44.824798
          ],
          [
            20.453233,
            44.8248
          ],
          [
            20.454177,
            44.824847
          ],
          [
            20.455305,
            44.82489
          ],
          [
            20.455353,
            44.824869
          ],
          [
            20.455397,
            44.824868
          ],
          [
            20.455459,
            44.824887
          ],
          [
            20.455564,
            44.8249
          ],
          [
            20.45558,
            44.8249
          ],
          [
            20.455633,
            44.824903
          ],
          [
            20.455673,
            44.824906
          ],
          [
            20.455728,
            44.82527
          ],
          [
            20.455733,
            44.825302
          ],
          [
            20.455734,
            44.825316
          ],
          [
            20.455735,
            44.825321
          ],
          [
            20.455737,
            44.825339
          ],
          [
            20.455762,
            44.82538
          ],
          [
            20.455783,
            44.825401
          ],
          [
            20.455811,
            44.825422
          ],
          [
            20.455831,
            44.825433
          ],
          [
            20.455856,
            44.825444
          ],
          [
            20.455883,
            44.825453
          ],
          [
            20.455912,
            44.825459
          ],
          [
            20.45594,
            44.825462
          ],
          [
            20.455966,
            44.825463
          ],
          [
            20.455992,
            44.825463
          ],
          [
            20.456024,
            44.825461
          ],
          [
            20.456053,
            44.825459
          ],
          [
            20.456081,
            44.825456
          ],
          [
            20.456135,
            44.825447
          ],
          [
            20.456146,
            44.825445
          ],
          [
            20.456201,
            44.825436
          ],
          [
            20.456243,
            44.825427
          ],
          [
            20.456286,
            44.825418
          ],
          [
            20.456316,
            44.825412
          ],
          [
            20.456816,
            44.825152
          ],
          [
            20.456831,
            44.825144
          ],
          [
            20.456851,
            44.825114
          ],
          [
            20.456868,
            44.825096
          ],
          [
            20.4569,
            44.825074
          ],
          [
            20.457097,
            44.824973
          ],
          [
            20.457124,
            44.824964
          ],
          [
            20.457153,
            44.824959
          ],
          [
            20.457208,
            44.82495
          ],
          [
            20.457436,
            44.824829
          ],
          [
            20.457487,
            44.824752
          ],
          [
            20.457811,
            44.824577
          ],
          [
            20.457877,
            44.82454
          ],
          [
            20.458528,
            44.824188
          ],
          [
            20.45867,
            44.824148
          ],
          [
            20.458695,
            44.824134
          ],
          [
            20.458849,
            44.82405
          ],
          [
            20.459051,
            44.823942
          ],
          [
            20.45911,
            44.823875
          ],
          [
            20.459418,
            44.82371
          ],
          [
            20.459556,
            44.823685
          ],
          [
            20.459808,
            44.823541
          ],
          [
            20.459915,
            44.823483
          ],
          [
            20.460039,
            44.823413
          ],
          [
            20.460619,
            44.823088
          ],
          [
            20.461125,
            44.822807
          ],
          [
            20.461352,
            44.822685
          ],
          [
            20.461481,
            44.822615
          ],
          [
            20.462143,
            44.82226
          ],
          [
            20.462227,
            44.822215
          ],
          [
            20.462588,
            44.822017
          ],
          [
            20.462873,
            44.821864
          ],
          [
            20.463572,
            44.821481
          ],
          [
            20.463685,
            44.82142
          ],
          [
            20.463617,
            44.821372
          ],
          [
            20.463564,
            44.821333
          ],
          [
            20.46288,
            44.820817
          ],
          [
            20.462825,
            44.820776
          ],
          [
            20.462789,
            44.820748
          ],
          [
            20.462131,
            44.820272
          ],
          [
            20.462067,
            44.820223
          ],
          [
            20.462027,
            44.820193
          ],
          [
            20.461395,
            44.819713
          ],
          [
            20.461368,
            44.819695
          ],
          [
            20.461309,
            44.81965
          ],
          [
            20.460597,
            44.819116
          ],
          [
            20.460556,
            44.819087
          ],
          [
            20.46047,
            44.819147
          ],
          [
            20.459853,
            44.819577
          ],
          [
            20.459833,
            44.81959
          ],
          [
            20.459809,
            44.819608
          ],
          [
            20.459571,
            44.819444
          ],
          [
            20.459395,
            44.819322
          ],
          [
            20.459328,
            44.819274
          ],
          [
            20.459243,
            44.819213
          ],
          [
            20.45923,
            44.819204
          ],
          [
            20.459224,
            44.819195
          ],
          [
            20.459211,
            44.819174
          ],
          [
            20.459205,
            44.81917
          ],
          [
            20.459184,
            44.819155
          ],
          [
            20.45882,
            44.818889
          ],
          [
            20.458437,
            44.818612
          ],
          [
            20.458354,
            44.818552
          ],
          [
            20.45816,
            44.818426
          ],
          [
            20.45816,
            44.818426
          ],
          [
            20.458354,
            44.818552
          ],
          [
            20.458437,
            44.818612
          ],
          [
            20.45882,
            44.818889
          ],
          [
            20.459184,
            44.819155
          ],
          [
            20.459205,
            44.81917
          ],
          [
            20.459211,
            44.819174
          ],
          [
            20.459239,
            44.819184
          ],
          [
            20.459252,
            44.819188
          ],
          [
            20.459265,
            44.819197
          ],
          [
            20.459352,
            44.819256
          ],
          [
            20.459421,
            44.819303
          ],
          [
            20.459597,
            44.819424
          ],
          [
            20.459833,
            44.81959
          ],
          [
            20.459809,
            44.819608
          ],
          [
            20.459796,
            44.819617
          ],
          [
            20.45953,
            44.819804
          ],
          [
            20.45951,
            44.819818
          ],
          [
            20.459537,
            44.819842
          ],
          [
            20.460101,
            44.820334
          ],
          [
            20.460136,
            44.820365
          ],
          [
            20.460157,
            44.820353
          ],
          [
            20.461342,
            44.819709
          ],
          [
            20.461368,
            44.819695
          ],
          [
            20.461418,
            44.819666
          ],
          [
            20.462163,
            44.819238
          ],
          [
            20.462216,
            44.819208
          ],
          [
            20.462273,
            44.819177
          ],
          [
            20.463033,
            44.818757
          ],
          [
            20.463078,
            44.818732
          ],
          [
            20.46311,
            44.818715
          ],
          [
            20.463639,
            44.81843
          ],
          [
            20.463722,
            44.818388
          ],
          [
            20.463652,
            44.818345
          ],
          [
            20.462865,
            44.817862
          ],
          [
            20.462541,
            44.817661
          ],
          [
            20.462471,
            44.817614
          ],
          [
            20.462403,
            44.817568
          ],
          [
            20.461962,
            44.817292
          ],
          [
            20.461881,
            44.817241
          ],
          [
            20.461091,
            44.816748
          ],
          [
            20.461046,
            44.816719
          ],
          [
            20.460979,
            44.816695
          ],
          [
            20.460938,
            44.816677
          ],
          [
            20.460844,
            44.816618
          ],
          [
            20.460771,
            44.816573
          ],
          [
            20.460625,
            44.816477
          ],
          [
            20.460744,
            44.816389
          ],
          [
            20.460866,
            44.816302
          ],
          [
            20.460921,
            44.816257
          ],
          [
            20.461039,
            44.816161
          ],
          [
            20.461134,
            44.816037
          ],
          [
            20.461102,
            44.816031
          ],
          [
            20.461072,
            44.816019
          ],
          [
            20.461047,
            44.816003
          ],
          [
            20.461027,
            44.815983
          ],
          [
            20.461014,
            44.815961
          ],
          [
            20.461009,
            44.815938
          ],
          [
            20.461011,
            44.815914
          ],
          [
            20.461025,
            44.815882
          ],
          [
            20.461053,
            44.815856
          ],
          [
            20.461091,
            44.815836
          ],
          [
            20.461135,
            44.815826
          ],
          [
            20.461182,
            44.815826
          ],
          [
            20.461226,
            44.815836
          ],
          [
            20.461264,
            44.815855
          ],
          [
            20.461292,
            44.815881
          ],
          [
            20.461443,
            44.815823
          ],
          [
            20.461618,
            44.815788
          ],
          [
            20.462024,
            44.815752
          ],
          [
            20.462108,
            44.815744
          ],
          [
            20.462305,
            44.815727
          ],
          [
            20.462302,
            44.815667
          ],
          [
            20.462303,
            44.815645
          ],
          [
            20.46231,
            44.815617
          ],
          [
            20.462315,
            44.815603
          ],
          [
            20.462323,
            44.815579
          ],
          [
            20.46237,
            44.81545
          ],
          [
            20.46241,
            44.815339
          ],
          [
            20.462436,
            44.815269
          ],
          [
            20.462483,
            44.815146
          ],
          [
            20.462501,
            44.815099
          ],
          [
            20.462612,
            44.814831
          ],
          [
            20.462705,
            44.814597
          ],
          [
            20.462729,
            44.814538
          ],
          [
            20.462744,
            44.814499
          ],
          [
            20.462795,
            44.814358
          ],
          [
            20.462853,
            44.814188
          ],
          [
            20.462975,
            44.81386
          ],
          [
            20.463182,
            44.813273
          ],
          [
            20.463371,
            44.81278
          ],
          [
            20.463422,
            44.812649
          ],
          [
            20.463458,
            44.812571
          ],
          [
            20.463489,
            44.812515
          ],
          [
            20.463505,
            44.812486
          ],
          [
            20.463527,
            44.812459
          ],
          [
            20.463557,
            44.812427
          ],
          [
            20.463593,
            44.812393
          ],
          [
            20.463609,
            44.812379
          ],
          [
            20.463664,
            44.812332
          ],
          [
            20.463677,
            44.812296
          ],
          [
            20.463701,
            44.812258
          ],
          [
            20.463717,
            44.812242
          ],
          [
            20.463724,
            44.812235
          ],
          [
            20.463914,
            44.812058
          ],
          [
            20.463992,
            44.811979
          ],
          [
            20.46404,
            44.811908
          ],
          [
            20.464049,
            44.811887
          ],
          [
            20.464034,
            44.811878
          ],
          [
            20.46402,
            44.811868
          ],
          [
            20.46401,
            44.811856
          ],
          [
            20.464002,
            44.811843
          ],
          [
            20.463996,
            44.811815
          ],
          [
            20.464004,
            44.811787
          ],
          [
            20.464024,
            44.811762
          ],
          [
            20.464055,
            44.811744
          ],
          [
            20.464092,
            44.811734
          ],
          [
            20.464132,
            44.811734
          ],
          [
            20.464308,
            44.811627
          ],
          [
            20.464503,
            44.811487
          ],
          [
            20.464557,
            44.811434
          ],
          [
            20.464603,
            44.811389
          ],
          [
            20.464631,
            44.81137
          ],
          [
            20.46492,
            44.81118
          ],
          [
            20.464976,
            44.811144
          ],
          [
            20.465622,
            44.810707
          ],
          [
            20.465815,
            44.810579
          ],
          [
            20.465867,
            44.810544
          ],
          [
            20.465965,
            44.81048
          ],
          [
            20.466049,
            44.810425
          ],
          [
            20.466113,
            44.810384
          ],
          [
            20.466305,
            44.810262
          ],
          [
            20.467282,
            44.80965
          ],
          [
            20.46746,
            44.809537
          ],
          [
            20.467678,
            44.809401
          ],
          [
            20.467697,
            44.809388
          ],
          [
            20.467742,
            44.80936
          ],
          [
            20.4678,
            44.809322
          ],
          [
            20.467848,
            44.809295
          ],
          [
            20.46902,
            44.808588
          ],
          [
            20.469382,
            44.808363
          ],
          [
            20.46952,
            44.808277
          ],
          [
            20.469435,
            44.808208
          ],
          [
            20.468301,
            44.80728
          ],
          [
            20.467843,
            44.806905
          ],
          [
            20.467827,
            44.806892
          ],
          [
            20.467853,
            44.806873
          ],
          [
            20.468618,
            44.806339
          ],
          [
            20.468822,
            44.806197
          ],
          [
            20.468858,
            44.806173
          ],
          [
            20.468928,
            44.806124
          ],
          [
            20.469262,
            44.80589
          ],
          [
            20.469642,
            44.805616
          ],
          [
            20.469692,
            44.805577
          ],
          [
            20.46971,
            44.805564
          ],
          [
            20.469728,
            44.805549
          ],
          [
            20.469749,
            44.805533
          ],
          [
            20.469803,
            44.805493
          ],
          [
            20.470336,
            44.805111
          ],
          [
            20.470443,
            44.805034
          ],
          [
            20.470496,
            44.805086
          ],
          [
            20.470525,
            44.805114
          ],
          [
            20.471307,
            44.805832
          ],
          [
            20.471349,
            44.80587
          ],
          [
            20.471846,
            44.806316
          ],
          [
            20.472213,
            44.806644
          ],
          [
            20.472279,
            44.806705
          ],
          [
            20.472335,
            44.806683
          ],
          [
            20.473275,
            44.806286
          ],
          [
            20.47341,
            44.806227
          ],
          [
            20.473432,
            44.806253
          ],
          [
            20.473461,
            44.806288
          ],
          [
            20.473493,
            44.806326
          ],
          [
            20.473355,
            44.806388
          ],
          [
            20.472799,
            44.806633
          ],
          [
            20.472122,
            44.806933
          ],
          [
            20.471786,
            44.807081
          ],
          [
            20.47169,
            44.807124
          ],
          [
            20.471659,
            44.80714
          ],
          [
            20.471621,
            44.807159
          ],
          [
            20.471585,
            44.807179
          ],
          [
            20.471507,
            44.807225
          ],
          [
            20.471373,
            44.807307
          ],
          [
            20.470824,
            44.807635
          ],
          [
            20.470714,
            44.807699
          ],
          [
            20.470065,
            44.80809
          ],
          [
            20.469616,
            44.808357
          ],
          [
            20.46948,
            44.808442
          ],
          [
            20.46894,
            44.80878
          ],
          [
            20.468801,
            44.808866
          ],
          [
            20.468689,
            44.80893
          ],
          [
            20.468589,
            44.808991
          ],
          [
            20.468506,
            44.809041
          ],
          [
            20.468393,
            44.809106
          ],
          [
            20.468065,
            44.809307
          ],
          [
            20.468028,
            44.80933
          ],
          [
            20.46799,
            44.809354
          ],
          [
            20.467799,
            44.80947
          ],
          [
            20.467739,
            44.809505
          ],
          [
            20.467556,
            44.809615
          ],
          [
            20.467047,
            44.809938
          ],
          [
            20.466782,
            44.810112
          ],
          [
            20.466463,
            44.810314
          ],
          [
            20.46622,
            44.81046
          ],
          [
            20.466162,
            44.810499
          ],
          [
            20.466066,
            44.810564
          ],
          [
            20.465965,
            44.81048
          ],
          [
            20.465892,
            44.810424
          ],
          [
            20.465703,
            44.810257
          ],
          [
            20.465687,
            44.810242
          ],
          [
            20.465424,
            44.810007
          ],
          [
            20.465311,
            44.809877
          ],
          [
            20.464793,
            44.809431
          ],
          [
            20.464668,
            44.809326
          ],
          [
            20.464642,
            44.809304
          ],
          [
            20.464564,
            44.809242
          ],
          [
            20.463865,
            44.808651
          ],
          [
            20.463765,
            44.808572
          ],
          [
            20.463563,
            44.808419
          ],
          [
            20.463491,
            44.808369
          ],
          [
            20.463391,
            44.808303
          ],
          [
            20.46331,
            44.808245
          ],
          [
            20.463237,
            44.808192
          ],
          [
            20.463093,
            44.808077
          ],
          [
            20.462942,
            44.807954
          ],
          [
            20.462845,
            44.807876
          ],
          [
            20.462652,
            44.80772
          ],
          [
            20.462625,
            44.807697
          ],
          [
            20.462592,
            44.807671
          ],
          [
            20.46249,
            44.807595
          ],
          [
            20.462417,
            44.807537
          ],
          [
            20.462162,
            44.807335
          ],
          [
            20.461937,
            44.807135
          ],
          [
            20.461779,
            44.806992
          ],
          [
            20.461509,
            44.806751
          ],
          [
            20.461332,
            44.806607
          ],
          [
            20.461232,
            44.806526
          ],
          [
            20.460828,
            44.8062
          ],
          [
            20.460415,
            44.805857
          ],
          [
            20.460325,
            44.805786
          ],
          [
            20.460287,
            44.805754
          ],
          [
            20.460251,
            44.805725
          ],
          [
            20.460205,
            44.805686
          ],
          [
            20.460117,
            44.805613
          ],
          [
            20.460032,
            44.805541
          ],
          [
            20.459706,
            44.805269
          ],
          [
            20.45942,
            44.805031
          ],
          [
            20.459184,
            44.804833
          ],
          [
            20.459074,
            44.804742
          ],
          [
            20.458992,
            44.804672
          ],
          [
            20.458628,
            44.804365
          ],
          [
            20.458443,
            44.804214
          ],
          [
            20.458312,
            44.804106
          ],
          [
            20.457919,
            44.80379
          ],
          [
            20.457818,
            44.803702
          ],
          [
            20.457311,
            44.803286
          ],
          [
            20.457122,
            44.803131
          ],
          [
            20.457102,
            44.803115
          ],
          [
            20.456811,
            44.802876
          ],
          [
            20.456703,
            44.802787
          ],
          [
            20.456332,
            44.802477
          ],
          [
            20.456181,
            44.802351
          ],
          [
            20.456118,
            44.802299
          ],
          [
            20.455752,
            44.80197
          ],
          [
            20.455719,
            44.801941
          ],
          [
            20.455287,
            44.80157
          ],
          [
            20.455003,
            44.801336
          ],
          [
            20.454956,
            44.801297
          ],
          [
            20.454858,
            44.801215
          ],
          [
            20.454795,
            44.80116
          ],
          [
            20.454738,
            44.80111
          ],
          [
            20.454377,
            44.800795
          ],
          [
            20.453952,
            44.800438
          ],
          [
            20.453802,
            44.800313
          ],
          [
            20.453188,
            44.799809
          ],
          [
            20.453052,
            44.799733
          ],
          [
            20.452979,
            44.799708
          ],
          [
            20.452597,
            44.799481
          ],
          [
            20.452423,
            44.799387
          ],
          [
            20.452274,
            44.799317
          ],
          [
            20.452102,
            44.799239
          ],
          [
            20.451984,
            44.799186
          ],
          [
            20.451798,
            44.799116
          ],
          [
            20.451659,
            44.799064
          ],
          [
            20.451023,
            44.798797
          ],
          [
            20.450698,
            44.79865
          ],
          [
            20.450425,
            44.798546
          ],
          [
            20.450293,
            44.798504
          ],
          [
            20.450182,
            44.798478
          ],
          [
            20.450134,
            44.798468
          ],
          [
            20.450047,
            44.798461
          ],
          [
            20.449907,
            44.798463
          ],
          [
            20.449758,
            44.798479
          ],
          [
            20.449532,
            44.798517
          ],
          [
            20.449014,
            44.798785
          ],
          [
            20.448844,
            44.798872
          ],
          [
            20.448714,
            44.798943
          ],
          [
            20.448589,
            44.798994
          ],
          [
            20.448501,
            44.799019
          ],
          [
            20.448403,
            44.799036
          ],
          [
            20.448349,
            44.799039
          ],
          [
            20.448286,
            44.799032
          ],
          [
            20.448226,
            44.799016
          ],
          [
            20.448157,
            44.798987
          ],
          [
            20.44811,
            44.798964
          ],
          [
            20.447921,
            44.798775
          ],
          [
            20.447821,
            44.798687
          ],
          [
            20.447737,
            44.798617
          ],
          [
            20.44759,
            44.798502
          ],
          [
            20.447425,
            44.798385
          ],
          [
            20.447108,
            44.798176
          ],
          [
            20.446847,
            44.798012
          ],
          [
            20.446611,
            44.797897
          ],
          [
            20.446412,
            44.797798
          ],
          [
            20.446242,
            44.797721
          ],
          [
            20.446109,
            44.797668
          ],
          [
            20.445972,
            44.797616
          ],
          [
            20.445852,
            44.797571
          ],
          [
            20.445699,
            44.797519
          ],
          [
            20.445402,
            44.797431
          ],
          [
            20.445096,
            44.797347
          ],
          [
            20.444677,
            44.797233
          ],
          [
            20.444281,
            44.79712
          ],
          [
            20.443917,
            44.797016
          ],
          [
            20.443589,
            44.796927
          ],
          [
            20.443469,
            44.796893
          ],
          [
            20.442867,
            44.79673
          ],
          [
            20.442761,
            44.796698
          ],
          [
            20.442638,
            44.796663
          ],
          [
            20.442402,
            44.796596
          ],
          [
            20.44177,
            44.796427
          ],
          [
            20.441036,
            44.796215
          ],
          [
            20.440647,
            44.7961
          ],
          [
            20.440242,
            44.795976
          ],
          [
            20.440117,
            44.795939
          ],
          [
            20.439874,
            44.79587
          ],
          [
            20.439675,
            44.795814
          ],
          [
            20.439423,
            44.795746
          ],
          [
            20.438777,
            44.795569
          ],
          [
            20.438445,
            44.79549
          ],
          [
            20.438151,
            44.795422
          ],
          [
            20.437791,
            44.795339
          ],
          [
            20.437579,
            44.795295
          ],
          [
            20.437408,
            44.795259
          ],
          [
            20.437262,
            44.795233
          ],
          [
            20.436968,
            44.795185
          ],
          [
            20.436441,
            44.795103
          ],
          [
            20.436016,
            44.795045
          ],
          [
            20.43528,
            44.794934
          ],
          [
            20.434911,
            44.794879
          ],
          [
            20.434547,
            44.794818
          ],
          [
            20.434086,
            44.794737
          ],
          [
            20.433815,
            44.794685
          ],
          [
            20.43363,
            44.794646
          ],
          [
            20.433301,
            44.794574
          ],
          [
            20.433083,
            44.794524
          ],
          [
            20.432743,
            44.794436
          ],
          [
            20.432495,
            44.794372
          ],
          [
            20.432303,
            44.794316
          ],
          [
            20.4321,
            44.794258
          ],
          [
            20.431826,
            44.794172
          ],
          [
            20.431548,
            44.794085
          ],
          [
            20.431405,
            44.794034
          ],
          [
            20.430725,
            44.793783
          ],
          [
            20.430684,
            44.793768
          ],
          [
            20.430233,
            44.793603
          ],
          [
            20.429794,
            44.79345
          ],
          [
            20.428309,
            44.792916
          ],
          [
            20.427601,
            44.792662
          ],
          [
            20.426829,
            44.792382
          ],
          [
            20.426649,
            44.792317
          ],
          [
            20.426529,
            44.792273
          ],
          [
            20.426246,
            44.792159
          ],
          [
            20.425991,
            44.792053
          ],
          [
            20.425813,
            44.791972
          ],
          [
            20.425416,
            44.791778
          ],
          [
            20.424875,
            44.791485
          ],
          [
            20.424101,
            44.791029
          ],
          [
            20.423448,
            44.790626
          ],
          [
            20.423148,
            44.79043
          ],
          [
            20.421915,
            44.789642
          ],
          [
            20.421308,
            44.78929
          ],
          [
            20.42102,
            44.789138
          ],
          [
            20.420825,
            44.789044
          ],
          [
            20.420612,
            44.788953
          ],
          [
            20.420353,
            44.788832
          ],
          [
            20.42011,
            44.78874
          ],
          [
            20.419378,
            44.788456
          ],
          [
            20.419132,
            44.788369
          ],
          [
            20.418624,
            44.7882
          ],
          [
            20.418545,
            44.788174
          ],
          [
            20.41843,
            44.788132
          ],
          [
            20.418263,
            44.788074
          ],
          [
            20.418183,
            44.788044
          ],
          [
            20.417525,
            44.787802
          ],
          [
            20.416902,
            44.787553
          ],
          [
            20.416496,
            44.787365
          ],
          [
            20.416308,
            44.787281
          ],
          [
            20.416185,
            44.78722
          ],
          [
            20.416133,
            44.787194
          ],
          [
            20.41578,
            44.787018
          ],
          [
            20.415704,
            44.78698
          ],
          [
            20.415679,
            44.786967
          ],
          [
            20.415591,
            44.786922
          ],
          [
            20.415514,
            44.786882
          ],
          [
            20.41531,
            44.786778
          ],
          [
            20.415133,
            44.78668
          ],
          [
            20.415042,
            44.786629
          ],
          [
            20.414835,
            44.786509
          ],
          [
            20.413992,
            44.786034
          ],
          [
            20.413908,
            44.786003
          ],
          [
            20.413832,
            44.78598
          ],
          [
            20.413753,
            44.785959
          ],
          [
            20.413619,
            44.78593
          ],
          [
            20.413205,
            44.785837
          ],
          [
            20.413076,
            44.785804
          ],
          [
            20.412478,
            44.785654
          ],
          [
            20.412284,
            44.785605
          ],
          [
            20.41205,
            44.785548
          ],
          [
            20.411377,
            44.785379
          ],
          [
            20.411349,
            44.785372
          ],
          [
            20.411074,
            44.785304
          ],
          [
            20.41097,
            44.785277
          ],
          [
            20.410655,
            44.785207
          ],
          [
            20.410461,
            44.785169
          ],
          [
            20.410262,
            44.785144
          ],
          [
            20.410137,
            44.785133
          ],
          [
            20.409787,
            44.785107
          ],
          [
            20.40957,
            44.785091
          ],
          [
            20.40927,
            44.785071
          ],
          [
            20.40915,
            44.785063
          ],
          [
            20.408847,
            44.785052
          ],
          [
            20.407953,
            44.78503
          ],
          [
            20.406664,
            44.784981
          ],
          [
            20.405883,
            44.784957
          ],
          [
            20.405449,
            44.784942
          ],
          [
            20.405008,
            44.78493
          ],
          [
            20.405017,
            44.784866
          ],
          [
            20.405044,
            44.784682
          ],
          [
            20.405081,
            44.784543
          ],
          [
            20.405142,
            44.784371
          ],
          [
            20.405249,
            44.78439
          ],
          [
            20.405346,
            44.784407
          ],
          [
            20.405636,
            44.784459
          ],
          [
            20.405668,
            44.784467
          ],
          [
            20.405684,
            44.784488
          ],
          [
            20.405688,
            44.784505
          ],
          [
            20.405649,
            44.784604
          ],
          [
            20.405597,
            44.784719
          ],
          [
            20.405585,
            44.784733
          ],
          [
            20.405569,
            44.784738
          ],
          [
            20.405545,
            44.784739
          ],
          [
            20.405196,
            44.784672
          ],
          [
            20.405176,
            44.784645
          ],
          [
            20.405167,
            44.784617
          ],
          [
            20.405198,
            44.784515
          ],
          [
            20.405249,
            44.78439
          ],
          [
            20.405142,
            44.784371
          ],
          [
            20.405081,
            44.784543
          ],
          [
            20.405044,
            44.784682
          ],
          [
            20.405017,
            44.784866
          ],
          [
            20.405008,
            44.78493
          ],
          [
            20.405449,
            44.784942
          ],
          [
            20.405883,
            44.784957
          ],
          [
            20.406664,
            44.784981
          ],
          [
            20.407953,
            44.78503
          ],
          [
            20.408096,
            44.785034
          ],
          [
            20.408847,
            44.785052
          ],
          [
            20.40915,
            44.785063
          ],
          [
            20.40927,
            44.785071
          ],
          [
            20.40957,
            44.785091
          ],
          [
            20.409787,
            44.785107
          ],
          [
            20.410137,
            44.785133
          ],
          [
            20.410262,
            44.785144
          ],
          [
            20.410461,
            44.785169
          ],
          [
            20.410655,
            44.785207
          ],
          [
            20.41097,
            44.785277
          ],
          [
            20.411139,
            44.785147
          ],
          [
            20.411673,
            44.784733
          ],
          [
            20.411707,
            44.784706
          ],
          [
            20.411824,
            44.784617
          ],
          [
            20.411963,
            44.784534
          ],
          [
            20.412043,
            44.784592
          ],
          [
            20.412196,
            44.784693
          ],
          [
            20.412353,
            44.784797
          ],
          [
            20.412709,
            44.785035
          ],
          [
            20.412806,
            44.7851
          ],
          [
            20.413229,
            44.78536
          ],
          [
            20.413853,
            44.785761
          ],
          [
            20.414482,
            44.786141
          ],
          [
            20.414572,
            44.786194
          ],
          [
            20.414813,
            44.786343
          ],
          [
            20.4152,
            44.786576
          ],
          [
            20.415229,
            44.786593
          ],
          [
            20.415334,
            44.78665
          ],
          [
            20.415566,
            44.78677
          ],
          [
            20.415674,
            44.786828
          ],
          [
            20.415792,
            44.786889
          ],
          [
            20.41627,
            44.787127
          ],
          [
            20.416616,
            44.787285
          ],
          [
            20.416827,
            44.787379
          ],
          [
            20.41736,
            44.78759
          ],
          [
            20.417826,
            44.787769
          ],
          [
            20.4183,
            44.787938
          ],
          [
            20.418478,
            44.787998
          ],
          [
            20.418544,
            44.788021
          ],
          [
            20.41863,
            44.788052
          ],
          [
            20.418858,
            44.788134
          ],
          [
            20.419484,
            44.788351
          ],
          [
            20.41994,
            44.788524
          ],
          [
            20.420351,
            44.788686
          ],
          [
            20.42064,
            44.788814
          ],
          [
            20.420913,
            44.788936
          ],
          [
            20.42116,
            44.789057
          ],
          [
            20.421406,
            44.789183
          ],
          [
            20.421536,
            44.789252
          ],
          [
            20.421667,
            44.789324
          ],
          [
            20.421805,
            44.789403
          ],
          [
            20.421934,
            44.789479
          ],
          [
            20.42219,
            44.789632
          ],
          [
            20.422486,
            44.789814
          ],
          [
            20.42289,
            44.790078
          ],
          [
            20.423257,
            44.790333
          ],
          [
            20.423642,
            44.790584
          ],
          [
            20.423763,
            44.790659
          ],
          [
            20.424035,
            44.790831
          ],
          [
            20.424877,
            44.791333
          ],
          [
            20.425075,
            44.791447
          ],
          [
            20.425201,
            44.791511
          ],
          [
            20.425297,
            44.791558
          ],
          [
            20.425557,
            44.791668
          ],
          [
            20.425913,
            44.791814
          ],
          [
            20.42634,
            44.79199
          ],
          [
            20.426669,
            44.792123
          ],
          [
            20.427072,
            44.792285
          ],
          [
            20.427361,
            44.792407
          ],
          [
            20.427686,
            44.792538
          ],
          [
            20.42822,
            44.79274
          ],
          [
            20.429041,
            44.793042
          ],
          [
            20.429873,
            44.793346
          ],
          [
            20.430106,
            44.793429
          ],
          [
            20.43042,
            44.793541
          ],
          [
            20.431156,
            44.793806
          ],
          [
            20.431364,
            44.793879
          ],
          [
            20.431542,
            44.793942
          ],
          [
            20.431756,
            44.794018
          ],
          [
            20.431973,
            44.794092
          ],
          [
            20.4322,
            44.794162
          ],
          [
            20.432314,
            44.794196
          ],
          [
            20.432408,
            44.794223
          ],
          [
            20.432577,
            44.794272
          ],
          [
            20.432766,
            44.79432
          ],
          [
            20.432939,
            44.794362
          ],
          [
            20.433152,
            44.794416
          ],
          [
            20.433405,
            44.794478
          ],
          [
            20.433708,
            44.794545
          ],
          [
            20.433986,
            44.794606
          ],
          [
            20.43418,
            44.794641
          ],
          [
            20.434378,
            44.79468
          ],
          [
            20.434609,
            44.794719
          ],
          [
            20.434874,
            44.794766
          ],
          [
            20.435248,
            44.794829
          ],
          [
            20.435661,
            44.794891
          ],
          [
            20.436048,
            44.794948
          ],
          [
            20.436803,
            44.795058
          ],
          [
            20.436989,
            44.795088
          ],
          [
            20.4373,
            44.795144
          ],
          [
            20.437528,
            44.795191
          ],
          [
            20.437669,
            44.795222
          ],
          [
            20.437946,
            44.795282
          ],
          [
            20.438333,
            44.795367
          ],
          [
            20.438762,
            44.795475
          ],
          [
            20.439211,
            44.795599
          ],
          [
            20.439699,
            44.795736
          ],
          [
            20.44026,
            44.795899
          ],
          [
            20.440982,
            44.796114
          ],
          [
            20.441213,
            44.796179
          ],
          [
            20.441344,
            44.796216
          ],
          [
            20.441541,
            44.796272
          ],
          [
            20.441794,
            44.796339
          ],
          [
            20.442278,
            44.796462
          ],
          [
            20.44325,
            44.796726
          ],
          [
            20.443614,
            44.796825
          ],
          [
            20.443903,
            44.796907
          ],
          [
            20.444086,
            44.796959
          ],
          [
            20.444726,
            44.797143
          ],
          [
            20.445147,
            44.797252
          ],
          [
            20.44565,
            44.797392
          ],
          [
            20.445811,
            44.797436
          ],
          [
            20.446122,
            44.797532
          ],
          [
            20.446367,
            44.797607
          ],
          [
            20.446596,
            44.797683
          ],
          [
            20.446812,
            44.797759
          ],
          [
            20.447071,
            44.797863
          ],
          [
            20.447303,
            44.797969
          ],
          [
            20.447607,
            44.79811
          ],
          [
            20.447877,
            44.798259
          ],
          [
            20.448169,
            44.798448
          ],
          [
            20.448455,
            44.798708
          ],
          [
            20.448596,
            44.79886
          ],
          [
            20.44873,
            44.798992
          ],
          [
            20.448801,
            44.79908
          ],
          [
            20.448857,
            44.799156
          ],
          [
            20.449027,
            44.799404
          ],
          [
            20.449336,
            44.799886
          ],
          [
            20.449528,
            44.800171
          ],
          [
            20.449702,
            44.800395
          ],
          [
            20.449747,
            44.800452
          ],
          [
            20.4498,
            44.800497
          ],
          [
            20.449848,
            44.800527
          ],
          [
            20.449911,
            44.800524
          ],
          [
            20.449988,
            44.800511
          ],
          [
            20.450027,
            44.800503
          ],
          [
            20.450082,
            44.800491
          ],
          [
            20.450136,
            44.800474
          ],
          [
            20.450228,
            44.80043
          ],
          [
            20.450672,
            44.80015
          ],
          [
            20.450728,
            44.800126
          ],
          [
            20.450785,
            44.800118
          ],
          [
            20.45083,
            44.800123
          ],
          [
            20.450885,
            44.800147
          ],
          [
            20.450932,
            44.800181
          ],
          [
            20.451013,
            44.800252
          ],
          [
            20.451229,
            44.800443
          ],
          [
            20.452165,
            44.801238
          ],
          [
            20.452211,
            44.801276
          ],
          [
            20.452281,
            44.801336
          ],
          [
            20.45295,
            44.801905
          ],
          [
            20.453202,
            44.80212
          ],
          [
            20.453268,
            44.802176
          ],
          [
            20.453346,
            44.80213
          ],
          [
            20.454661,
            44.801336
          ],
          [
            20.454702,
            44.801311
          ],
          [
            20.454858,
            44.801215
          ],
          [
            20.454956,
            44.801297
          ],
          [
            20.455003,
            44.801336
          ],
          [
            20.455287,
            44.80157
          ],
          [
            20.455719,
            44.801941
          ],
          [
            20.455752,
            44.80197
          ],
          [
            20.456118,
            44.802299
          ],
          [
            20.456181,
            44.802351
          ],
          [
            20.456332,
            44.802477
          ],
          [
            20.456703,
            44.802787
          ],
          [
            20.456811,
            44.802876
          ],
          [
            20.457102,
            44.803115
          ],
          [
            20.457122,
            44.803131
          ],
          [
            20.457311,
            44.803286
          ],
          [
            20.457818,
            44.803702
          ],
          [
            20.457919,
            44.80379
          ],
          [
            20.458312,
            44.804106
          ],
          [
            20.458443,
            44.804214
          ],
          [
            20.458628,
            44.804365
          ],
          [
            20.458992,
            44.804672
          ],
          [
            20.459074,
            44.804742
          ],
          [
            20.459184,
            44.804833
          ],
          [
            20.45942,
            44.805031
          ],
          [
            20.459706,
            44.805269
          ],
          [
            20.460032,
            44.805541
          ],
          [
            20.460117,
            44.805613
          ],
          [
            20.460205,
            44.805686
          ],
          [
            20.460251,
            44.805725
          ],
          [
            20.460287,
            44.805754
          ],
          [
            20.460325,
            44.805786
          ],
          [
            20.460415,
            44.805857
          ],
          [
            20.460828,
            44.8062
          ],
          [
            20.461232,
            44.806526
          ],
          [
            20.461332,
            44.806607
          ],
          [
            20.461509,
            44.806751
          ],
          [
            20.461779,
            44.806992
          ],
          [
            20.461937,
            44.807135
          ],
          [
            20.462162,
            44.807335
          ],
          [
            20.462417,
            44.807537
          ],
          [
            20.46249,
            44.807595
          ],
          [
            20.462592,
            44.807671
          ],
          [
            20.462625,
            44.807697
          ],
          [
            20.462652,
            44.80772
          ],
          [
            20.462845,
            44.807876
          ],
          [
            20.462942,
            44.807954
          ],
          [
            20.463093,
            44.808077
          ],
          [
            20.463237,
            44.808192
          ],
          [
            20.46331,
            44.808245
          ],
          [
            20.463391,
            44.808303
          ],
          [
            20.463491,
            44.808369
          ],
          [
            20.463563,
            44.808419
          ],
          [
            20.463765,
            44.808572
          ],
          [
            20.463865,
            44.808651
          ],
          [
            20.464564,
            44.809242
          ],
          [
            20.464642,
            44.809304
          ],
          [
            20.464668,
            44.809326
          ],
          [
            20.464793,
            44.809431
          ],
          [
            20.465311,
            44.809877
          ],
          [
            20.465474,
            44.809953
          ],
          [
            20.465649,
            44.810097
          ],
          [
            20.465974,
            44.810368
          ],
          [
            20.466049,
            44.810425
          ],
          [
            20.466162,
            44.810499
          ],
          [
            20.466261,
            44.810559
          ],
          [
            20.466346,
            44.810599
          ],
          [
            20.466442,
            44.810639
          ],
          [
            20.466547,
            44.810682
          ],
          [
            20.466714,
            44.810746
          ],
          [
            20.46691,
            44.810818
          ],
          [
            20.467131,
            44.8109
          ],
          [
            20.467427,
            44.811015
          ],
          [
            20.467716,
            44.811128
          ],
          [
            20.467756,
            44.811143
          ],
          [
            20.467836,
            44.811179
          ],
          [
            20.467927,
            44.811235
          ],
          [
            20.468069,
            44.811289
          ],
          [
            20.468095,
            44.811299
          ],
          [
            20.468282,
            44.811369
          ],
          [
            20.468605,
            44.811501
          ],
          [
            20.468848,
            44.811605
          ],
          [
            20.469154,
            44.811741
          ],
          [
            20.469388,
            44.811844
          ],
          [
            20.469441,
            44.811866
          ],
          [
            20.46949,
            44.811886
          ],
          [
            20.469546,
            44.81191
          ],
          [
            20.469738,
            44.811993
          ],
          [
            20.469886,
            44.812059
          ],
          [
            20.470013,
            44.812116
          ],
          [
            20.470265,
            44.812231
          ],
          [
            20.470572,
            44.81237
          ],
          [
            20.470665,
            44.812419
          ],
          [
            20.470716,
            44.812343
          ],
          [
            20.470744,
            44.812319
          ],
          [
            20.470992,
            44.812178
          ],
          [
            20.471056,
            44.812142
          ],
          [
            20.471142,
            44.812102
          ],
          [
            20.471209,
            44.812053
          ],
          [
            20.471307,
            44.811978
          ],
          [
            20.471394,
            44.811904
          ],
          [
            20.471403,
            44.811895
          ],
          [
            20.471448,
            44.811854
          ],
          [
            20.472074,
            44.811272
          ],
          [
            20.472139,
            44.811209
          ],
          [
            20.472202,
            44.811147
          ],
          [
            20.4723,
            44.811046
          ],
          [
            20.472367,
            44.810971
          ],
          [
            20.472663,
            44.810645
          ],
          [
            20.472713,
            44.810589
          ],
          [
            20.472758,
            44.810538
          ],
          [
            20.472782,
            44.810513
          ],
          [
            20.472886,
            44.8104
          ],
          [
            20.473331,
            44.809915
          ],
          [
            20.473808,
            44.809401
          ],
          [
            20.474039,
            44.809153
          ],
          [
            20.474107,
            44.809084
          ],
          [
            20.473951,
            44.80899
          ],
          [
            20.473539,
            44.808687
          ],
          [
            20.473161,
            44.808402
          ],
          [
            20.473016,
            44.80829
          ]
        ]
      }
    }
  ]
}