{
  "type": "FeatureCollection",
  "features": [
    {
      "type": "Feature",
      "properties": {
        "id": "foodie-crawl",
        "kind": "osrm-walk"
      },
      "geometry": {
        "type": "LineString",
        "coordinates": [
          [
            20.464035,
            44.821676
          ],
          [
            20.463869,
            44.821554
          ],
          [
            20.463797,
            44.821504
          ],
          [
            20.463774,
            44.821486
          ],
          [
            20.463685,
            44.82142
          ],
          [
            20.463617,
            44.821372
          ],
          [
            20.463564,
            44.821333
          ],
          [
            20.46288,
            44.820817
          ],
          [
            20.462825,
            44.820776
          ],
          [
            20.462789,
            44.820748
          ],
          [
            20.462131,
            44.820272
          ],
          [
            20.462067,
            44.820223
          ],
          [
            20.462038,
            44.820241
          ],
          [
            20.460865,
            44.820955
          ],
          [
            20.46083,
            44.820976
          ],
          [
            20.46086,
            44.821004
          ],
          [
            20.461459,
            44.821528
          ],
          [
            20.461504,
            44.821569
          ],
          [
            20.461548,
            44.821543
          ],
          [
            20.462776,
            44.820805
          ],
          [
            20.462794,
            44.820795
          ],
          [
            20.462825,
            44.820776
          ],
          [
            20.462866,
            44.820751
          ],
          [
            20.463572,
            44.820321
          ],
          [
            20.463641,
            44.820279
          ],
          [
            20.463709,
            44.820239
          ],
          [
            20.464446,
            44.819787
          ],
          [
            20.464504,
            44.819752
          ],
          [
            20.464545,
            44.819726
          ],
          [
            20.465123,
            44.819379
          ],
          [
            20.465215,
            44.819321
          ],
          [
            20.46516,
            44.819288
          ],
          [
            20.464555,
            44.818915
          ],
          [
            20.464459,
            44.818856
          ],
          [
            20.464398,
            44.818817
          ],
          [
            20.464333,
            44.818776
          ],
          [
            20.463722,
            44.818388
          ],
          [
            20.463652,
            44.818345
          ],
          [
            20.462865,
            44.817862
          ],
          [
            20.462541,
            44.817661
          ],
          [
            20.462471,
            44.817614
          ],
          [
            20.462403,
            44.817568
          ],
          [
            20.461962,
            44.817292
          ],
          [
            20.461881,
            44.817241
          ],
          [
            20.461091,
            44.816748
          ],
          [
            20.461046,
            44.816719
          ],
          [
            20.460979,
            44.816695
          ],
          [
            20.460938,
            44.816677
          ],
          [
            20.460844,
            44.816618
          ],
          [
            20.460771,
            44.816573
          ],
          [
            20.460625,
            44.816477
          ],
          [
            20.460744,
            44.816389
          ],
          [
            20.460866,
            44.816302
          ],
          [
            20.460921,
            44.816257
          ],
          [
            20.461039,
            44.816161
          ],
          [
            20.461134,
            44.816037
          ],
          [
            20.461102,
            44.816031
          ],
          [
            20.461072,
            44.816019
          ],
          [
            20.461047,
            44.816003
          ],
          [
            20.461027,
            44.815983
          ],
          [
            20.461014,
            44.815961
          ],
          [
            20.461009,
            44.815938
          ],
          [
            20.461011,
            44.815914
          ],
          [
            20.460892,
            44.815852
          ],
          [
            20.460773,
            44.815791
          ],
          [
            20.460742,
            44.815775
          ],
          [
            20.460713,
            44.815756
          ],
          [
            20.460684,
            44.815731
          ],
          [
            20.460666,
            44.815704
          ],
          [
            20.460629,
            44.815633
          ],
          [
            20.460546,
            44.815473
          ],
          [
            20.460425,
            44.815248
          ],
          [
            20.460384,
            44.815155
          ],
          [
            20.460339,
            44.815032
          ],
          [
            20.460258,
            44.814886
          ],
          [
            20.460215,
            44.814735
          ],
          [
            20.460215,
            44.814665
          ],
          [
            20.46024,
            44.814567
          ],
          [
            20.460278,
            44.814482
          ],
          [
            20.460309,
            44.814413
          ],
          [
            20.460453,
            44.814144
          ],
          [
            20.460513,
            44.814005
          ],
          [
            20.460646,
            44.813683
          ],
          [
            20.460633,
            44.813619
          ],
          [
            20.460624,
            44.813558
          ],
          [
            20.460593,
            44.813512
          ],
          [
            20.460521,
            44.813457
          ],
          [
            20.460295,
            44.813409
          ],
          [
            20.460149,
            44.813377
          ],
          [
            20.460119,
            44.813351
          ],
          [
            20.46011,
            44.813338
          ],
          [
            20.460106,
            44.813324
          ],
          [
            20.460108,
            44.813302
          ],
          [
            20.460128,
            44.813226
          ],
          [
            20.460154,
            44.813117
          ],
          [
            20.460274,
            44.812508
          ],
          [
            20.460386,
            44.811988
          ],
          [
            20.460409,
            44.811881
          ],
          [
            20.460421,
            44.811838
          ],
          [
            20.460448,
            44.81172
          ],
          [
            20.460455,
            44.811645
          ],
          [
            20.460449,
            44.811599
          ],
          [
            20.460434,
            44.81155
          ],
          [
            20.460346,
            44.811384
          ],
          [
            20.460289,
            44.811299
          ],
          [
            20.460227,
            44.811216
          ],
          [
            20.460224,
            44.811212
          ],
          [
            20.459925,
            44.810858
          ],
          [
            20.459783,
            44.81069
          ],
          [
            20.45973,
            44.810627
          ],
          [
            20.459794,
            44.810554
          ],
          [
            20.46028,
            44.810002
          ],
          [
            20.460518,
            44.809736
          ],
          [
            20.46055,
            44.8097
          ],
          [
            20.461006,
            44.809199
          ],
          [
            20.461481,
            44.808673
          ],
          [
            20.461517,
            44.808636
          ],
          [
            20.461462,
            44.8086
          ],
          [
            20.460716,
            44.808119
          ],
          [
            20.460623,
            44.808059
          ],
          [
            20.460546,
            44.808106
          ],
          [
            20.460507,
            44.808129
          ],
          [
            20.460415,
            44.808182
          ],
          [
            20.459891,
            44.808499
          ],
          [
            20.45973,
            44.80859
          ],
          [
            20.45952,
            44.808714
          ],
          [
            20.459,
            44.809018
          ],
          [
            20.458886,
            44.809081
          ],
          [
            20.45876,
            44.809156
          ],
          [
            20.458607,
            44.809242
          ],
          [
            20.458444,
            44.809332
          ],
          [
            20.458291,
            44.809428
          ],
          [
            20.458127,
            44.809558
          ],
          [
            20.457924,
            44.80974
          ],
          [
            20.457818,
            44.809834
          ],
          [
            20.457472,
            44.810213
          ],
          [
            20.457072,
            44.810685
          ],
          [
            20.457029,
            44.810736
          ],
          [
            20.456686,
            44.811135
          ],
          [
            20.456596,
            44.81124
          ],
          [
            20.456516,
            44.811334
          ],
          [
            20.456479,
            44.811379
          ],
          [
            20.456422,
            44.81145
          ],
          [
            20.456347,
            44.811542
          ],
          [
            20.456155,
            44.811763
          ],
          [
            20.455895,
            44.812061
          ],
          [
            20.455832,
            44.812132
          ],
          [
            20.455789,
            44.812169
          ],
          [
            20.455443,
            44.812536
          ],
          [
            20.455077,
            44.812874
          ],
          [
            20.45501,
            44.812938
          ],
          [
            20.45494,
            44.813011
          ],
          [
            20.454646,
            44.813309
          ],
          [
            20.454542,
            44.813404
          ],
          [
            20.45444,
            44.813494
          ],
          [
            20.454297,
            44.813621
          ],
          [
            20.454172,
            44.813717
          ],
          [
            20.454062,
            44.813797
          ],
          [
            20.45398,
            44.813851
          ],
          [
            20.453665,
            44.814073
          ],
          [
            20.453516,
            44.814181
          ],
          [
            20.45338,
            44.814284
          ],
          [
            20.453294,
            44.814342
          ],
          [
            20.453293,
            44.814361
          ],
          [
            20.453282,
            44.81438
          ],
          [
            20.453264,
            44.814394
          ],
          [
            20.453239,
            44.814404
          ],
          [
            20.453212,
            44.814408
          ],
          [
            20.45319,
            44.814407
          ],
          [
            20.45317,
            44.814401
          ],
          [
            20.453147,
            44.814387
          ],
          [
            20.453131,
            44.814369
          ],
          [
            20.453128,
            44.814357
          ],
          [
            20.453106,
            44.814338
          ],
          [
            20.453089,
            44.814328
          ],
          [
            20.453071,
            44.81432
          ],
          [
            20.453025,
            44.814302
          ],
          [
            20.452971,
            44.814302
          ],
          [
            20.452776,
            44.814299
          ],
          [
            20.452721,
            44.814306
          ],
          [
            20.452671,
            44.814315
          ],
          [
            20.452575,
            44.814337
          ],
          [
            20.452498,
            44.814359
          ],
          [
            20.45234,
            44.81441
          ],
          [
            20.452078,
            44.814494
          ],
          [
            20.451428,
            44.814692
          ],
          [
            20.451413,
            44.814697
          ],
          [
            20.451286,
            44.814731
          ],
          [
            20.45114,
            44.814776
          ],
          [
            20.451084,
            44.814795
          ],
          [
            20.451051,
            44.814809
          ],
          [
            20.451006,
            44.814828
          ],
          [
            20.450958,
            44.814852
          ],
          [
            20.450929,
            44.81487
          ],
          [
            20.450904,
            44.814891
          ],
          [
            20.450688,
            44.815248
          ],
          [
            20.450681,
            44.815259
          ],
          [
            20.450642,
            44.815314
          ],
          [
            20.450505,
            44.815431
          ],
          [
            20.450432,
            44.815495
          ],
          [
            20.450399,
            44.81553
          ],
          [
            20.450366,
            44.815575
          ],
          [
            20.450344,
            44.815615
          ],
          [
            20.450189,
            44.815938
          ],
          [
            20.450169,
            44.81598
          ],
          [
            20.45017,
            44.815992
          ],
          [
            20.450165,
            44.816052
          ],
          [
            20.450158,
            44.816097
          ],
          [
            20.450122,
            44.816233
          ],
          [
            20.450085,
            44.816333
          ],
          [
            20.449954,
            44.816686
          ],
          [
            20.449913,
            44.816814
          ],
          [
            20.449889,
            44.816906
          ],
          [
            20.449865,
            44.817004
          ],
          [
            20.449861,
            44.817024
          ],
          [
            20.449854,
            44.817063
          ],
          [
            20.449838,
            44.817148
          ],
          [
            20.449792,
            44.817426
          ],
          [
            20.449749,
            44.817685
          ],
          [
            20.449734,
            44.817772
          ],
          [
            20.449671,
            44.818228
          ],
          [
            20.449659,
            44.81832
          ],
          [
            20.449657,
            44.818337
          ],
          [
            20.449652,
            44.818392
          ],
          [
            20.449642,
            44.818488
          ],
          [
            20.449623,
            44.818607
          ],
          [
            20.449623,
            44.818668
          ],
          [
            20.449641,
            44.818765
          ],
          [
            20.44968,
            44.819039
          ],
          [
            20.449774,
            44.819633
          ],
          [
            20.449783,
            44.819705
          ],
          [
            20.449783,
            44.819745
          ],
          [
            20.449781,
            44.819776
          ],
          [
            20.449853,
            44.819774
          ],
          [
            20.449911,
            44.819768
          ],
          [
            20.449961,
            44.819753
          ],
          [
            20.45004,
            44.819706
          ],
          [
            20.450139,
            44.819647
          ],
          [
            20.450262,
            44.819581
          ],
          [
            20.450312,
            44.819549
          ],
          [
            20.450363,
            44.819513
          ],
          [
            20.45042,
            44.819469
          ],
          [
            20.450473,
            44.819421
          ],
          [
            20.450688,
            44.819185
          ],
          [
            20.451003,
            44.818825
          ],
          [
            20.451137,
            44.81867
          ],
          [
            20.451156,
            44.818644
          ],
          [
            20.451214,
            44.818567
          ],
          [
            20.451321,
            44.818408
          ],
          [
            20.451436,
            44.818247
          ],
          [
            20.45149,
            44.818175
          ],
          [
            20.451534,
            44.818121
          ],
          [
            20.451591,
            44.818058
          ],
          [
            20.451639,
            44.818007
          ],
          [
            20.451707,
            44.817944
          ],
          [
            20.451846,
            44.817841
          ],
          [
            20.452141,
            44.817606
          ],
          [
            20.452229,
            44.817667
          ],
          [
            20.452672,
            44.817975
          ],
          [
            20.452711,
            44.818002
          ],
          [
            20.452775,
            44.817957
          ],
          [
            20.453336,
            44.817559
          ],
          [
            20.453311,
            44.817531
          ],
          [
            20.452981,
            44.817157
          ],
          [
            20.452896,
            44.817063
          ],
          [
            20.452911,
            44.81705
          ],
          [
            20.452929,
            44.817032
          ],
          [
            20.452941,
            44.817013
          ],
          [
            20.452948,
            44.816967
          ],
          [
            20.452952,
            44.81691
          ],
          [
            20.452959,
            44.816831
          ],
          [
            20.452978,
            44.81665
          ],
          [
            20.452996,
            44.816437
          ],
          [
            20.453068,
            44.816419
          ],
          [
            20.453961,
            44.816222
          ],
          [
            20.454091,
            44.816194
          ],
          [
            20.454177,
            44.816175
          ],
          [
            20.454358,
            44.816124
          ],
          [
            20.454783,
            44.816005
          ],
          [
            20.454857,
            44.815984
          ],
          [
            20.455721,
            44.815741
          ],
          [
            20.455809,
            44.81572
          ],
          [
            20.455913,
            44.815695
          ],
          [
            20.456388,
            44.814641
          ],
          [
            20.456451,
            44.814505
          ],
          [
            20.456907,
            44.814411
          ],
          [
            20.456948,
            44.814402
          ],
          [
            20.457399,
            44.814308
          ],
          [
            20.457425,
            44.814293
          ],
          [
            20.45745,
            44.814276
          ],
          [
            20.457476,
            44.814253
          ],
          [
            20.457534,
            44.814191
          ],
          [
            20.457759,
            44.813843
          ],
          [
            20.457801,
            44.813782
          ],
          [
            20.457845,
            44.813704
          ],
          [
            20.457902,
            44.813603
          ],
          [
            20.458053,
            44.813341
          ],
          [
            20.458109,
            44.813249
          ],
          [
            20.458163,
            44.81316
          ],
          [
            20.458187,
            44.813119
          ],
          [
            20.458201,
            44.813096
          ],
          [
            20.458396,
            44.812772
          ],
          [
            20.458573,
            44.812484
          ],
          [
            20.458635,
            44.812384
          ],
          [
            20.458731,
            44.812415
          ],
          [
            20.458958,
            44.812489
          ],
          [
            20.459265,
            44.81259
          ],
          [
            20.459151,
            44.812827
          ],
          [
            20.459098,
            44.812933
          ],
          [
            20.459098,
            44.812933
          ],
          [
            20.459151,
            44.812827
          ],
          [
            20.459265,
            44.81259
          ],
          [
            20.458958,
            44.812489
          ],
          [
            20.458731,
            44.812415
          ],
          [
            20.458635,
            44.812384
          ],
          [
            20.458573,
            44.812484
          ],
          [
            20.458396,
            44.812772
          ],
          [
            20.458201,
            44.813096
          ],
          [
            20.458187,
            44.813119
          ],
          [
            20.458163,
            44.81316
          ],
          [
            20.458109,
            44.813249
          ],
          [
            20.458053,
            44.813341
          ],
          [
            20.457902,
            44.813603
          ],
          [
            20.457845,
            44.813704
          ],
          [
            20.457801,
            44.813782
          ],
          [
            20.457759,
            44.813843
          ],
          [
            20.45774,
            44.813941
          ],
          [
            20.457736,
            44.813993
          ],
          [
            20.457741,
            44.814032
          ],
          [
            20.457749,
            44.814055
          ],
          [
            20.457768,
            44.81408
          ],
          [
            20.457806,
            44.814115
          ],
          [
            20.457875,
            44.814147
          ],
          [
            20.457946,
            44.814161
          ],
          [
            20.458044,
            44.814175
          ],
          [
            20.458096,
            44.814166
          ],
          [
            20.458162,
            44.814137
          ],
          [
            20.458363,
            44.814049
          ],
          [
            20.458545,
            44.813979
          ],
          [
            20.458812,
            44.813875
          ],
          [
            20.458859,
            44.813856
          ],
          [
            20.458867,
            44.813853
          ],
          [
            20.459155,
            44.813751
          ],
          [
            20.459771,
            44.813532
          ],
          [
            20.460149,
            44.813377
          ],
          [
            20.460295,
            44.813409
          ],
          [
            20.460521,
            44.813457
          ],
          [
            20.460695,
            44.813477
          ],
          [
            20.460713,
            44.813459
          ],
          [
            20.460738,
            44.813447
          ],
          [
            20.460768,
            44.813441
          ],
          [
            20.460794,
            44.813441
          ],
          [
            20.460819,
            44.813446
          ],
          [
            20.460841,
            44.813456
          ],
          [
            20.460858,
            44.81347
          ],
          [
            20.460869,
            44.813487
          ],
          [
            20.460874,
            44.813503
          ],
          [
            20.460872,
            44.81352
          ],
          [
            20.460865,
            44.813535
          ],
          [
            20.460853,
            44.813549
          ],
          [
            20.460836,
            44.813561
          ],
          [
            20.460708,
            44.813871
          ],
          [
            20.460598,
            44.814084
          ],
          [
            20.460528,
            44.814219
          ],
          [
            20.460474,
            44.814324
          ],
          [
            20.460426,
            44.814409
          ],
          [
            20.46038,
            44.814497
          ],
          [
            20.460348,
            44.814582
          ],
          [
            20.460336,
            44.814641
          ],
          [
            20.460335,
            44.814704
          ],
          [
            20.46034,
            44.814822
          ],
          [
            20.460339,
            44.815032
          ],
          [
            20.460384,
            44.815155
          ],
          [
            20.460425,
            44.815248
          ],
          [
            20.460546,
            44.815473
          ],
          [
            20.460629,
            44.815633
          ],
          [
            20.460666,
            44.815704
          ],
          [
            20.460684,
            44.815731
          ],
          [
            20.460713,
            44.815756
          ],
          [
            20.460742,
            44.815775
          ],
          [
            20.460773,
            44.815791
          ],
          [
            20.460892,
            44.815852
          ],
          [
            20.461011,
            44.815914
          ],
          [
            20.461025,
            44.815882
          ],
          [
            20.461053,
            44.815856
          ],
          [
            20.461091,
            44.815836
          ],
          [
            20.461135,
            44.815826
          ],
          [
            20.461182,
            44.815826
          ],
          [
            20.461226,
            44.815836
          ],
          [
            20.461264,
            44.815855
          ],
          [
            20.461292,
            44.815881
          ],
          [
            20.461443,
            44.815823
          ],
          [
            20.461618,
            44.815788
          ],
          [
            20.462024,
            44.815752
          ],
          [
            20.462108,
            44.815744
          ],
          [
            20.462305,
            44.815727
          ],
          [
            20.462302,
            44.815667
          ],
          [
            20.462303,
            44.815645
          ],
          [
            20.46231,
            44.815617
          ],
          [
            20.462315,
            44.815603
          ],
          [
            20.462323,
            44.815579
          ],
          [
            20.46237,
            44.81545
          ],
          [
            20.46241,
            44.815339
          ],
          [
            20.462436,
            44.815269
          ],
          [
            20.462483,
            44.815146
          ],
          [
            20.462501,
            44.815099
          ],
          [
            20.462612,
            44.814831
          ],
          [
            20.462586,
            44.814707
          ],
          [
            20.462562,
            44.814654
          ],
          [
            20.462533,
            44.814609
          ],
          [
            20.462516,
            44.814588
          ],
          [
            20.462493,
            44.814561
          ],
          [
            20.46247,
            44.814535
          ],
          [
            20.462425,
            44.814505
          ],
          [
            20.46239,
            44.814485
          ],
          [
            20.462247,
            44.814426
          ],
          [
            20.461913,
            44.814375
          ],
          [
            20.461561,
            44.814337
          ],
          [
            20.461107,
            44.814291
          ],
          [
            20.460857,
            44.814265
          ],
          [
            20.460617,
            44.814241
          ],
          [
            20.460401,
            44.814223
          ],
          [
            20.460177,
            44.814204
          ],
          [
            20.459708,
            44.814173
          ],
          [
            20.45929,
            44.814149
          ],
          [
            20.458852,
            44.814131
          ],
          [
            20.458685,
            44.814128
          ],
          [
            20.458507,
            44.814128
          ],
          [
            20.458433,
            44.81413
          ],
          [
            20.458373,
            44.814134
          ],
          [
            20.458268,
            44.814143
          ],
          [
            20.458191,
            44.814153
          ],
          [
            20.458096,
            44.814166
          ],
          [
            20.458044,
            44.814175
          ],
          [
            20.457399,
            44.814308
          ],
          [
            20.456948,
            44.814402
          ],
          [
            20.456907,
            44.814411
          ],
          [
            20.456451,
            44.814505
          ],
          [
            20.456247,
            44.814548
          ],
          [
            20.456151,
            44.814568
          ],
          [
            20.454009,
            44.814992
          ],
          [
            20.453813,
            44.815053
          ],
          [
            20.45366,
            44.815084
          ],
          [
            20.453584,
            44.815115
          ],
          [
            20.453522,
            44.815132
          ],
          [
            20.453438,
            44.815149
          ],
          [
            20.453295,
            44.81517
          ],
          [
            20.453245,
            44.815184
          ],
          [
            20.453195,
            44.815198
          ],
          [
            20.453151,
            44.815223
          ],
          [
            20.453115,
            44.815254
          ],
          [
            20.453091,
            44.815303
          ],
          [
            20.45309,
            44.815318
          ],
          [
            20.453089,
            44.815332
          ],
          [
            20.453031,
            44.816024
          ],
          [
            20.452996,
            44.816437
          ],
          [
            20.452978,
            44.81665
          ],
          [
            20.452959,
            44.816831
          ],
          [
            20.452952,
            44.81691
          ],
          [
            20.452948,
            44.816967
          ],
          [
            20.452941,
            44.817013
          ],
          [
            20.452929,
            44.817032
          ],
          [
            20.452911,
            44.81705
          ],
          [
            20.452896,
            44.817063
          ],
          [
            20.45279,
            44.817132
          ],
          [
            20.452475,
            44.817358
          ],
          [
            20.452231,
            44.817538
          ],
          [
            20.452141,
            44.817606
          ],
          [
            20.451846,
            44.817841
          ],
          [
            20.451707,
            44.817944
          ],
          [
            20.451639,
            44.818007
          ],
          [
            20.451591,
            44.818058
          ],
          [
            20.451534,
            44.818121
          ],
          [
            20.45149,
            44.818175
          ],
          [
            20.451436,
            44.818247
          ],
          [
            20.451321,
            44.818408
          ],
          [
            20.451214,
            44.818567
          ],
          [
            20.451156,
            44.818644
          ],
          [
            20.451137,
            44.81867
          ],
          [
            20.451003,
            44.818825
          ],
          [
            20.450688,
            44.819185
          ],
          [
            20.450473,
            44.819421
          ],
          [
            20.45042,
            44.819469
          ],
          [
            20.450363,
            44.819513
          ],
          [
            20.450312,
            44.819549
          ],
          [
            20.450262,
            44.819581
          ],
          [
            20.450139,
            44.819647
          ],
          [
            20.45004,
            44.819706
          ],
          [
            20.449961,
            44.819753
          ],
          [
            20.449911,
            44.819768
          ],
          [
            20.449853,
            44.819774
          ],
          [
            20.449781,
            44.819776
          ],
          [
            20.449783,
            44.819745
          ],
          [
            20.449783,
            44.819705
          ],
          [
            20.449774,
            44.819633
          ],
          [
            20.44968,
            44.819039
          ],
          [
            20.449641,
            44.818765
          ],
          [
            20.449623,
            44.818668
          ],
          [
            20.449581,
            44.818562
          ],
          [
            20.449557,
            44.818498
          ],
          [
            20.449546,
            44.818467
          ],
          [
            20.449539,
            44.81843
          ],
          [
            20.449536,
            44.818362
          ],
          [
            20.449537,
            44.81833
          ],
          [
            20.449553,
            44.818233
          ],
          [
            20.449583,
            44.818066
          ],
          [
            20.449638,
            44.817692
          ],
          [
            20.449664,
            44.817512
          ],
          [
            20.449683,
            44.817374
          ],
          [
            20.449725,
            44.817093
          ],
          [
            20.449733,
            44.817041
          ],
          [
            20.449739,
            44.817014
          ],
          [
            20.449752,
            44.816936
          ],
          [
            20.449766,
            44.816881
          ],
          [
            20.449794,
            44.816769
          ],
          [
            20.449859,
            44.816572
          ],
          [
            20.449957,
            44.816328
          ],
          [
            20.450042,
            44.816134
          ],
          [
            20.450075,
            44.816045
          ],
          [
            20.450095,
            44.815978
          ],
          [
            20.450137,
            44.81583
          ],
          [
            20.450188,
            44.815215
          ],
          [
            20.450206,
            44.815039
          ],
          [
            20.450217,
            44.81491
          ],
          [
            20.450224,
            44.814879
          ],
          [
            20.450249,
            44.814839
          ],
          [
            20.450276,
            44.814812
          ],
          [
            20.450306,
            44.814786
          ],
          [
            20.450337,
            44.814765
          ],
          [
            20.450369,
            44.814747
          ],
          [
            20.450397,
            44.814738
          ],
          [
            20.450433,
            44.814729
          ],
          [
            20.450504,
            44.81472
          ],
          [
            20.450567,
            44.814715
          ],
          [
            20.450643,
            44.814715
          ],
          [
            20.450712,
            44.814716
          ],
          [
            20.450843,
            44.814723
          ],
          [
            20.450867,
            44.814725
          ],
          [
            20.450976,
            44.814731
          ],
          [
            20.451003,
            44.814732
          ],
          [
            20.451029,
            44.814734
          ],
          [
            20.451063,
            44.814736
          ],
          [
            20.451128,
            44.814738
          ],
          [
            20.451177,
            44.814739
          ],
          [
            20.45123,
            44.814737
          ],
          [
            20.451286,
            44.814731
          ],
          [
            20.451413,
            44.814697
          ],
          [
            20.451428,
            44.814692
          ],
          [
            20.452078,
            44.814494
          ],
          [
            20.45234,
            44.81441
          ],
          [
            20.452498,
            44.814359
          ],
          [
            20.452575,
            44.814337
          ],
          [
            20.452671,
            44.814315
          ],
          [
            20.452721,
            44.814306
          ],
          [
            20.452776,
            44.814299
          ],
          [
            20.452971,
            44.814302
          ],
          [
            20.453025,
            44.814302
          ],
          [
            20.453095,
            44.814302
          ],
          [
            20.453166,
            44.814297
          ],
          [
            20.453192,
            44.81429
          ],
          [
            20.453221,
            44.814289
          ],
          [
            20.453248,
            44.814294
          ],
          [
            20.45338,
            44.814284
          ],
          [
            20.453516,
            44.814181
          ],
          [
            20.453665,
            44.814073
          ],
          [
            20.45398,
            44.813851
          ],
          [
            20.454062,
            44.813797
          ],
          [
            20.454172,
            44.813717
          ],
          [
            20.454297,
            44.813621
          ],
          [
            20.45444,
            44.813494
          ],
          [
            20.454542,
            44.813404
          ],
          [
            20.454646,
            44.813309
          ],
          [
            20.45494,
            44.813011
          ],
          [
            20.45501,
            44.812938
          ],
          [
            20.455077,
            44.812874
          ],
          [
            20.455443,
            44.812536
          ],
          [
            20.455789,
            44.812169
          ],
          [
            20.455832,
            44.812132
          ],
          [
            20.455895,
            44.812061
          ],
          [
            20.456155,
            44.811763
          ],
          [
            20.456347,
            44.811542
          ],
          [
            20.456422,
            44.81145
          ],
          [
            20.456479,
            44.811379
          ],
          [
            20.456516,
            44.811334
          ],
          [
            20.456596,
            44.81124
          ],
          [
            20.456686,
            44.811135
          ],
          [
            20.457029,
            44.810736
          ],
          [
            20.457072,
            44.810685
          ],
          [
            20.457472,
            44.810213
          ],
          [
            20.457818,
            44.809834
          ],
          [
            20.457924,
            44.80974
          ],
          [
            20.458127,
            44.809558
          ],
          [
            20.458291,
            44.809428
          ],
          [
            20.458444,
            44.809332
          ],
          [
            20.458607,
            44.809242
          ],
          [
            20.45876,
            44.809156
          ],
          [
            20.458803,
            44.809228
          ],
          [
            20.458837,
            44.809279
          ],
          [
            20.45908,
            44.809648
          ],
          [
            20.459208,
            44.809846
          ],
          [
            20.459266,
            44.809928
          ],
          [
            20.459684,
            44.810558
          ],
          [
            20.45973,
            44.810627
          ],
          [
            20.459663,
            44.810725
          ],
          [
            20.45909,
            44.811645
          ],
          [
            20.458789,
            44.812134
          ],
          [
            20.458769,
            44.812166
          ],
          [
            20.458693,
            44.812289
          ],
          [
            20.458635,
            44.812384
          ],
          [
            20.458573,
            44.812484
          ],
          [
            20.458396,
            44.812772
          ],
          [
            20.458201,
            44.813096
          ],
          [
            20.458187,
            44.813119
          ],
          [
            20.458163,
            44.81316
          ],
          [
            20.458109,
            44.813249
          ],
          [
            20.458053,
            44.813341
          ],
          [
            20.457902,
            44.813603
          ],
          [
            20.457845,
            44.813704
          ],
          [
            20.457801,
            44.813782
          ],
          [
            20.457759,
            44.813843
          ],
          [
            20.45774,
            44.813941
          ],
          [
            20.457736,
            44.813993
          ],
          [
            20.457741,
            44.814032
          ],
          [
            20.457749,
            44.814055
          ],
          [
            20.457768,
            44.81408
          ],
          [
            20.457806,
            44.814115
          ],
          [
            20.457875,
            44.814147
          ],
          [
            20.457946,
            44.814161
          ],
          [
            20.458044,
            44.814175
          ],
          [
            20.458096,
            44.814166
          ],
          [
            20.458191,
            44.814153
          ],
          [
            20.458268,
            44.814143
          ],
          [
            20.458373,
            44.814134
          ],
          [
            20.458433,
            44.81413
          ],
          [
            20.458507,
            44.814128
          ],
          [
            20.458685,
            44.814128
          ],
          [
            20.458852,
            44.814131
          ],
          [
            20.45929,
            44.814149
          ],
          [
            20.459708,
            44.814173
          ],
          [
            20.460177,
            44.814204
          ],
          [
            20.460401,
            44.814223
          ],
          [
            20.460617,
            44.814241
          ],
          [
            20.460857,
            44.814265
          ],
          [
            20.461107,
            44.814291
          ],
          [
            20.461561,
            44.814337
          ],
          [
            20.461913,
            44.814375
          ],
          [
            20.462247,
            44.814426
          ],
          [
            20.462528,
            44.814467
          ],
          [
            20.462744,
            44.814499
          ],
          [
            20.462729,
            44.814538
          ],
          [
            20.462705,
            44.814597
          ],
          [
            20.462612,
            44.814831
          ],
          [
            20.462501,
            44.815099
          ],
          [
            20.462483,
            44.815146
          ],
          [
            20.462436,
            44.815269
          ],
          [
            20.46241,
            44.815339
          ],
          [
            20.46237,
            44.81545
          ],
          [
            20.462323,
            44.815579
          ],
          [
            20.462315,
            44.815603
          ],
          [
            20.46231,
            44.815617
          ],
          [
            20.462303,
            44.815645
          ],
          [
            20.462302,
            44.815667
          ],
          [
            20.462305,
            44.815727
          ],
          [
            20.462309,
            44.815837
          ],
          [
            20.46231,
            44.815859
          ],
          [
            20.462317,
            44.816093
          ],
          [
            20.46233,
            44.816321
          ],
          [
            20.462341,
            44.816526
          ],
          [
            20.462348,
            44.816654
          ],
          [
            20.462354,
            44.816699
          ],
          [
            20.462353,
            44.816736
          ],
          [
            20.462345,
            44.816785
          ],
          [
            20.46234,
            44.816803
          ],
          [
            20.462322,
            44.816855
          ],
          [
            20.462299,
            44.816894
          ],
          [
            20.462236,
            44.816979
          ],
          [
            20.461976,
            44.817162
          ],
          [
            20.461913,
            44.817208
          ],
          [
            20.461895,
            44.817226
          ],
          [
            20.461881,
            44.817241
          ],
          [
            20.461962,
            44.817292
          ],
          [
            20.462403,
            44.817568
          ],
          [
            20.462471,
            44.817614
          ],
          [
            20.462541,
            44.817661
          ],
          [
            20.462865,
            44.817862
          ],
          [
            20.463652,
            44.818345
          ],
          [
            20.463722,
            44.818388
          ],
          [
            20.464333,
            44.818776
          ],
          [
            20.464398,
            44.818817
          ],
          [
            20.464459,
            44.818856
          ],
          [
            20.464555,
            44.818915
          ],
          [
            20.46516,
            44.819288
          ],
          [
            20.465215,
            44.819321
          ],
          [
            20.465249,
            44.819341
          ],
          [
            20.465741,
            44.819644
          ],
          [
            20.465888,
            44.819735
          ],
          [
            20.465945,
            44.819769
          ],
          [
            20.466041,
            44.819822
          ],
          [
            20.466139,
            44.819681
          ],
          [
            20.466447,
            44.819218
          ],
          [
            20.4665,
            44.819072
          ],
          [
            20.4665,
            44.819072
          ],
          [
            20.466537,
            44.819002
          ],
          [
            20.466593,
            44.818914
          ],
          [
            20.466752,
            44.818668
          ],
          [
            20.466826,
            44.818551
          ],
          [
            20.466871,
            44.818494
          ],
          [
            20.466997,
            44.818366
          ],
          [
            20.46728,
            44.818121
          ],
          [
            20.467353,
            44.818078
          ],
          [
            20.467381,
            44.818066
          ],
          [
            20.467407,
            44.81806
          ],
          [
            20.467429,
            44.818059
          ],
          [
            20.467475,
            44.818061
          ],
          [
            20.467129,
            44.818351
          ],
          [
            20.467046,
            44.818424
          ],
          [
            20.466992,
            44.818485
          ],
          [
            20.466928,
            44.818574
          ],
          [
            20.466907,
            44.818605
          ],
          [
            20.466889,
            44.818632
          ],
          [
            20.466848,
            44.818698
          ],
          [
            20.46668,
            44.818944
          ],
          [
            20.466631,
            44.819016
          ],
          [
            20.466548,
            44.819114
          ],
          [
            20.466447,
            44.819218
          ],
          [
            20.466139,
            44.819681
          ],
          [
            20.466041,
            44.819822
          ],
          [
            20.465945,
            44.819769
          ],
          [
            20.465888,
            44.819735
          ],
          [
            20.465741,
            44.819644
          ],
          [
            20.465249,
            44.819341
          ],
          [
            20.465215,
            44.819321
          ],
          [
            20.46516,
            44.819288
          ],
          [
            20.464555,
            44.818915
          ],
          [
            20.464459,
            44.818856
          ],
          [
            20.464398,
            44.818817
          ],
          [
            20.464303,
            44.818875
          ],
          [
            20.463761,
            44.819192
          ],
          [
            20.463725,
            44.819213
          ],
          [
            20.463642,
            44.819266
          ],
          [
            20.462918,
            44.819706
          ],
          [
            20.462897,
            44.819721
          ],
          [
            20.462867,
            44.819702
          ],
          [
            20.462832,
            44.819678
          ],
          [
            20.4626,
            44.8195
          ]
        ]
      }
    }
  ]
}