{
  "type": "FeatureCollection",
  "features": [
    {
      "type": "Feature",
      "properties": {
        "id": "history-walk",
        "kind": "osrm-walk"
      },
      "geometry": {
        "type": "LineString",
        "coordinates": [
          [
            20.448397,
            44.821125
          ],
          [
            20.448397,
            44.821125
          ],
          [
            20.448138,
            44.821286
          ],
          [
            20.447775,
            44.821493
          ],
          [
            20.447577,
            44.821617
          ],
          [
            20.447426,
            44.82171
          ],
          [
            20.447206,
            44.821849
          ],
          [
            20.447057,
            44.821953
          ],
          [
            20.446975,
            44.822023
          ],
          [
            20.446869,
            44.82213
          ],
          [
            20.446745,
            44.822263
          ],
          [
            20.446586,
            44.822448
          ],
          [
            20.446512,
            44.822546
          ],
          [
            20.446464,
            44.822638
          ],
          [
            20.446435,
            44.822725
          ],
          [
            20.446412,
            44.822858
          ],
          [
            20.446401,
            44.822955
          ],
          [
            20.446394,
            44.823133
          ],
          [
            20.446392,
            44.823387
          ],
          [
            20.446372,
            44.823495
          ],
          [
            20.446343,
            44.823593
          ],
          [
            20.446263,
            44.823804
          ],
          [
            20.446168,
            44.82406
          ],
          [
            20.446088,
            44.824289
          ],
          [
            20.446057,
            44.824427
          ],
          [
            20.446041,
            44.824566
          ],
          [
            20.446034,
            44.824753
          ],
          [
            20.446037,
            44.824939
          ],
          [
            20.446047,
            44.825123
          ],
          [
            20.446083,
            44.825371
          ],
          [
            20.446107,
            44.825454
          ],
          [
            20.446129,
            44.825516
          ],
          [
            20.446174,
            44.825619
          ],
          [
            20.446234,
            44.825726
          ],
          [
            20.446279,
            44.825785
          ],
          [
            20.446328,
            44.825847
          ],
          [
            20.446457,
            44.825986
          ],
          [
            20.4466,
            44.826122
          ],
          [
            20.446638,
            44.826157
          ],
          [
            20.446686,
            44.826197
          ],
          [
            20.446762,
            44.82626
          ],
          [
            20.447107,
            44.826514
          ],
          [
            20.447235,
            44.826609
          ],
          [
            20.447299,
            44.826654
          ],
          [
            20.447355,
            44.826692
          ],
          [
            20.447394,
            44.826717
          ],
          [
            20.447472,
            44.826763
          ],
          [
            20.447579,
            44.826813
          ],
          [
            20.447646,
            44.826839
          ],
          [
            20.447722,
            44.826865
          ],
          [
            20.448089,
            44.826953
          ],
          [
            20.448164,
            44.826971
          ],
          [
            20.448706,
            44.827101
          ],
          [
            20.451375,
            44.827738
          ],
          [
            20.451504,
            44.827754
          ],
          [
            20.451637,
            44.827763
          ],
          [
            20.451764,
            44.827762
          ],
          [
            20.451823,
            44.827759
          ],
          [
            20.451861,
            44.827757
          ],
          [
            20.451955,
            44.827738
          ],
          [
            20.452019,
            44.827722
          ],
          [
            20.452074,
            44.827705
          ],
          [
            20.452139,
            44.827678
          ],
          [
            20.452169,
            44.827663
          ],
          [
            20.452312,
            44.827586
          ],
          [
            20.452335,
            44.827573
          ],
          [
            20.452437,
            44.827516
          ],
          [
            20.45247,
            44.827497
          ],
          [
            20.452503,
            44.827478
          ],
          [
            20.452537,
            44.827459
          ],
          [
            20.452709,
            44.827359
          ],
          [
            20.45285,
            44.827277
          ],
          [
            20.452925,
            44.827236
          ],
          [
            20.452992,
            44.8272
          ],
          [
            20.45303,
            44.827179
          ],
          [
            20.453104,
            44.827139
          ],
          [
            20.453594,
            44.826874
          ],
          [
            20.454484,
            44.826398
          ],
          [
            20.454602,
            44.826335
          ],
          [
            20.455481,
            44.825867
          ],
          [
            20.455541,
            44.825834
          ],
          [
            20.455765,
            44.825716
          ],
          [
            20.456061,
            44.825547
          ],
          [
            20.456316,
            44.825412
          ],
          [
            20.456816,
            44.825152
          ],
          [
            20.456831,
            44.825144
          ],
          [
            20.456851,
            44.825114
          ],
          [
            20.456868,
            44.825096
          ],
          [
            20.4569,
            44.825074
          ],
          [
            20.457097,
            44.824973
          ],
          [
            20.457124,
            44.824964
          ],
          [
            20.457153,
            44.824959
          ],
          [
            20.457208,
            44.82495
          ],
          [
            20.457436,
            44.824829
          ],
          [
            20.457487,
            44.824752
          ],
          [
            20.457811,
            44.824577
          ],
          [
            20.457877,
            44.82454
          ],
          [
            20.458528,
            44.824188
          ],
          [
            20.45867,
            44.824148
          ],
          [
            20.458695,
            44.824134
          ],
          [
            20.458849,
            44.82405
          ],
          [
            20.459051,
            44.823942
          ],
          [
            20.45911,
            44.823875
          ],
          [
            20.459418,
            44.82371
          ],
          [
            20.459556,
            44.823685
          ],
          [
            20.459808,
            44.823541
          ],
          [
            20.459915,
            44.823483
          ],
          [
            20.460039,
            44.823413
          ],
          [
            20.460619,
            44.823088
          ],
          [
            20.461125,
            44.822807
          ],
          [
            20.461074,
            44.82276
          ],
          [
            20.461032,
            44.822719
          ],
          [
            20.460494,
            44.822208
          ],
          [
            20.460436,
            44.822155
          ],
          [
            20.460396,
            44.822119
          ],
          [
            20.459869,
            44.821631
          ],
          [
            20.459834,
            44.821599
          ],
          [
            20.459801,
            44.821567
          ],
          [
            20.459742,
            44.821513
          ],
          [
            20.459415,
            44.821208
          ],
          [
            20.459222,
            44.821028
          ],
          [
            20.459177,
            44.820987
          ],
          [
            20.459118,
            44.820929
          ],
          [
            20.459078,
            44.820891
          ],
          [
            20.459028,
            44.820844
          ],
          [
            20.458634,
            44.820474
          ],
          [
            20.458617,
            44.820458
          ],
          [
            20.458594,
            44.820438
          ],
          [
            20.458352,
            44.820218
          ],
          [
            20.458138,
            44.820022
          ],
          [
            20.458087,
            44.819973
          ],
          [
            20.457904,
            44.820104
          ],
          [
            20.457498,
            44.820396
          ],
          [
            20.457426,
            44.820347
          ],
          [
            20.457157,
            44.820162
          ],
          [
            20.456634,
            44.819803
          ],
          [
            20.456441,
            44.81966
          ],
          [
            20.456425,
            44.819649
          ],
          [
            20.456383,
            44.81962
          ],
          [
            20.456354,
            44.819599
          ],
          [
            20.456274,
            44.81965
          ],
          [
            20.456224,
            44.819683
          ],
          [
            20.455992,
            44.819843
          ],
          [
            20.455592,
            44.820119
          ],
          [
            20.455509,
            44.820176
          ],
          [
            20.455424,
            44.820234
          ],
          [
            20.455055,
            44.820478
          ],
          [
            20.454981,
            44.820528
          ],
          [
            20.454799,
            44.820647
          ],
          [
            20.454425,
            44.8209
          ],
          [
            20.454357,
            44.820947
          ],
          [
            20.454308,
            44.820982
          ],
          [
            20.454236,
            44.820905
          ],
          [
            20.454201,
            44.820877
          ],
          [
            20.453936,
            44.820664
          ],
          [
            20.453306,
            44.820157
          ],
          [
            20.453214,
            44.82008
          ],
          [
            20.453162,
            44.820039
          ],
          [
            20.452363,
            44.819401
          ],
          [
            20.45215,
            44.819228
          ],
          [
            20.452241,
            44.819171
          ],
          [
            20.452642,
            44.818893
          ],
          [
            20.452494,
            44.818996
          ],
          [
            20.452241,
            44.819171
          ],
          [
            20.45215,
            44.819228
          ],
          [
            20.452363,
            44.819401
          ],
          [
            20.453162,
            44.820039
          ],
          [
            20.453214,
            44.82008
          ],
          [
            20.453306,
            44.820157
          ],
          [
            20.453936,
            44.820664
          ],
          [
            20.454201,
            44.820877
          ],
          [
            20.454236,
            44.820905
          ],
          [
            20.454308,
            44.820982
          ],
          [
            20.45434,
            44.821017
          ],
          [
            20.454371,
            44.821057
          ],
          [
            20.454424,
            44.821122
          ],
          [
            20.454463,
            44.821174
          ],
          [
            20.454776,
            44.821592
          ],
          [
            20.455097,
            44.821994
          ],
          [
            20.455168,
            44.822102
          ],
          [
            20.455209,
            44.822113
          ],
          [
            20.455245,
            44.82213
          ],
          [
            20.455291,
            44.82216
          ],
          [
            20.455371,
            44.822232
          ],
          [
            20.45545,
            44.822304
          ],
          [
            20.455524,
            44.822373
          ],
          [
            20.455796,
            44.822622
          ],
          [
            20.45583,
            44.822653
          ],
          [
            20.455856,
            44.822676
          ],
          [
            20.455897,
            44.822713
          ],
          [
            20.456522,
            44.823286
          ],
          [
            20.456579,
            44.82334
          ],
          [
            20.456621,
            44.823379
          ],
          [
            20.457147,
            44.823869
          ],
          [
            20.457199,
            44.823918
          ],
          [
            20.457246,
            44.823961
          ],
          [
            20.457811,
            44.824479
          ],
          [
            20.457816,
            44.824484
          ],
          [
            20.45784,
            44.824506
          ],
          [
            20.457877,
            44.82454
          ],
          [
            20.458528,
            44.824188
          ],
          [
            20.45867,
            44.824148
          ],
          [
            20.458695,
            44.824134
          ],
          [
            20.458849,
            44.82405
          ],
          [
            20.459051,
            44.823942
          ],
          [
            20.45911,
            44.823875
          ],
          [
            20.459418,
            44.82371
          ],
          [
            20.459556,
            44.823685
          ],
          [
            20.459808,
            44.823541
          ],
          [
            20.459915,
            44.823483
          ],
          [
            20.460039,
            44.823413
          ],
          [
            20.460619,
            44.823088
          ],
          [
            20.461125,
            44.822807
          ],
          [
            20.461352,
            44.822685
          ],
          [
            20.461481,
            44.822615
          ],
          [
            20.462143,
            44.82226
          ],
          [
            20.462227,
            44.822215
          ],
          [
            20.462588,
            44.822017
          ],
          [
            20.462873,
            44.821864
          ],
          [
            20.463572,
            44.821481
          ],
          [
            20.463685,
            44.82142
          ],
          [
            20.463617,
            44.821372
          ],
          [
            20.463564,
            44.821333
          ],
          [
            20.46288,
            44.820817
          ],
          [
            20.462825,
            44.820776
          ],
          [
            20.462789,
            44.820748
          ],
          [
            20.462131,
            44.820272
          ],
          [
            20.462067,
            44.820223
          ],
          [
            20.462027,
            44.820193
          ],
          [
            20.461395,
            44.819713
          ],
          [
            20.461368,
            44.819695
          ],
          [
            20.461309,
            44.81965
          ],
          [
            20.460597,
            44.819116
          ],
          [
            20.460556,
            44.819087
          ],
          [
            20.46047,
            44.819147
          ],
          [
            20.459853,
            44.819577
          ],
          [
            20.459833,
            44.81959
          ],
          [
            20.459809,
            44.819608
          ],
          [
            20.459571,
            44.819444
          ],
          [
            20.459395,
            44.819322
          ],
          [
            20.459328,
            44.819274
          ],
          [
            20.459243,
            44.819213
          ],
          [
            20.45923,
            44.819204
          ],
          [
            20.459224,
            44.819195
          ],
          [
            20.459211,
            44.819174
          ],
          [
            20.459205,
            44.81917
          ],
          [
            20.459184,
            44.819155
          ],
          [
            20.45882,
            44.818889
          ],
          [
            20.458437,
            44.818612
          ],
          [
            20.458354,
            44.818552
          ],
          [
            20.45816,
            44.818426
          ],
          [
            20.45816,
            44.818426
          ],
          [
            20.458354,
            44.818552
          ],
          [
            20.458437,
            44.818612
          ],
          [
            20.45882,
            44.818889
          ],
          [
            20.459184,
            44.819155
          ],
          [
            20.459205,
            44.81917
          ],
          [
            20.459188,
            44.819182
          ],
          [
            20.458498,
            44.819677
          ],
          [
            20.458139,
            44.819935
          ],
          [
            20.458087,
            44.819973
          ],
          [
            20.457904,
            44.820104
          ],
          [
            20.457498,
            44.820396
          ],
          [
            20.457426,
            44.820347
          ],
          [
            20.457157,
            44.820162
          ],
          [
            20.456634,
            44.819803
          ],
          [
            20.456441,
            44.81966
          ],
          [
            20.456425,
            44.819649
          ],
          [
            20.456383,
            44.81962
          ],
          [
            20.456354,
            44.819599
          ],
          [
            20.456274,
            44.81965
          ],
          [
            20.456224,
            44.819683
          ],
          [
            20.455992,
            44.819843
          ],
          [
            20.455592,
            44.820119
          ],
          [
            20.455509,
            44.820176
          ],
          [
            20.455424,
            44.820234
          ],
          [
            20.455055,
            44.820478
          ],
          [
            20.454981,
            44.820528
          ],
          [
            20.454799,
            44.820647
          ],
          [
            20.454425,
            44.8209
          ],
          [
            20.454357,
            44.820947
          ],
          [
            20.454308,
            44.820982
          ],
          [
            20.454236,
            44.820905
          ],
          [
            20.454201,
            44.820877
          ],
          [
            20.453936,
            44.820664
          ],
          [
            20.453306,
            44.820157
          ],
          [
            20.453214,
            44.82008
          ],
          [
            20.453162,
            44.820039
          ],
          [
            20.452363,
            44.819401
          ],
          [
            20.45215,
            44.819228
          ],
          [
            20.451921,
            44.819055
          ],
          [
            20.45168,
            44.818889
          ],
          [
            20.45134,
            44.818657
          ],
          [
            20.451302,
            44.818629
          ],
          [
            20.451214,
            44.818567
          ],
          [
            20.451321,
            44.818408
          ],
          [
            20.451436,
            44.818247
          ],
          [
            20.45149,
            44.818175
          ],
          [
            20.451534,
            44.818121
          ],
          [
            20.451591,
            44.818058
          ],
          [
            20.451639,
            44.818007
          ],
          [
            20.451707,
            44.817944
          ],
          [
            20.451846,
            44.817841
          ],
          [
            20.452141,
            44.817606
          ],
          [
            20.452229,
            44.817667
          ],
          [
            20.452672,
            44.817975
          ],
          [
            20.452711,
            44.818002
          ],
          [
            20.452775,
            44.817957
          ],
          [
            20.453336,
            44.817559
          ],
          [
            20.453311,
            44.817531
          ],
          [
            20.452981,
            44.817157
          ],
          [
            20.452896,
            44.817063
          ],
          [
            20.452911,
            44.81705
          ],
          [
            20.452929,
            44.817032
          ],
          [
            20.452941,
            44.817013
          ],
          [
            20.452948,
            44.816967
          ],
          [
            20.452952,
            44.81691
          ],
          [
            20.452959,
            44.816831
          ],
          [
            20.452978,
            44.81665
          ],
          [
            20.452996,
            44.816437
          ],
          [
            20.453068,
            44.816419
          ],
          [
            20.453961,
            44.816222
          ],
          [
            20.454091,
            44.816194
          ],
          [
            20.454177,
            44.816175
          ],
          [
            20.454358,
            44.816124
          ],
          [
            20.454783,
            44.816005
          ],
          [
            20.454857,
            44.815984
          ],
          [
            20.455721,
            44.815741
          ],
          [
            20.455809,
            44.81572
          ],
          [
            20.455913,
            44.815695
          ],
          [
            20.456388,
            44.814641
          ],
          [
            20.456451,
            44.814505
          ],
          [
            20.456907,
            44.814411
          ],
          [
            20.456948,
            44.814402
          ],
          [
            20.457399,
            44.814308
          ],
          [
            20.458044,
            44.814175
          ],
          [
            20.458096,
            44.814166
          ],
          [
            20.458162,
            44.814137
          ],
          [
            20.458363,
            44.814049
          ],
          [
            20.458545,
            44.813979
          ],
          [
            20.458812,
            44.813875
          ],
          [
            20.458859,
            44.813856
          ],
          [
            20.458867,
            44.813853
          ],
          [
            20.459155,
            44.813751
          ],
          [
            20.459771,
            44.813532
          ],
          [
            20.460149,
            44.813377
          ],
          [
            20.460295,
            44.813409
          ],
          [
            20.460521,
            44.813457
          ],
          [
            20.460695,
            44.813477
          ],
          [
            20.460713,
            44.813459
          ],
          [
            20.460738,
            44.813447
          ],
          [
            20.460768,
            44.813441
          ],
          [
            20.460894,
            44.813184
          ],
          [
            20.461256,
            44.812507
          ],
          [
            20.461715,
            44.811734
          ],
          [
            20.462048,
            44.811004
          ],
          [
            20.462069,
            44.810963
          ],
          [
            20.462126,
            44.810861
          ],
          [
            20.462137,
            44.810841
          ],
          [
            20.462329,
            44.810477
          ],
          [
            20.462617,
            44.809952
          ],
          [
            20.462768,
            44.809687
          ],
          [
            20.462886,
            44.809481
          ],
          [
            20.463005,
            44.809268
          ],
          [
            20.463409,
            44.808517
          ],
          [
            20.463471,
            44.808406
          ],
          [
            20.463491,
            44.808369
          ],
          [
            20.463557,
            44.808265
          ],
          [
            20.463978,
            44.807519
          ],
          [
            20.464355,
            44.80682
          ],
          [
            20.464403,
            44.806732
          ],
          [
            20.464418,
            44.806703
          ],
          [
            20.464435,
            44.806669
          ],
          [
            20.464464,
            44.806613
          ],
          [
            20.464874,
            44.805863
          ],
          [
            20.465333,
            44.805021
          ],
          [
            20.465405,
            44.80489
          ],
          [
            20.465929,
            44.803893
          ],
          [
            20.465978,
            44.803802
          ],
          [
            20.466057,
            44.803659
          ],
          [
            20.466338,
            44.803153
          ],
          [
            20.46635,
            44.803131
          ],
          [
            20.466369,
            44.803066
          ],
          [
            20.466372,
            44.803023
          ],
          [
            20.46637,
            44.802988
          ],
          [
            20.466363,
            44.802949
          ],
          [
            20.466352,
            44.802913
          ],
          [
            20.46633,
            44.802856
          ],
          [
            20.466308,
            44.80284
          ],
          [
            20.466258,
            44.802801
          ],
          [
            20.466178,
            44.802738
          ],
          [
            20.46614,
            44.802726
          ],
          [
            20.466104,
            44.802711
          ],
          [
            20.466071,
            44.802694
          ],
          [
            20.46604,
            44.802674
          ],
          [
            20.466013,
            44.802652
          ],
          [
            20.465989,
            44.802628
          ],
          [
            20.465969,
            44.802602
          ],
          [
            20.465952,
            44.802575
          ],
          [
            20.465936,
            44.802532
          ],
          [
            20.465929,
            44.802488
          ],
          [
            20.465933,
            44.802444
          ],
          [
            20.465946,
            44.8024
          ],
          [
            20.46597,
            44.802359
          ],
          [
            20.465991,
            44.802333
          ],
          [
            20.466016,
            44.802308
          ],
          [
            20.466045,
            44.802286
          ],
          [
            20.466077,
            44.802265
          ],
          [
            20.466112,
            44.802248
          ],
          [
            20.46615,
            44.802233
          ],
          [
            20.466189,
            44.802222
          ],
          [
            20.466225,
            44.802214
          ],
          [
            20.466262,
            44.802209
          ],
          [
            20.4663,
            44.802207
          ],
          [
            20.466337,
            44.802207
          ],
          [
            20.466374,
            44.80221
          ],
          [
            20.466411,
            44.802215
          ],
          [
            20.466447,
            44.802223
          ],
          [
            20.466482,
            44.802233
          ],
          [
            20.466514,
            44.802245
          ],
          [
            20.466546,
            44.80226
          ],
          [
            20.466574,
            44.802276
          ],
          [
            20.466601,
            44.802295
          ],
          [
            20.466625,
            44.802315
          ],
          [
            20.466646,
            44.802337
          ],
          [
            20.466664,
            44.80236
          ],
          [
            20.466676,
            44.802379
          ],
          [
            20.466695,
            44.802411
          ],
          [
            20.466777,
            44.80243
          ],
          [
            20.466823,
            44.80244
          ],
          [
            20.466905,
            44.802447
          ],
          [
            20.466955,
            44.802447
          ],
          [
            20.467039,
            44.802433
          ],
          [
            20.467137,
            44.802404
          ],
          [
            20.467206,
            44.802378
          ],
          [
            20.467246,
            44.802358
          ],
          [
            20.467395,
            44.802278
          ],
          [
            20.467858,
            44.80202
          ],
          [
            20.468282,
            44.801791
          ],
          [
            20.469056,
            44.80136
          ],
          [
            20.469264,
            44.801243
          ],
          [
            20.469431,
            44.801154
          ],
          [
            20.469628,
            44.801041
          ],
          [
            20.469763,
            44.800962
          ],
          [
            20.469746,
            44.800954
          ],
          [
            20.469731,
            44.800948
          ],
          [
            20.469699,
            44.800936
          ],
          [
            20.46962,
            44.800908
          ],
          [
            20.469142,
            44.800775
          ],
          [
            20.46909,
            44.800761
          ],
          [
            20.469107,
            44.800731
          ],
          [
            20.469848,
            44.799413
          ],
          [
            20.469885,
            44.799344
          ],
          [
            20.469583,
            44.799278
          ],
          [
            20.469284,
            44.799212
          ],
          [
            20.469304,
            44.799174
          ],
          [
            20.469326,
            44.799134
          ],
          [
            20.469414,
            44.79897
          ],
          [
            20.469443,
            44.798917
          ],
          [
            20.46949,
            44.798852
          ],
          [
            20.469539,
            44.798802
          ],
          [
            20.469591,
            44.798748
          ],
          [
            20.469646,
            44.798708
          ],
          [
            20.469708,
            44.798659
          ],
          [
            20.469801,
            44.798581
          ],
          [
            20.469847,
            44.798546
          ],
          [
            20.469919,
            44.798481
          ],
          [
            20.469987,
            44.798402
          ],
          [
            20.470041,
            44.798318
          ],
          [
            20.470066,
            44.798259
          ],
          [
            20.470079,
            44.798226
          ],
          [
            20.470094,
            44.798149
          ],
          [
            20.470096,
            44.798075
          ],
          [
            20.470089,
            44.797987
          ],
          [
            20.470066,
            44.797902
          ],
          [
            20.46981,
            44.797476
          ],
          [
            20.469746,
            44.797488
          ],
          [
            20.46964,
            44.797509
          ],
          [
            20.469566,
            44.797523
          ],
          [
            20.469351,
            44.797497
          ],
          [
            20.46926,
            44.797484
          ],
          [
            20.469183,
            44.797474
          ],
          [
            20.469183,
            44.797474
          ],
          [
            20.469207,
            44.797375
          ],
          [
            20.469183,
            44.797474
          ],
          [
            20.46926,
            44.797484
          ],
          [
            20.469351,
            44.797497
          ],
          [
            20.469566,
            44.797523
          ],
          [
            20.46964,
            44.797509
          ],
          [
            20.469746,
            44.797488
          ],
          [
            20.46981,
            44.797476
          ],
          [
            20.470066,
            44.797902
          ],
          [
            20.470089,
            44.797987
          ],
          [
            20.470096,
            44.798075
          ],
          [
            20.470094,
            44.798149
          ],
          [
            20.470079,
            44.798226
          ],
          [
            20.470066,
            44.798259
          ],
          [
            20.470041,
            44.798318
          ],
          [
            20.469987,
            44.798402
          ],
          [
            20.469919,
            44.798481
          ],
          [
            20.469847,
            44.798546
          ],
          [
            20.469801,
            44.798581
          ],
          [
            20.469708,
            44.798659
          ],
          [
            20.469646,
            44.798708
          ],
          [
            20.469591,
            44.798748
          ],
          [
            20.469539,
            44.798802
          ],
          [
            20.46949,
            44.798852
          ],
          [
            20.469443,
            44.798917
          ],
          [
            20.469414,
            44.79897
          ],
          [
            20.469326,
            44.799134
          ],
          [
            20.469304,
            44.799174
          ],
          [
            20.469284,
            44.799212
          ],
          [
            20.468715,
            44.79908
          ],
          [
            20.468588,
            44.799049
          ],
          [
            20.468553,
            44.799113
          ],
          [
            20.468474,
            44.799258
          ],
          [
            20.468406,
            44.799384
          ],
          [
            20.467864,
            44.800378
          ],
          [
            20.467844,
            44.800415
          ],
          [
            20.467902,
            44.800431
          ],
          [
            20.469012,
            44.800739
          ],
          [
            20.46909,
            44.800761
          ],
          [
            20.469142,
            44.800775
          ],
          [
            20.46962,
            44.800908
          ],
          [
            20.469699,
            44.800936
          ],
          [
            20.469731,
            44.800948
          ],
          [
            20.469746,
            44.800954
          ],
          [
            20.469763,
            44.800962
          ],
          [
            20.469781,
            44.800971
          ],
          [
            20.469798,
            44.800981
          ],
          [
            20.469826,
            44.801002
          ],
          [
            20.470092,
            44.801243
          ],
          [
            20.471121,
            44.802175
          ],
          [
            20.471202,
            44.802248
          ],
          [
            20.471248,
            44.802289
          ],
          [
            20.472539,
            44.803455
          ],
          [
            20.47259,
            44.803501
          ],
          [
            20.472657,
            44.803559
          ],
          [
            20.472727,
            44.803624
          ],
          [
            20.473505,
            44.804341
          ],
          [
            20.473518,
            44.804354
          ],
          [
            20.473585,
            44.804413
          ],
          [
            20.473621,
            44.804447
          ],
          [
            20.474039,
            44.804817
          ],
          [
            20.474533,
            44.805254
          ],
          [
            20.474579,
            44.805294
          ],
          [
            20.474832,
            44.805526
          ],
          [
            20.474908,
            44.805594
          ],
          [
            20.474938,
            44.805622
          ],
          [
            20.474972,
            44.805652
          ],
          [
            20.47501,
            44.805686
          ],
          [
            20.474501,
            44.8059
          ],
          [
            20.473999,
            44.806109
          ],
          [
            20.474054,
            44.806188
          ],
          [
            20.474719,
            44.806889
          ],
          [
            20.474911,
            44.807084
          ],
          [
            20.475148,
            44.807273
          ],
          [
            20.47533,
            44.807402
          ],
          [
            20.475547,
            44.807541
          ],
          [
            20.475501,
            44.807587
          ],
          [
            20.474891,
            44.808264
          ],
          [
            20.474826,
            44.808343
          ],
          [
            20.474795,
            44.808379
          ],
          [
            20.474342,
            44.808847
          ],
          [
            20.474227,
            44.808959
          ],
          [
            20.474164,
            44.809027
          ],
          [
            20.474147,
            44.809047
          ],
          [
            20.474126,
            44.809068
          ],
          [
            20.474107,
            44.809084
          ],
          [
            20.473951,
            44.80899
          ],
          [
            20.473539,
            44.808687
          ],
          [
            20.473161,
            44.808402
          ],
          [
            20.473016,
            44.80829
          ],
          [
            20.472773,
            44.808101
          ],
          [
            20.47214,
            44.807645
          ],
          [
            20.471844,
            44.807412
          ],
          [
            20.471722,
            44.807334
          ],
          [
            20.471682,
            44.807311
          ],
          [
            20.471638,
            44.807291
          ],
          [
            20.471585,
            44.807277
          ],
          [
            20.471542,
            44.807275
          ],
          [
            20.471514,
            44.807273
          ],
          [
            20.47145,
            44.807279
          ],
          [
            20.471373,
            44.807307
          ],
          [
            20.470824,
            44.807635
          ],
          [
            20.470714,
            44.807699
          ],
          [
            20.470065,
            44.80809
          ],
          [
            20.469616,
            44.808357
          ],
          [
            20.46948,
            44.808442
          ],
          [
            20.46894,
            44.80878
          ],
          [
            20.468801,
            44.808866
          ],
          [
            20.468689,
            44.80893
          ],
          [
            20.468589,
            44.808991
          ],
          [
            20.468506,
            44.809041
          ],
          [
            20.468393,
            44.809106
          ],
          [
            20.468065,
            44.809307
          ],
          [
            20.468028,
            44.80933
          ],
          [
            20.46799,
            44.809354
          ],
          [
            20.467799,
            44.80947
          ],
          [
            20.467739,
            44.809505
          ],
          [
            20.467556,
            44.809615
          ],
          [
            20.467047,
            44.809938
          ],
          [
            20.466782,
            44.810112
          ],
          [
            20.466463,
            44.810314
          ],
          [
            20.46622,
            44.81046
          ],
          [
            20.466162,
            44.810499
          ],
          [
            20.466066,
            44.810564
          ],
          [
            20.46598,
            44.810621
          ],
          [
            20.465938,
            44.81065
          ],
          [
            20.465781,
            44.810756
          ],
          [
            20.465728,
            44.810792
          ],
          [
            20.465253,
            44.811113
          ],
          [
            20.464723,
            44.811459
          ],
          [
            20.464535,
            44.811583
          ],
          [
            20.464411,
            44.811732
          ],
          [
            20.464353,
            44.811822
          ],
          [
            20.464323,
            44.811891
          ],
          [
            20.464285,
            44.811929
          ],
          [
            20.464239,
            44.811959
          ],
          [
            20.464106,
            44.812022
          ],
          [
            20.464022,
            44.81208
          ],
          [
            20.463943,
            44.812141
          ],
          [
            20.463848,
            44.812219
          ],
          [
            20.463789,
            44.812267
          ],
          [
            20.463784,
            44.812271
          ],
          [
            20.463758,
            44.812292
          ],
          [
            20.463707,
            44.812312
          ],
          [
            20.463664,
            44.812332
          ],
          [
            20.463609,
            44.812379
          ],
          [
            20.463593,
            44.812393
          ],
          [
            20.463557,
            44.812427
          ],
          [
            20.463527,
            44.812459
          ],
          [
            20.463505,
            44.812486
          ],
          [
            20.463489,
            44.812515
          ],
          [
            20.463458,
            44.812571
          ],
          [
            20.463422,
            44.812649
          ],
          [
            20.463371,
            44.81278
          ],
          [
            20.463182,
            44.813273
          ],
          [
            20.462975,
            44.81386
          ],
          [
            20.462853,
            44.814188
          ],
          [
            20.462795,
            44.814358
          ],
          [
            20.462744,
            44.814499
          ],
          [
            20.462729,
            44.814538
          ],
          [
            20.462705,
            44.814597
          ],
          [
            20.462612,
            44.814831
          ],
          [
            20.462501,
            44.815099
          ],
          [
            20.462483,
            44.815146
          ],
          [
            20.462436,
            44.815269
          ],
          [
            20.46241,
            44.815339
          ],
          [
            20.46237,
            44.81545
          ],
          [
            20.462323,
            44.815579
          ],
          [
            20.462315,
            44.815603
          ],
          [
            20.46231,
            44.815617
          ],
          [
            20.462303,
            44.815645
          ],
          [
            20.462302,
            44.815667
          ],
          [
            20.462305,
            44.815727
          ],
          [
            20.462309,
            44.815837
          ],
          [
            20.46231,
            44.815859
          ],
          [
            20.462317,
            44.816093
          ],
          [
            20.46233,
            44.816321
          ],
          [
            20.462341,
            44.816526
          ],
          [
            20.462348,
            44.816654
          ],
          [
            20.462354,
            44.816699
          ],
          [
            20.462353,
            44.816736
          ],
          [
            20.462345,
            44.816785
          ],
          [
            20.46234,
            44.816803
          ],
          [
            20.462322,
            44.816855
          ],
          [
            20.462299,
            44.816894
          ],
          [
            20.462236,
            44.816979
          ],
          [
            20.461976,
            44.817162
          ],
          [
            20.461913,
            44.817208
          ],
          [
            20.461895,
            44.817226
          ],
          [
            20.461881,
            44.817241
          ],
          [
            20.461866,
            44.817258
          ],
          [
            20.46185,
            44.817273
          ],
          [
            20.461834,
            44.817287
          ],
          [
            20.46182,
            44.817296
          ],
          [
            20.461473,
            44.81756
          ],
          [
            20.461446,
            44.81758
          ],
          [
            20.461406,
            44.817553
          ],
          [
            20.460319,
            44.816814
          ],
          [
            20.460254,
            44.81677
          ],
          [
            20.46026,
            44.816766
          ],
          [
            20.460263,
            44.816761
          ],
          [
            20.460267,
            44.816757
          ],
          [
            20.460274,
            44.816742
          ],
          [
            20.46028,
            44.81673
          ],
          [
            20.460283,
            44.816726
          ],
          [
            20.460287,
            44.816722
          ],
          [
            20.460357,
            44.81667
          ],
          [
            20.460475,
            44.816583
          ],
          [
            20.460625,
            44.816477
          ],
          [
            20.460744,
            44.816389
          ],
          [
            20.460866,
            44.816302
          ],
          [
            20.460921,
            44.816257
          ],
          [
            20.461039,
            44.816161
          ],
          [
            20.461134,
            44.816037
          ],
          [
            20.461102,
            44.816031
          ],
          [
            20.461072,
            44.816019
          ],
          [
            20.461047,
            44.816003
          ],
          [
            20.461027,
            44.815983
          ],
          [
            20.461014,
            44.815961
          ],
          [
            20.461009,
            44.815938
          ],
          [
            20.461011,
            44.815914
          ],
          [
            20.461025,
            44.815882
          ],
          [
            20.461053,
            44.815856
          ],
          [
            20.461091,
            44.815836
          ],
          [
            20.461135,
            44.815826
          ],
          [
            20.461182,
            44.815826
          ],
          [
            20.461226,
            44.815836
          ],
          [
            20.461264,
            44.815855
          ],
          [
            20.461292,
            44.815881
          ],
          [
            20.461308,
            44.815913
          ],
          [
            20.461308,
            44.815947
          ],
          [
            20.461294,
            44.815979
          ],
          [
            20.461266,
            44.816007
          ],
          [
            20.461228,
            44.816027
          ],
          [
            20.461182,
            44.816037
          ],
          [
            20.461134,
            44.816037
          ],
          [
            20.461039,
            44.816161
          ],
          [
            20.460921,
            44.816257
          ],
          [
            20.460866,
            44.816302
          ],
          [
            20.460854,
            44.816358
          ],
          [
            20.460852,
            44.816407
          ],
          [
            20.46086,
            44.816465
          ],
          [
            20.46088,
            44.816507
          ],
          [
            20.460898,
            44.816537
          ],
          [
            20.460948,
            44.816588
          ],
          [
            20.460999,
            44.816634
          ],
          [
            20.461025,
            44.816673
          ],
          [
            20.461046,
            44.816719
          ],
          [
            20.461091,
            44.816748
          ],
          [
            20.461881,
            44.817241
          ],
          [
            20.461962,
            44.817292
          ],
          [
            20.462403,
            44.817568
          ],
          [
            20.462471,
            44.817614
          ],
          [
            20.462541,
            44.817661
          ],
          [
            20.462865,
            44.817862
          ],
          [
            20.463652,
            44.818345
          ],
          [
            20.463722,
            44.818388
          ],
          [
            20.464333,
            44.818776
          ],
          [
            20.464398,
            44.818817
          ],
          [
            20.464459,
            44.818856
          ],
          [
            20.464555,
            44.818915
          ],
          [
            20.46516,
            44.819288
          ],
          [
            20.465215,
            44.819321
          ],
          [
            20.465249,
            44.819341
          ],
          [
            20.465741,
            44.819644
          ],
          [
            20.465888,
            44.819735
          ],
          [
            20.465945,
            44.819769
          ],
          [
            20.466041,
            44.819822
          ],
          [
            20.466139,
            44.819681
          ],
          [
            20.466447,
            44.819218
          ],
          [
            20.4665,
            44.819072
          ],
          [
            20.4665,
            44.819072
          ]
        ]
      }
    }
  ]
}