{
  "type": "FeatureCollection",
  "features": [
    {
      "type": "Feature",
      "properties": {
        "id": "rainy-day",
        "kind": "osrm-walk"
      },
      "geometry": {
        "type": "LineString",
        "coordinates": [
          [
            20.460492,
            44.816932
          ],
          [
            20.460319,
            44.816814
          ],
          [
            20.460254,
            44.81677
          ],
          [
            20.46026,
            44.816766
          ],
          [
            20.460263,
            44.816761
          ],
          [
            20.460267,
            44.816757
          ],
          [
            20.460274,
            44.816742
          ],
          [
            20.46028,
            44.81673
          ],
          [
            20.460283,
            44.816726
          ],
          [
            20.460287,
            44.816722
          ],
          [
            20.460475,
            44.816583
          ],
          [
            20.460625,
            44.816477
          ],
          [
            20.460744,
            44.816389
          ],
          [
            20.460866,
            44.816302
          ],
          [
            20.460921,
            44.816257
          ],
          [
            20.461039,
            44.816161
          ],
          [
            20.461134,
            44.816037
          ],
          [
            20.461102,
            44.816031
          ],
          [
            20.461072,
            44.816019
          ],
          [
            20.461047,
            44.816003
          ],
          [
            20.461027,
            44.815983
          ],
          [
            20.461014,
            44.815961
          ],
          [
            20.461009,
            44.815938
          ],
          [
            20.461011,
            44.815914
          ],
          [
            20.460892,
            44.815852
          ],
          [
            20.460773,
            44.815791
          ],
          [
            20.460742,
            44.815775
          ],
          [
            20.460713,
            44.815756
          ],
          [
            20.460684,
            44.815731
          ],
          [
            20.460666,
            44.815704
          ],
          [
            20.460629,
            44.815633
          ],
          [
            20.460546,
            44.815473
          ],
          [
            20.460425,
            44.815248
          ],
          [
            20.460384,
            44.815155
          ],
          [
            20.460339,
            44.815032
          ],
          [
            20.460258,
            44.814886
          ],
          [
            20.460215,
            44.814735
          ],
          [
            20.460215,
            44.814665
          ],
          [
            20.46024,
            44.814567
          ],
          [
            20.460278,
            44.814482
          ],
          [
            20.460309,
            44.814413
          ],
          [
            20.460453,
            44.814144
          ],
          [
            20.460513,
            44.814005
          ],
          [
            20.460646,
            44.813683
          ],
          [
            20.460633,
            44.813619
          ],
          [
            20.460624,
            44.813558
          ],
          [
            20.460593,
            44.813512
          ],
          [
            20.460521,
            44.813457
          ],
          [
            20.460295,
            44.813409
          ],
          [
            20.460149,
            44.813377
          ],
          [
            20.460119,
            44.813351
          ],
          [
            20.46011,
            44.813338
          ],
          [
            20.460106,
            44.813324
          ],
          [
            20.460108,
            44.813302
          ],
          [
            20.460128,
            44.813226
          ],
          [
            20.460154,
            44.813117
          ],
          [
            20.460274,
            44.812508
          ],
          [
            20.460409,
            44.811881
          ],
          [
            20.460421,
            44.811838
          ],
          [
            20.460448,
            44.81172
          ],
          [
            20.460455,
            44.811645
          ],
          [
            20.460449,
            44.811599
          ],
          [
            20.460434,
            44.81155
          ],
          [
            20.460346,
            44.811384
          ],
          [
            20.460289,
            44.811299
          ],
          [
            20.460227,
            44.811216
          ],
          [
            20.460224,
            44.811212
          ],
          [
            20.459925,
            44.810858
          ],
          [
            20.459783,
            44.81069
          ],
          [
            20.45973,
            44.810627
          ],
          [
            20.459663,
            44.810725
          ],
          [
            20.45909,
            44.811645
          ],
          [
            20.458789,
            44.812134
          ],
          [
            20.458769,
            44.812166
          ],
          [
            20.458693,
            44.812289
          ],
          [
            20.458635,
            44.812384
          ],
          [
            20.458731,
            44.812415
          ],
          [
            20.458958,
            44.812489
          ],
          [
            20.459265,
            44.81259
          ],
          [
            20.459151,
            44.812827
          ],
          [
            20.459098,
            44.812933
          ],
          [
            20.459098,
            44.812933
          ],
          [
            20.459151,
            44.812827
          ],
          [
            20.459265,
            44.81259
          ],
          [
            20.458958,
            44.812489
          ],
          [
            20.458731,
            44.812415
          ],
          [
            20.458635,
            44.812384
          ],
          [
            20.458573,
            44.812484
          ],
          [
            20.458396,
            44.812772
          ],
          [
            20.458201,
            44.813096
          ],
          [
            20.458187,
            44.813119
          ],
          [
            20.458163,
            44.81316
          ],
          [
            20.458109,
            44.813249
          ],
          [
            20.458053,
            44.813341
          ],
          [
            20.457902,
            44.813603
          ],
          [
            20.457845,
            44.813704
          ],
          [
            20.457801,
            44.813782
          ],
          [
            20.457759,
            44.813843
          ],
          [
            20.45774,
            44.813941
          ],
          [
            20.457736,
            44.813993
          ],
          [
            20.457741,
            44.814032
          ],
          [
            20.457749,
            44.814055
          ],
          [
            20.457768,
            44.81408
          ],
          [
            20.457806,
            44.814115
          ],
          [
            20.457875,
            44.814147
          ],
          [
            20.457946,
            44.814161
          ],
          [
            20.458044,
            44.814175
          ],
          [
            20.458096,
            44.814166
          ],
          [
            20.458191,
            44.814153
          ],
          [
            20.458268,
            44.814143
          ],
          [
            20.458373,
            44.814134
          ],
          [
            20.458433,
            44.81413
          ],
          [
            20.458507,
            44.814128
          ],
          [
            20.458685,
            44.814128
          ],
          [
            20.458852,
            44.814131
          ],
          [
            20.45929,
            44.814149
          ],
          [
            20.459708,
            44.814173
          ],
          [
            20.460177,
            44.814204
          ],
          [
            20.460401,
            44.814223
          ],
          [
            20.460617,
            44.814241
          ],
          [
            20.460857,
            44.814265
          ],
          [
            20.461107,
            44.814291
          ],
          [
            20.461561,
            44.814337
          ],
          [
            20.461913,
            44.814375
          ],
          [
            20.462247,
            44.814426
          ],
          [
            20.462414,
            44.814396
          ],
          [
            20.462479,
            44.814374
          ],
          [
            20.462534,
            44.814354
          ],
          [
            20.462593,
            44.814327
          ],
          [
            20.462615,
            44.814316
          ],
          [
            20.462653,
            44.814294
          ],
          [
            20.462706,
            44.814259
          ],
          [
            20.462733,
            44.814243
          ],
          [
            20.462767,
            44.814226
          ],
          [
            20.462853,
            44.814188
          ],
          [
            20.462975,
            44.81386
          ],
          [
            20.463182,
            44.813273
          ],
          [
            20.463371,
            44.81278
          ],
          [
            20.463422,
            44.812649
          ],
          [
            20.463458,
            44.812571
          ],
          [
            20.463489,
            44.812515
          ],
          [
            20.463505,
            44.812486
          ],
          [
            20.463527,
            44.812459
          ],
          [
            20.463557,
            44.812427
          ],
          [
            20.463593,
            44.812393
          ],
          [
            20.463609,
            44.812379
          ],
          [
            20.463664,
            44.812332
          ],
          [
            20.463677,
            44.812296
          ],
          [
            20.463701,
            44.812258
          ],
          [
            20.463717,
            44.812242
          ],
          [
            20.463724,
            44.812235
          ],
          [
            20.463914,
            44.812058
          ],
          [
            20.463992,
            44.811979
          ],
          [
            20.46404,
            44.811908
          ],
          [
            20.464049,
            44.811887
          ],
          [
            20.464034,
            44.811878
          ],
          [
            20.46402,
            44.811868
          ],
          [
            20.46401,
            44.811856
          ],
          [
            20.464002,
            44.811843
          ],
          [
            20.463996,
            44.811815
          ],
          [
            20.464004,
            44.811787
          ],
          [
            20.464024,
            44.811762
          ],
          [
            20.464055,
            44.811744
          ],
          [
            20.464092,
            44.811734
          ],
          [
            20.464132,
            44.811734
          ],
          [
            20.464308,
            44.811627
          ],
          [
            20.464503,
            44.811487
          ],
          [
            20.464557,
            44.811434
          ],
          [
            20.464603,
            44.811389
          ],
          [
            20.464631,
            44.81137
          ],
          [
            20.46492,
            44.81118
          ],
          [
            20.464976,
            44.811144
          ],
          [
            20.465622,
            44.810707
          ],
          [
            20.465815,
            44.810579
          ],
          [
            20.465867,
            44.810544
          ],
          [
            20.465965,
            44.81048
          ],
          [
            20.466049,
            44.810425
          ],
          [
            20.466113,
            44.810384
          ],
          [
            20.466305,
            44.810262
          ],
          [
            20.467282,
            44.80965
          ],
          [
            20.46746,
            44.809537
          ],
          [
            20.467678,
            44.809401
          ],
          [
            20.467697,
            44.809388
          ],
          [
            20.467742,
            44.80936
          ],
          [
            20.4678,
            44.809322
          ],
          [
            20.467848,
            44.809295
          ],
          [
            20.46902,
            44.808588
          ],
          [
            20.469382,
            44.808363
          ],
          [
            20.46952,
            44.808277
          ],
          [
            20.469435,
            44.808208
          ],
          [
            20.468301,
            44.80728
          ],
          [
            20.467843,
            44.806905
          ],
          [
            20.467827,
            44.806892
          ],
          [
            20.467853,
            44.806873
          ],
          [
            20.468618,
            44.806339
          ],
          [
            20.468822,
            44.806197
          ],
          [
            20.468858,
            44.806173
          ],
          [
            20.468928,
            44.806124
          ],
          [
            20.469262,
            44.80589
          ],
          [
            20.469642,
            44.805616
          ],
          [
            20.469692,
            44.805577
          ],
          [
            20.46971,
            44.805564
          ],
          [
            20.469728,
            44.805549
          ],
          [
            20.469749,
            44.805533
          ],
          [
            20.469803,
            44.805493
          ],
          [
            20.470336,
            44.805111
          ],
          [
            20.470443,
            44.805034
          ],
          [
            20.470496,
            44.805086
          ],
          [
            20.470525,
            44.805114
          ],
          [
            20.471307,
            44.805832
          ],
          [
            20.471349,
            44.80587
          ],
          [
            20.471846,
            44.806316
          ],
          [
            20.472213,
            44.806644
          ],
          [
            20.472279,
            44.806705
          ],
          [
            20.472335,
            44.806683
          ],
          [
            20.473275,
            44.806286
          ],
          [
            20.47341,
            44.806227
          ],
          [
            20.473432,
            44.806253
          ],
          [
            20.473461,
            44.806288
          ],
          [
            20.473493,
            44.806326
          ],
          [
            20.473355,
            44.806388
          ],
          [
            20.472799,
            44.806633
          ],
          [
            20.472122,
            44.806933
          ],
          [
            20.471786,
            44.807081
          ],
          [
            20.47169,
            44.807124
          ],
          [
            20.471659,
            44.80714
          ],
          [
            20.471621,
            44.807159
          ],
          [
            20.471585,
            44.807179
          ],
          [
            20.471507,
            44.807225
          ],
          [
            20.471373,
            44.807307
          ],
          [
            20.470824,
            44.807635
          ],
          [
            20.470714,
            44.807699
          ],
          [
            20.470065,
            44.80809
          ],
          [
            20.469616,
            44.808357
          ],
          [
            20.46948,
            44.808442
          ],
          [
            20.46894,
            44.80878
          ],
          [
            20.468801,
            44.808866
          ],
          [
            20.468689,
            44.80893
          ],
          [
            20.468589,
            44.808991
          ],
          [
            20.468506,
            44.809041
          ],
          [
            20.468393,
            44.809106
          ],
          [
            20.468065,
            44.809307
          ],
          [
            20.468028,
            44.80933
          ],
          [
            20.46799,
            44.809354
          ],
          [
            20.467799,
            44.80947
          ],
          [
            20.467739,
            44.809505
          ],
          [
            20.467556,
            44.809615
          ],
          [
            20.467047,
            44.809938
          ],
          [
            20.466782,
            44.810112
          ],
          [
            20.466463,
            44.810314
          ],
          [
            20.46622,
            44.81046
          ],
          [
            20.466162,
            44.810499
          ],
          [
            20.466066,
            44.810564
          ],
          [
            20.46598,
            44.810621
          ],
          [
            20.465938,
            44.81065
          ],
          [
            20.465781,
            44.810756
          ],
          [
            20.465728,
            44.810792
          ],
          [
            20.465253,
            44.811113
          ],
          [
            20.464723,
            44.811459
          ],
          [
            20.464535,
            44.811583
          ],
          [
            20.464411,
            44.811732
          ],
          [
            20.464353,
            44.811822
          ],
          [
            20.464323,
            44.811891
          ],
          [
            20.464285,
            44.811929
          ],
          [
            20.464239,
            44.811959
          ],
          [
            20.464106,
            44.812022
          ],
          [
            20.464022,
            44.81208
          ],
          [
            20.463943,
            44.812141
          ],
          [
            20.463848,
            44.812219
          ],
          [
            20.463789,
            44.812267
          ],
          [
            20.463784,
            44.812271
          ],
          [
            20.463758,
            44.812292
          ],
          [
            20.463707,
            44.812312
          ],
          [
            20.463664,
            44.812332
          ],
          [
            20.463609,
            44.812379
          ],
          [
            20.463593,
            44.812393
          ],
          [
            20.463557,
            44.812427
          ],
          [
            20.463527,
            44.812459
          ],
          [
            20.463505,
            44.812486
          ],
          [
            20.463489,
            44.812515
          ],
          [
            20.463458,
            44.812571
          ],
          [
            20.463422,
            44.812649
          ],
          [
            20.463371,
            44.81278
          ],
          [
            20.463182,
            44.813273
          ],
          [
            20.462975,
            44.81386
          ],
          [
            20.462853,
            44.814188
          ],
          [
            20.462795,
            44.814358
          ],
          [
            20.462744,
            44.814499
          ],
          [
            20.462528,
            44.814467
          ],
          [
            20.462247,
            44.814426
          ],
          [
            20.461913,
            44.814375
          ],
          [
            20.461561,
            44.814337
          ],
          [
            20.461107,
            44.814291
          ],
          [
            20.460857,
            44.814265
          ],
          [
            20.460617,
            44.814241
          ],
          [
            20.460401,
            44.814223
          ],
          [
            20.460177,
            44.814204
          ],
          [
            20.459708,
            44.814173
          ],
          [
            20.45929,
            44.814149
          ],
          [
            20.458852,
            44.814131
          ],
          [
            20.458685,
            44.814128
          ],
          [
            20.458507,
            44.814128
          ],
          [
            20.458433,
            44.81413
          ],
          [
            20.458373,
            44.814134
          ],
          [
            20.458268,
            44.814143
          ],
          [
            20.458191,
            44.814153
          ],
          [
            20.458096,
            44.814166
          ],
          [
            20.458044,
            44.814175
          ],
          [
            20.457399,
            44.814308
          ],
          [
            20.456948,
            44.814402
          ],
          [
            20.456907,
            44.814411
          ],
          [
            20.456451,
            44.814505
          ],
          [
            20.456247,
            44.814548
          ],
          [
            20.456151,
            44.814568
          ],
          [
            20.454009,
            44.814992
          ],
          [
            20.453813,
            44.815053
          ],
          [
            20.45366,
            44.815084
          ],
          [
            20.453584,
            44.815115
          ],
          [
            20.453522,
            44.815132
          ],
          [
            20.453438,
            44.815149
          ],
          [
            20.453295,
            44.81517
          ],
          [
            20.453245,
            44.815184
          ],
          [
            20.453195,
            44.815198
          ],
          [
            20.453151,
            44.815223
          ],
          [
            20.453115,
            44.815254
          ],
          [
            20.453091,
            44.815303
          ],
          [
            20.45309,
            44.815318
          ],
          [
            20.453089,
            44.815332
          ],
          [
            20.453031,
            44.816024
          ],
          [
            20.452996,
            44.816437
          ],
          [
            20.452978,
            44.81665
          ],
          [
            20.452959,
            44.816831
          ],
          [
            20.452952,
            44.81691
          ],
          [
            20.452948,
            44.816967
          ],
          [
            20.452941,
            44.817013
          ],
          [
            20.452929,
            44.817032
          ],
          [
            20.452911,
            44.81705
          ],
          [
            20.452896,
            44.817063
          ],
          [
            20.45279,
            44.817132
          ],
          [
            20.452475,
            44.817358
          ],
          [
            20.452231,
            44.817538
          ],
          [
            20.452141,
            44.817606
          ],
          [
            20.451846,
            44.817841
          ],
          [
            20.451707,
            44.817944
          ],
          [
            20.451639,
            44.818007
          ],
          [
            20.451591,
            44.818058
          ],
          [
            20.451534,
            44.818121
          ],
          [
            20.45149,
            44.818175
          ],
          [
            20.451436,
            44.818247
          ],
          [
            20.451321,
            44.818408
          ],
          [
            20.451214,
            44.818567
          ],
          [
            20.451302,
            44.818629
          ],
          [
            20.45134,
            44.818657
          ],
          [
            20.45168,
            44.818889
          ],
          [
            20.451921,
            44.819055
          ],
          [
            20.45215,
            44.819228
          ],
          [
            20.452241,
            44.819171
          ],
          [
            20.452642,
            44.818893
          ],
          [
            20.452494,
            44.818996
          ],
          [
            20.452241,
            44.819171
          ],
          [
            20.45215,
            44.819228
          ],
          [
            20.451921,
            44.819055
          ],
          [
            20.45168,
            44.818889
          ],
          [
            20.45134,
            44.818657
          ],
          [
            20.451302,
            44.818629
          ],
          [
            20.451214,
            44.818567
          ],
          [
            20.451321,
            44.818408
          ],
          [
            20.451436,
            44.818247
          ],
          [
            20.45149,
            44.818175
          ],
          [
            20.451534,
            44.818121
          ],
          [
            20.451591,
            44.818058
          ],
          [
            20.451639,
            44.818007
          ],
          [
            20.451707,
            44.817944
          ],
          [
            20.451846,
            44.817841
          ],
          [
            20.452141,
            44.817606
          ],
          [
            20.452231,
            44.817538
          ],
          [
            20.452475,
            44.817358
          ],
          [
            20.45279,
            44.817132
          ],
          [
            20.452896,
            44.817063
          ],
          [
            20.452911,
            44.81705
          ],
          [
            20.452929,
            44.817032
          ],
          [
            20.452941,
            44.817013
          ],
          [
            20.452948,
            44.816967
          ],
          [
            20.452952,
            44.81691
          ],
          [
            20.452959,
            44.816831
          ],
          [
            20.452978,
            44.81665
          ],
          [
            20.452996,
            44.816437
          ],
          [
            20.453068,
            44.816419
          ],
          [
            20.453961,
            44.816222
          ],
          [
            20.454091,
            44.816194
          ],
          [
            20.454177,
            44.816175
          ],
          [
            20.454358,
            44.816124
          ],
          [
            20.454783,
            44.816005
          ],
          [
            20.454857,
            44.815984
          ],
          [
            20.455721,
            44.815741
          ],
          [
            20.455809,
            44.81572
          ],
          [
            20.455913,
            44.815695
          ],
          [
            20.456388,
            44.814641
          ],
          [
            20.456451,
            44.814505
          ],
          [
            20.456907,
            44.814411
          ],
          [
            20.456948,
            44.814402
          ],
          [
            20.457399,
            44.814308
          ],
          [
            20.457425,
            44.814293
          ],
          [
            20.45745,
            44.814276
          ],
          [
            20.457476,
            44.814253
          ],
          [
            20.457534,
            44.814191
          ],
          [
            20.457759,
            44.813843
          ],
          [
            20.457801,
            44.813782
          ],
          [
            20.457845,
            44.813704
          ],
          [
            20.457902,
            44.813603
          ],
          [
            20.458053,
            44.813341
          ],
          [
            20.458109,
            44.813249
          ],
          [
            20.458163,
            44.81316
          ],
          [
            20.458187,
            44.813119
          ],
          [
            20.458201,
            44.813096
          ],
          [
            20.458089,
            44.813057
          ],
          [
            20.457558,
            44.812874
          ],
          [
            20.457334,
            44.812797
          ],
          [
            20.457144,
            44.812731
          ],
          [
            20.457093,
            44.812872
          ],
          [
            20.457034,
            44.813038
          ],
          [
            20.456934,
            44.81335
          ],
          [
            20.456796,
            44.813781
          ],
          [
            20.456788,
            44.813811
          ],
          [
            20.456788,
            44.813811
          ],
          [
            20.456796,
            44.813781
          ],
          [
            20.456934,
            44.81335
          ],
          [
            20.457034,
            44.813038
          ],
          [
            20.457093,
            44.812872
          ],
          [
            20.457144,
            44.812731
          ],
          [
            20.457334,
            44.812797
          ],
          [
            20.457558,
            44.812874
          ],
          [
            20.458089,
            44.813057
          ],
          [
            20.458201,
            44.813096
          ],
          [
            20.458187,
            44.813119
          ],
          [
            20.458163,
            44.81316
          ],
          [
            20.458109,
            44.813249
          ],
          [
            20.458053,
            44.813341
          ],
          [
            20.457902,
            44.813603
          ],
          [
            20.457845,
            44.813704
          ],
          [
            20.457801,
            44.813782
          ],
          [
            20.457759,
            44.813843
          ],
          [
            20.45774,
            44.813941
          ],
          [
            20.457736,
            44.813993
          ],
          [
            20.457741,
            44.814032
          ],
          [
            20.457749,
            44.814055
          ],
          [
            20.457768,
            44.81408
          ],
          [
            20.457806,
            44.814115
          ],
          [
            20.457875,
            44.814147
          ],
          [
            20.457946,
            44.814161
          ],
          [
            20.458044,
            44.814175
          ],
          [
            20.458096,
            44.814166
          ],
          [
            20.458162,
            44.814137
          ],
          [
            20.458363,
            44.814049
          ],
          [
            20.458545,
            44.813979
          ],
          [
            20.458812,
            44.813875
          ],
          [
            20.458859,
            44.813856
          ],
          [
            20.458867,
            44.813853
          ],
          [
            20.459155,
            44.813751
          ],
          [
            20.459771,
            44.813532
          ],
          [
            20.460149,
            44.813377
          ],
          [
            20.460119,
            44.813351
          ],
          [
            20.46011,
            44.813338
          ],
          [
            20.460106,
            44.813324
          ],
          [
            20.460108,
            44.813302
          ],
          [
            20.460128,
            44.813226
          ],
          [
            20.460154,
            44.813117
          ],
          [
            20.460274,
            44.812508
          ],
          [
            20.460386,
            44.811988
          ]
        ]
      }
    }
  ]
}