{
  "type": "FeatureCollection",
  "features": [
    {
      "type": "Feature",
      "properties": {
        "id": "riverside-splavovi",
        "kind": "osrm-walk"
      },
      "geometry": {
        "type": "LineString",
        "coordinates": [
          [
            20.443672,
            44.80994
          ],
          [
            20.443959,
            44.810352
          ],
          [
            20.443531,
            44.810501
          ],
          [
            20.443327,
            44.810564
          ],
          [
            20.443269,
            44.810583
          ],
          [
            20.442294,
            44.810917
          ],
          [
            20.441613,
            44.811129
          ],
          [
            20.44156,
            44.811149
          ],
          [
            20.44151,
            44.811168
          ],
          [
            20.441481,
            44.81118
          ],
          [
            20.441458,
            44.811198
          ],
          [
            20.441439,
            44.811217
          ],
          [
            20.441427,
            44.81124
          ],
          [
            20.441416,
            44.811268
          ],
          [
            20.441419,
            44.811303
          ],
          [
            20.441429,
            44.811333
          ],
          [
            20.441459,
            44.811401
          ],
          [
            20.441495,
            44.811488
          ],
          [
            20.441507,
            44.81153
          ],
          [
            20.44151,
            44.811541
          ],
          [
            20.441528,
            44.811599
          ],
          [
            20.441543,
            44.811677
          ],
          [
            20.441563,
            44.811853
          ],
          [
            20.441583,
            44.811996
          ],
          [
            20.441592,
            44.812129
          ],
          [
            20.441587,
            44.812201
          ],
          [
            20.441571,
            44.812307
          ],
          [
            20.44156,
            44.81241
          ],
          [
            20.441557,
            44.812618
          ],
          [
            20.441575,
            44.812829
          ],
          [
            20.441606,
            44.813119
          ],
          [
            20.441607,
            44.81313
          ],
          [
            20.441606,
            44.813157
          ],
          [
            20.4416,
            44.813182
          ],
          [
            20.441593,
            44.813211
          ],
          [
            20.441589,
            44.813229
          ],
          [
            20.44158,
            44.813251
          ],
          [
            20.44157,
            44.813272
          ],
          [
            20.441538,
            44.813314
          ],
          [
            20.441518,
            44.813336
          ],
          [
            20.44148,
            44.813378
          ],
          [
            20.44145,
            44.813408
          ],
          [
            20.441373,
            44.813484
          ],
          [
            20.441261,
            44.813601
          ],
          [
            20.441088,
            44.813762
          ],
          [
            20.44099,
            44.813842
          ],
          [
            20.44092,
            44.813894
          ],
          [
            20.440808,
            44.813972
          ],
          [
            20.440558,
            44.814192
          ],
          [
            20.440526,
            44.814219
          ],
          [
            20.440501,
            44.814241
          ],
          [
            20.440489,
            44.814266
          ],
          [
            20.440483,
            44.814289
          ],
          [
            20.440481,
            44.814307
          ],
          [
            20.440484,
            44.814327
          ],
          [
            20.440492,
            44.814345
          ],
          [
            20.440502,
            44.81436
          ],
          [
            20.440516,
            44.814374
          ],
          [
            20.440547,
            44.814392
          ],
          [
            20.440605,
            44.814422
          ],
          [
            20.440812,
            44.814442
          ],
          [
            20.44119,
            44.814478
          ],
          [
            20.441408,
            44.814489
          ],
          [
            20.442984,
            44.81457
          ],
          [
            20.445379,
            44.814698
          ],
          [
            20.448014,
            44.814826
          ],
          [
            20.448807,
            44.814864
          ],
          [
            20.45028,
            44.814935
          ],
          [
            20.450856,
            44.814963
          ],
          [
            20.451273,
            44.814983
          ],
          [
            20.451465,
            44.814988
          ],
          [
            20.45158,
            44.814961
          ],
          [
            20.451798,
            44.814894
          ],
          [
            20.451843,
            44.81488
          ],
          [
            20.451936,
            44.814856
          ],
          [
            20.452031,
            44.814834
          ],
          [
            20.452141,
            44.814812
          ],
          [
            20.452257,
            44.814794
          ],
          [
            20.45239,
            44.814779
          ],
          [
            20.45253,
            44.814765
          ],
          [
            20.45273,
            44.814752
          ],
          [
            20.452879,
            44.81473
          ],
          [
            20.452921,
            44.814719
          ],
          [
            20.452968,
            44.814703
          ],
          [
            20.453014,
            44.814685
          ],
          [
            20.453052,
            44.814663
          ],
          [
            20.453098,
            44.814624
          ],
          [
            20.453152,
            44.814574
          ],
          [
            20.453186,
            44.814476
          ],
          [
            20.453183,
            44.814442
          ],
          [
            20.453178,
            44.814422
          ],
          [
            20.45317,
            44.814401
          ],
          [
            20.453147,
            44.814387
          ],
          [
            20.453131,
            44.814369
          ],
          [
            20.453128,
            44.814357
          ],
          [
            20.453106,
            44.814338
          ],
          [
            20.453089,
            44.814328
          ],
          [
            20.453071,
            44.81432
          ],
          [
            20.453025,
            44.814302
          ],
          [
            20.452971,
            44.814302
          ],
          [
            20.452776,
            44.814299
          ],
          [
            20.452721,
            44.814306
          ],
          [
            20.452671,
            44.814315
          ],
          [
            20.452575,
            44.814337
          ],
          [
            20.452498,
            44.814359
          ],
          [
            20.45234,
            44.81441
          ],
          [
            20.452078,
            44.814494
          ],
          [
            20.451428,
            44.814692
          ],
          [
            20.451413,
            44.814697
          ],
          [
            20.451286,
            44.814731
          ],
          [
            20.45114,
            44.814776
          ],
          [
            20.451084,
            44.814795
          ],
          [
            20.451051,
            44.814809
          ],
          [
            20.451006,
            44.814828
          ],
          [
            20.450958,
            44.814852
          ],
          [
            20.450929,
            44.81487
          ],
          [
            20.450904,
            44.814891
          ],
          [
            20.450688,
            44.815248
          ],
          [
            20.450681,
            44.815259
          ],
          [
            20.450642,
            44.815314
          ],
          [
            20.450505,
            44.815431
          ],
          [
            20.450432,
            44.815495
          ],
          [
            20.450399,
            44.81553
          ],
          [
            20.450366,
            44.815575
          ],
          [
            20.450344,
            44.815615
          ],
          [
            20.450189,
            44.815938
          ],
          [
            20.450169,
            44.81598
          ],
          [
            20.45017,
            44.815992
          ],
          [
            20.450165,
            44.816052
          ],
          [
            20.450158,
            44.816097
          ],
          [
            20.450122,
            44.816233
          ],
          [
            20.450085,
            44.816333
          ],
          [
            20.449954,
            44.816686
          ],
          [
            20.449913,
            44.816814
          ],
          [
            20.449889,
            44.816906
          ],
          [
            20.449865,
            44.817004
          ],
          [
            20.449861,
            44.817024
          ],
          [
            20.449854,
            44.817063
          ],
          [
            20.449838,
            44.817148
          ],
          [
            20.449792,
            44.817426
          ],
          [
            20.449749,
            44.817685
          ],
          [
            20.449734,
            44.817772
          ],
          [
            20.449671,
            44.818228
          ],
          [
            20.449659,
            44.81832
          ],
          [
            20.449657,
            44.818337
          ],
          [
            20.449652,
            44.818392
          ],
          [
            20.449642,
            44.818488
          ],
          [
            20.449623,
            44.818607
          ],
          [
            20.449623,
            44.818668
          ],
          [
            20.449641,
            44.818765
          ],
          [
            20.44968,
            44.819039
          ],
          [
            20.449774,
            44.819633
          ],
          [
            20.449783,
            44.819705
          ],
          [
            20.449783,
            44.819745
          ],
          [
            20.449781,
            44.819776
          ],
          [
            20.449853,
            44.819774
          ],
          [
            20.449911,
            44.819768
          ],
          [
            20.449961,
            44.819753
          ],
          [
            20.45004,
            44.819706
          ],
          [
            20.450139,
            44.819647
          ],
          [
            20.450262,
            44.819581
          ],
          [
            20.450312,
            44.819549
          ],
          [
            20.450363,
            44.819513
          ],
          [
            20.45042,
            44.819469
          ],
          [
            20.450473,
            44.819421
          ],
          [
            20.450688,
            44.819185
          ],
          [
            20.451003,
            44.818825
          ],
          [
            20.451137,
            44.81867
          ],
          [
            20.451156,
            44.818644
          ],
          [
            20.451214,
            44.818567
          ],
          [
            20.451321,
            44.818408
          ],
          [
            20.451436,
            44.818247
          ],
          [
            20.45149,
            44.818175
          ],
          [
            20.451534,
            44.818121
          ],
          [
            20.451591,
            44.818058
          ],
          [
            20.451639,
            44.818007
          ],
          [
            20.451707,
            44.817944
          ],
          [
            20.451846,
            44.817841
          ],
          [
            20.452141,
            44.817606
          ],
          [
            20.452231,
            44.817538
          ],
          [
            20.452475,
            44.817358
          ],
          [
            20.45279,
            44.817132
          ],
          [
            20.452896,
            44.817063
          ],
          [
            20.452911,
            44.81705
          ],
          [
            20.452929,
            44.817032
          ],
          [
            20.452941,
            44.817013
          ],
          [
            20.452948,
            44.816967
          ],
          [
            20.452952,
            44.81691
          ],
          [
            20.452959,
            44.816831
          ],
          [
            20.452978,
            44.81665
          ],
          [
            20.452996,
            44.816437
          ],
          [
            20.453031,
            44.816024
          ],
          [
            20.452944,
            44.815996
          ],
          [
            20.452818,
            44.815955
          ],
          [
            20.452432,
            44.81583
          ],
          [
            20.452407,
            44.815822
          ],
          [
            20.451779,
            44.815619
          ],
          [
            20.451683,
            44.815588
          ],
          [
            20.451499,
            44.815528
          ],
          [
            20.451389,
            44.815492
          ],
          [
            20.451334,
            44.815475
          ],
          [
            20.451389,
            44.815492
          ],
          [
            20.451499,
            44.815528
          ],
          [
            20.451683,
            44.815588
          ],
          [
            20.451779,
            44.815619
          ],
          [
            20.451899,
            44.815658
          ],
          [
            20.452407,
            44.815822
          ],
          [
            20.452432,
            44.81583
          ],
          [
            20.452818,
            44.815955
          ],
          [
            20.452944,
            44.815996
          ],
          [
            20.453031,
            44.816024
          ],
          [
            20.452996,
            44.816437
          ],
          [
            20.452978,
            44.81665
          ],
          [
            20.452959,
            44.816831
          ],
          [
            20.452952,
            44.81691
          ],
          [
            20.452948,
            44.816967
          ],
          [
            20.452941,
            44.817013
          ],
          [
            20.452929,
            44.817032
          ],
          [
            20.452911,
            44.81705
          ],
          [
            20.452896,
            44.817063
          ],
          [
            20.45279,
            44.817132
          ],
          [
            20.452475,
            44.817358
          ],
          [
            20.452231,
            44.817538
          ],
          [
            20.452141,
            44.817606
          ],
          [
            20.451846,
            44.817841
          ],
          [
            20.451707,
            44.817944
          ],
          [
            20.451639,
            44.818007
          ],
          [
            20.451591,
            44.818058
          ],
          [
            20.451534,
            44.818121
          ],
          [
            20.45149,
            44.818175
          ],
          [
            20.451436,
            44.818247
          ],
          [
            20.451321,
            44.818408
          ],
          [
            20.451214,
            44.818567
          ],
          [
            20.451156,
            44.818644
          ],
          [
            20.451137,
            44.81867
          ],
          [
            20.451003,
            44.818825
          ],
          [
            20.450688,
            44.819185
          ],
          [
            20.450473,
            44.819421
          ],
          [
            20.45042,
            44.819469
          ],
          [
            20.450363,
            44.819513
          ],
          [
            20.450312,
            44.819549
          ],
          [
            20.450262,
            44.819581
          ],
          [
            20.450139,
            44.819647
          ],
          [
            20.45004,
            44.819706
          ],
          [
            20.449961,
            44.819753
          ],
          [
            20.449911,
            44.819768
          ],
          [
            20.449853,
            44.819774
          ],
          [
            20.449781,
            44.819776
          ],
          [
            20.449783,
            44.819745
          ],
          [
            20.449783,
            44.819705
          ],
          [
            20.449774,
            44.819633
          ],
          [
            20.44968,
            44.819039
          ],
          [
            20.449641,
            44.818765
          ],
          [
            20.449623,
            44.818668
          ],
          [
            20.449581,
            44.818562
          ],
          [
            20.449557,
            44.818498
          ],
          [
            20.449546,
            44.818467
          ],
          [
            20.449539,
            44.81843
          ],
          [
            20.449536,
            44.818362
          ],
          [
            20.449537,
            44.81833
          ],
          [
            20.449553,
            44.818233
          ],
          [
            20.449583,
            44.818066
          ],
          [
            20.449638,
            44.817692
          ],
          [
            20.449683,
            44.817374
          ],
          [
            20.449725,
            44.817093
          ],
          [
            20.449733,
            44.817041
          ],
          [
            20.449739,
            44.817014
          ],
          [
            20.449752,
            44.816936
          ],
          [
            20.449766,
            44.816881
          ],
          [
            20.449794,
            44.816769
          ],
          [
            20.449859,
            44.816572
          ],
          [
            20.449957,
            44.816328
          ],
          [
            20.450042,
            44.816134
          ],
          [
            20.450075,
            44.816045
          ],
          [
            20.450095,
            44.815978
          ],
          [
            20.450137,
            44.81583
          ],
          [
            20.450188,
            44.815215
          ],
          [
            20.450206,
            44.815039
          ],
          [
            20.450217,
            44.81491
          ],
          [
            20.450224,
            44.814879
          ],
          [
            20.450249,
            44.814839
          ],
          [
            20.450276,
            44.814812
          ],
          [
            20.450306,
            44.814786
          ],
          [
            20.450337,
            44.814765
          ],
          [
            20.450369,
            44.814747
          ],
          [
            20.450397,
            44.814738
          ],
          [
            20.450433,
            44.814729
          ],
          [
            20.450504,
            44.81472
          ],
          [
            20.450567,
            44.814715
          ],
          [
            20.450643,
            44.814715
          ],
          [
            20.450712,
            44.814716
          ],
          [
            20.450843,
            44.814723
          ],
          [
            20.450867,
            44.814725
          ],
          [
            20.450976,
            44.814731
          ],
          [
            20.451003,
            44.814732
          ],
          [
            20.451029,
            44.814734
          ],
          [
            20.451063,
            44.814736
          ],
          [
            20.451128,
            44.814738
          ],
          [
            20.451177,
            44.814739
          ],
          [
            20.45123,
            44.814737
          ],
          [
            20.451286,
            44.814731
          ],
          [
            20.451413,
            44.814697
          ],
          [
            20.451428,
            44.814692
          ],
          [
            20.452078,
            44.814494
          ],
          [
            20.45234,
            44.81441
          ],
          [
            20.452498,
            44.814359
          ],
          [
            20.452575,
            44.814337
          ],
          [
            20.452671,
            44.814315
          ],
          [
            20.452721,
            44.814306
          ],
          [
            20.452776,
            44.814299
          ],
          [
            20.452971,
            44.814302
          ],
          [
            20.453025,
            44.814302
          ],
          [
            20.453095,
            44.814302
          ],
          [
            20.453166,
            44.814297
          ],
          [
            20.453192,
            44.81429
          ],
          [
            20.453221,
            44.814289
          ],
          [
            20.453248,
            44.814294
          ],
          [
            20.45338,
            44.814284
          ],
          [
            20.453516,
            44.814181
          ],
          [
            20.453665,
            44.814073
          ],
          [
            20.45398,
            44.813851
          ],
          [
            20.454062,
            44.813797
          ],
          [
            20.454172,
            44.813717
          ],
          [
            20.454297,
            44.813621
          ],
          [
            20.45444,
            44.813494
          ],
          [
            20.454542,
            44.813404
          ],
          [
            20.454646,
            44.813309
          ],
          [
            20.45494,
            44.813011
          ],
          [
            20.454893,
            44.812985
          ],
          [
            20.454391,
            44.812715
          ],
          [
            20.453997,
            44.812503
          ],
          [
            20.453569,
            44.812272
          ],
          [
            20.453537,
            44.812255
          ],
          [
            20.453086,
            44.812695
          ],
          [
            20.45286,
            44.812915
          ],
          [
            20.452582,
            44.813186
          ],
          [
            20.452515,
            44.81326
          ],
          [
            20.452487,
            44.813293
          ],
          [
            20.45246,
            44.813331
          ],
          [
            20.452463,
            44.813368
          ],
          [
            20.45245,
            44.813405
          ],
          [
            20.452423,
            44.813437
          ],
          [
            20.452383,
            44.813461
          ],
          [
            20.452347,
            44.813474
          ],
          [
            20.452308,
            44.813481
          ],
          [
            20.452239,
            44.813503
          ],
          [
            20.452171,
            44.813531
          ],
          [
            20.452071,
            44.813583
          ],
          [
            20.451989,
            44.813628
          ],
          [
            20.451912,
            44.813673
          ],
          [
            20.451668,
            44.813823
          ],
          [
            20.451591,
            44.813878
          ],
          [
            20.451542,
            44.813941
          ],
          [
            20.45139,
            44.814193
          ],
          [
            20.451171,
            44.814558
          ],
          [
            20.451152,
            44.814588
          ],
          [
            20.451063,
            44.814736
          ],
          [
            20.451029,
            44.814734
          ],
          [
            20.451003,
            44.814732
          ],
          [
            20.450976,
            44.814731
          ],
          [
            20.450867,
            44.814725
          ],
          [
            20.450843,
            44.814723
          ],
          [
            20.450712,
            44.814716
          ],
          [
            20.450643,
            44.814715
          ],
          [
            20.450567,
            44.814715
          ],
          [
            20.450504,
            44.81472
          ],
          [
            20.450433,
            44.814729
          ],
          [
            20.450397,
            44.814738
          ],
          [
            20.450369,
            44.814747
          ],
          [
            20.450337,
            44.814765
          ],
          [
            20.450306,
            44.814786
          ],
          [
            20.450276,
            44.814812
          ],
          [
            20.450249,
            44.814839
          ],
          [
            20.450224,
            44.814879
          ],
          [
            20.450217,
            44.81491
          ],
          [
            20.450206,
            44.815039
          ],
          [
            20.450188,
            44.815215
          ],
          [
            20.450137,
            44.81583
          ],
          [
            20.450151,
            44.81589
          ],
          [
            20.450164,
            44.815934
          ],
          [
            20.450169,
            44.81598
          ],
          [
            20.45017,
            44.815992
          ],
          [
            20.450165,
            44.816052
          ],
          [
            20.450158,
            44.816097
          ],
          [
            20.450122,
            44.816233
          ],
          [
            20.450085,
            44.816333
          ],
          [
            20.449954,
            44.816686
          ],
          [
            20.449913,
            44.816814
          ],
          [
            20.449889,
            44.816906
          ],
          [
            20.449865,
            44.817004
          ],
          [
            20.449861,
            44.817024
          ],
          [
            20.449854,
            44.817063
          ],
          [
            20.449838,
            44.817148
          ],
          [
            20.449792,
            44.817426
          ],
          [
            20.449749,
            44.817685
          ],
          [
            20.449734,
            44.817772
          ],
          [
            20.449671,
            44.818228
          ],
          [
            20.449659,
            44.81832
          ],
          [
            20.449657,
            44.818337
          ],
          [
            20.449652,
            44.818392
          ],
          [
            20.449642,
            44.818488
          ],
          [
            20.449623,
            44.818607
          ],
          [
            20.449623,
            44.818668
          ],
          [
            20.449641,
            44.818765
          ],
          [
            20.44968,
            44.819039
          ],
          [
            20.449774,
            44.819633
          ],
          [
            20.449783,
            44.819705
          ],
          [
            20.449783,
            44.819745
          ],
          [
            20.449781,
            44.819776
          ],
          [
            20.449853,
            44.819774
          ],
          [
            20.449911,
            44.819768
          ],
          [
            20.449961,
            44.819753
          ],
          [
            20.45004,
            44.819706
          ],
          [
            20.450139,
            44.819647
          ],
          [
            20.450262,
            44.819581
          ],
          [
            20.450312,
            44.819549
          ],
          [
            20.450363,
            44.819513
          ],
          [
            20.45042,
            44.819469
          ],
          [
            20.450473,
            44.819421
          ],
          [
            20.450688,
            44.819185
          ],
          [
            20.451003,
            44.818825
          ],
          [
            20.451137,
            44.81867
          ],
          [
            20.451156,
            44.818644
          ],
          [
            20.451214,
            44.818567
          ],
          [
            20.451302,
            44.818629
          ],
          [
            20.45134,
            44.818657
          ],
          [
            20.45168,
            44.818889
          ],
          [
            20.451921,
            44.819055
          ],
          [
            20.45215,
            44.819228
          ],
          [
            20.452363,
            44.819401
          ],
          [
            20.452389,
            44.81939
          ],
          [
            20.452424,
            44.819379
          ],
          [
            20.45247,
            44.819376
          ],
          [
            20.453426,
            44.819859
          ],
          [
            20.45247,
            44.819376
          ],
          [
            20.452424,
            44.819379
          ],
          [
            20.452389,
            44.81939
          ],
          [
            20.452363,
            44.819401
          ],
          [
            20.45215,
            44.819228
          ],
          [
            20.451921,
            44.819055
          ],
          [
            20.45168,
            44.818889
          ],
          [
            20.451551,
            44.818838
          ],
          [
            20.451461,
            44.818802
          ],
          [
            20.451383,
            44.818777
          ],
          [
            20.451329,
            44.818765
          ],
          [
            20.451269,
            44.818762
          ],
          [
            20.451231,
            44.818764
          ],
          [
            20.451157,
            44.818768
          ],
          [
            20.451101,
            44.818777
          ],
          [
            20.451003,
            44.818825
          ],
          [
            20.450688,
            44.819185
          ],
          [
            20.450473,
            44.819421
          ],
          [
            20.45042,
            44.819469
          ],
          [
            20.450363,
            44.819513
          ],
          [
            20.450312,
            44.819549
          ],
          [
            20.450262,
            44.819581
          ],
          [
            20.450139,
            44.819647
          ],
          [
            20.45004,
            44.819706
          ],
          [
            20.449961,
            44.819753
          ],
          [
            20.449911,
            44.819768
          ],
          [
            20.449853,
            44.819774
          ],
          [
            20.449781,
            44.819776
          ],
          [
            20.449783,
            44.819745
          ],
          [
            20.449783,
            44.819705
          ],
          [
            20.449774,
            44.819633
          ],
          [
            20.44968,
            44.819039
          ],
          [
            20.449641,
            44.818765
          ],
          [
            20.449623,
            44.818668
          ],
          [
            20.449581,
            44.818562
          ],
          [
            20.449557,
            44.818498
          ],
          [
            20.449546,
            44.818467
          ],
          [
            20.449539,
            44.81843
          ],
          [
            20.449536,
            44.818362
          ],
          [
            20.449537,
            44.81833
          ],
          [
            20.449553,
            44.818233
          ],
          [
            20.449583,
            44.818066
          ],
          [
            20.449638,
            44.817692
          ],
          [
            20.449664,
            44.817512
          ],
          [
            20.449683,
            44.817374
          ],
          [
            20.449725,
            44.817093
          ],
          [
            20.449733,
            44.817041
          ],
          [
            20.449739,
            44.817014
          ],
          [
            20.449752,
            44.816936
          ],
          [
            20.449766,
            44.816881
          ],
          [
            20.449794,
            44.816769
          ],
          [
            20.449859,
            44.816572
          ],
          [
            20.449957,
            44.816328
          ],
          [
            20.450042,
            44.816134
          ],
          [
            20.450075,
            44.816045
          ],
          [
            20.450095,
            44.815978
          ],
          [
            20.450137,
            44.81583
          ],
          [
            20.450188,
            44.815215
          ],
          [
            20.450206,
            44.815039
          ],
          [
            20.450217,
            44.81491
          ],
          [
            20.450224,
            44.814879
          ],
          [
            20.450249,
            44.814839
          ],
          [
            20.450276,
            44.814812
          ],
          [
            20.450306,
            44.814786
          ],
          [
            20.450337,
            44.814765
          ],
          [
            20.450369,
            44.814747
          ],
          [
            20.450397,
            44.814738
          ],
          [
            20.450433,
            44.814729
          ],
          [
            20.450504,
            44.81472
          ],
          [
            20.450567,
            44.814715
          ],
          [
            20.450643,
            44.814715
          ],
          [
            20.450712,
            44.814716
          ],
          [
            20.450843,
            44.814723
          ],
          [
            20.450867,
            44.814725
          ],
          [
            20.450976,
            44.814731
          ],
          [
            20.451003,
            44.814732
          ],
          [
            20.451029,
            44.814734
          ],
          [
            20.451063,
            44.814736
          ],
          [
            20.451128,
            44.814738
          ],
          [
            20.451177,
            44.814739
          ],
          [
            20.45123,
            44.814737
          ],
          [
            20.451286,
            44.814731
          ],
          [
            20.451413,
            44.814697
          ],
          [
            20.451428,
            44.814692
          ],
          [
            20.452078,
            44.814494
          ],
          [
            20.45234,
            44.81441
          ],
          [
            20.452498,
            44.814359
          ],
          [
            20.452575,
            44.814337
          ],
          [
            20.452671,
            44.814315
          ],
          [
            20.452721,
            44.814306
          ],
          [
            20.452776,
            44.814299
          ],
          [
            20.452971,
            44.814302
          ],
          [
            20.453025,
            44.814302
          ],
          [
            20.453095,
            44.814302
          ],
          [
            20.453166,
            44.814297
          ],
          [
            20.453192,
            44.81429
          ],
          [
            20.453221,
            44.814289
          ],
          [
            20.453248,
            44.814294
          ],
          [
            20.453271,
            44.814306
          ],
          [
            20.453287,
            44.814322
          ],
          [
            20.453294,
            44.814342
          ],
          [
            20.453293,
            44.814361
          ],
          [
            20.453282,
            44.81438
          ],
          [
            20.453264,
            44.814394
          ],
          [
            20.453239,
            44.814404
          ],
          [
            20.45322,
            44.814424
          ],
          [
            20.453186,
            44.814476
          ],
          [
            20.453152,
            44.814574
          ],
          [
            20.453134,
            44.814659
          ],
          [
            20.45311,
            44.814732
          ],
          [
            20.453096,
            44.814767
          ],
          [
            20.453091,
            44.814781
          ],
          [
            20.453038,
            44.81488
          ],
          [
            20.452981,
            44.814954
          ],
          [
            20.452906,
            44.815047
          ],
          [
            20.452753,
            44.815196
          ],
          [
            20.45269,
            44.815241
          ],
          [
            20.45265,
            44.815269
          ],
          [
            20.452592,
            44.815294
          ],
          [
            20.452524,
            44.815317
          ],
          [
            20.452453,
            44.815335
          ],
          [
            20.452389,
            44.815343
          ],
          [
            20.452321,
            44.815344
          ],
          [
            20.452238,
            44.815335
          ],
          [
            20.452175,
            44.815321
          ],
          [
            20.452166,
            44.815319
          ],
          [
            20.452106,
            44.8153
          ],
          [
            20.452064,
            44.815282
          ],
          [
            20.452036,
            44.815271
          ],
          [
            20.451997,
            44.815254
          ],
          [
            20.451736,
            44.81509
          ],
          [
            20.451433,
            44.815079
          ],
          [
            20.451275,
            44.815074
          ],
          [
            20.450651,
            44.815047
          ],
          [
            20.450397,
            44.815034
          ],
          [
            20.442975,
            44.814666
          ],
          [
            20.440972,
            44.814567
          ],
          [
            20.440758,
            44.814556
          ],
          [
            20.439977,
            44.814517
          ],
          [
            20.439823,
            44.814508
          ],
          [
            20.439692,
            44.814503
          ],
          [
            20.439535,
            44.814504
          ],
          [
            20.439497,
            44.814546
          ],
          [
            20.439449,
            44.814582
          ],
          [
            20.439391,
            44.814611
          ],
          [
            20.439326,
            44.814631
          ],
          [
            20.439263,
            44.814641
          ],
          [
            20.439199,
            44.814643
          ],
          [
            20.439136,
            44.814637
          ],
          [
            20.439075,
            44.814622
          ],
          [
            20.439019,
            44.814601
          ],
          [
            20.438969,
            44.814572
          ],
          [
            20.438927,
            44.814538
          ],
          [
            20.438895,
            44.8145
          ],
          [
            20.438873,
            44.814458
          ],
          [
            20.438771,
            44.814434
          ],
          [
            20.438643,
            44.814416
          ],
          [
            20.43851,
            44.814407
          ],
          [
            20.438437,
            44.814405
          ],
          [
            20.438316,
            44.814401
          ],
          [
            20.438198,
            44.814398
          ],
          [
            20.438048,
            44.814397
          ],
          [
            20.437745,
            44.814401
          ],
          [
            20.437229,
            44.814426
          ],
          [
            20.436735,
            44.814461
          ],
          [
            20.436583,
            44.814476
          ],
          [
            20.436437,
            44.814496
          ],
          [
            20.436114,
            44.814546
          ],
          [
            20.435861,
            44.814592
          ],
          [
            20.435496,
            44.814663
          ],
          [
            20.435386,
            44.814685
          ],
          [
            20.435319,
            44.814699
          ],
          [
            20.435219,
            44.81472
          ],
          [
            20.435096,
            44.814746
          ],
          [
            20.434807,
            44.814816
          ],
          [
            20.434677,
            44.814849
          ],
          [
            20.434586,
            44.814745
          ],
          [
            20.434483,
            44.814632
          ],
          [
            20.434411,
            44.814553
          ],
          [
            20.434352,
            44.814487
          ],
          [
            20.43423,
            44.814353
          ],
          [
            20.433386,
            44.813423
          ],
          [
            20.433331,
            44.813363
          ],
          [
            20.433098,
            44.813106
          ],
          [
            20.432992,
            44.812987
          ],
          [
            20.432895,
            44.812881
          ],
          [
            20.432855,
            44.812837
          ],
          [
            20.432555,
            44.812508
          ],
          [
            20.432174,
            44.812093
          ],
          [
            20.431993,
            44.811895
          ],
          [
            20.431865,
            44.811755
          ],
          [
            20.431775,
            44.811654
          ],
          [
            20.431744,
            44.81162
          ],
          [
            20.431691,
            44.81156
          ],
          [
            20.431477,
            44.811317
          ],
          [
            20.431428,
            44.811263
          ],
          [
            20.4313,
            44.811123
          ],
          [
            20.430987,
            44.810778
          ],
          [
            20.430433,
            44.81017
          ],
          [
            20.430054,
            44.809758
          ],
          [
            20.429933,
            44.809622
          ],
          [
            20.429895,
            44.809579
          ],
          [
            20.429878,
            44.80956
          ],
          [
            20.429766,
            44.809435
          ],
          [
            20.429743,
            44.809409
          ],
          [
            20.429505,
            44.809144
          ],
          [
            20.42913,
            44.808725
          ],
          [
            20.42867,
            44.808218
          ],
          [
            20.428543,
            44.808083
          ],
          [
            20.428336,
            44.807864
          ],
          [
            20.427976,
            44.80747
          ],
          [
            20.427908,
            44.807394
          ],
          [
            20.427858,
            44.807336
          ],
          [
            20.427784,
            44.807255
          ],
          [
            20.427382,
            44.806814
          ],
          [
            20.427155,
            44.806563
          ],
          [
            20.426736,
            44.806105
          ],
          [
            20.426537,
            44.805885
          ],
          [
            20.426333,
            44.805657
          ],
          [
            20.42621,
            44.805519
          ],
          [
            20.426156,
            44.805457
          ],
          [
            20.426114,
            44.80541
          ],
          [
            20.426082,
            44.805373
          ],
          [
            20.426042,
            44.805322
          ],
          [
            20.426036,
            44.805311
          ],
          [
            20.42603,
            44.80529
          ],
          [
            20.426026,
            44.805266
          ],
          [
            20.426026,
            44.805227
          ],
          [
            20.426031,
            44.805177
          ],
          [
            20.426044,
            44.805132
          ],
          [
            20.426069,
            44.805085
          ],
          [
            20.426123,
            44.805018
          ],
          [
            20.426293,
            44.804834
          ],
          [
            20.426467,
            44.804626
          ],
          [
            20.426625,
            44.804453
          ],
          [
            20.426764,
            44.8043
          ],
          [
            20.426837,
            44.804214
          ],
          [
            20.426896,
            44.804149
          ],
          [
            20.426916,
            44.804058
          ],
          [
            20.42692,
            44.804001
          ],
          [
            20.42691,
            44.803957
          ],
          [
            20.426887,
            44.803929
          ],
          [
            20.42686,
            44.803902
          ],
          [
            20.426806,
            44.803867
          ],
          [
            20.426773,
            44.80385
          ],
          [
            20.426681,
            44.803817
          ],
          [
            20.426571,
            44.803808
          ],
          [
            20.425944,
            44.803755
          ],
          [
            20.425496,
            44.803727
          ],
          [
            20.425193,
            44.803712
          ],
          [
            20.424846,
            44.803701
          ],
          [
            20.424441,
            44.803692
          ],
          [
            20.423711,
            44.803689
          ],
          [
            20.422981,
            44.803705
          ],
          [
            20.422075,
            44.80374
          ],
          [
            20.421519,
            44.803768
          ],
          [
            20.421131,
            44.803787
          ],
          [
            20.420364,
            44.803825
          ],
          [
            20.420101,
            44.803837
          ],
          [
            20.419716,
            44.803856
          ],
          [
            20.419555,
            44.803864
          ],
          [
            20.41884,
            44.803898
          ],
          [
            20.418442,
            44.803917
          ],
          [
            20.41791,
            44.803943
          ],
          [
            20.417573,
            44.803958
          ],
          [
            20.417446,
            44.803965
          ],
          [
            20.417241,
            44.803977
          ],
          [
            20.417194,
            44.80398
          ],
          [
            20.417197,
            44.803932
          ],
          [
            20.417209,
            44.80375
          ],
          [
            20.417215,
            44.803662
          ],
          [
            20.417235,
            44.803353
          ],
          [
            20.417256,
            44.803233
          ],
          [
            20.417276,
            44.803095
          ],
          [
            20.41729,
            44.803054
          ],
          [
            20.417326,
            44.803005
          ],
          [
            20.417356,
            44.802983
          ],
          [
            20.417396,
            44.802961
          ],
          [
            20.417447,
            44.802947
          ],
          [
            20.417491,
            44.80186
          ],
          [
            20.417523,
            44.801092
          ],
          [
            20.417542,
            44.800775
          ],
          [
            20.417606,
            44.799725
          ],
          [
            20.417674,
            44.798627
          ],
          [
            20.417713,
            44.798585
          ],
          [
            20.417757,
            44.798557
          ],
          [
            20.418393,
            44.798428
          ],
          [
            20.418525,
            44.798402
          ],
          [
            20.418731,
            44.798357
          ],
          [
            20.419633,
            44.798164
          ],
          [
            20.420113,
            44.798072
          ],
          [
            20.420344,
            44.798036
          ],
          [
            20.420629,
            44.797992
          ],
          [
            20.420743,
            44.797961
          ],
          [
            20.420821,
            44.797941
          ],
          [
            20.420933,
            44.797928
          ],
          [
            20.421098,
            44.797939
          ],
          [
            20.421209,
            44.797956
          ],
          [
            20.421556,
            44.798022
          ],
          [
            20.422067,
            44.798161
          ],
          [
            20.42253,
            44.798282
          ],
          [
            20.422858,
            44.798363
          ],
          [
            20.423167,
            44.798421
          ],
          [
            20.423365,
            44.798463
          ],
          [
            20.423839,
            44.79856
          ],
          [
            20.424207,
            44.798633
          ],
          [
            20.424373,
            44.798666
          ],
          [
            20.424544,
            44.798712
          ],
          [
            20.424713,
            44.798761
          ],
          [
            20.424826,
            44.798803
          ],
          [
            20.42496,
            44.798876
          ],
          [
            20.425074,
            44.798943
          ],
          [
            20.425302,
            44.799108
          ],
          [
            20.425508,
            44.799211
          ],
          [
            20.425599,
            44.799245
          ],
          [
            20.425634,
            44.79925
          ],
          [
            20.42566,
            44.799253
          ],
          [
            20.42569,
            44.799252
          ],
          [
            20.425717,
            44.799252
          ],
          [
            20.425746,
            44.799251
          ],
          [
            20.425799,
            44.799246
          ],
          [
            20.425845,
            44.799239
          ],
          [
            20.425887,
            44.799227
          ],
          [
            20.425926,
            44.799216
          ],
          [
            20.425983,
            44.799215
          ],
          [
            20.42609,
            44.799226
          ],
          [
            20.426353,
            44.79925
          ],
          [
            20.426604,
            44.799262
          ],
          [
            20.426953,
            44.799276
          ],
          [
            20.427244,
            44.799308
          ],
          [
            20.427666,
            44.799359
          ],
          [
            20.428,
            44.799417
          ],
          [
            20.428047,
            44.799423
          ],
          [
            20.428205,
            44.799443
          ],
          [
            20.428886,
            44.799521
          ],
          [
            20.429099,
            44.799536
          ],
          [
            20.429223,
            44.799532
          ],
          [
            20.429331,
            44.79951
          ],
          [
            20.429401,
            44.799485
          ],
          [
            20.429453,
            44.799454
          ],
          [
            20.429506,
            44.79942
          ],
          [
            20.42964,
            44.799344
          ],
          [
            20.429733,
            44.799289
          ],
          [
            20.429784,
            44.799257
          ],
          [
            20.429829,
            44.799235
          ],
          [
            20.429873,
            44.799222
          ],
          [
            20.429923,
            44.799215
          ],
          [
            20.430018,
            44.799212
          ],
          [
            20.43017,
            44.799251
          ],
          [
            20.430761,
            44.79942
          ],
          [
            20.430925,
            44.799467
          ],
          [
            20.431402,
            44.799618
          ],
          [
            20.431442,
            44.799907
          ],
          [
            20.431402,
            44.799618
          ],
          [
            20.430925,
            44.799467
          ],
          [
            20.43017,
            44.799251
          ],
          [
            20.430018,
            44.799212
          ],
          [
            20.429923,
            44.799215
          ],
          [
            20.429873,
            44.799222
          ],
          [
            20.429829,
            44.799235
          ],
          [
            20.429784,
            44.799257
          ],
          [
            20.429733,
            44.799289
          ],
          [
            20.42964,
            44.799344
          ],
          [
            20.429506,
            44.79942
          ],
          [
            20.429453,
            44.799454
          ],
          [
            20.429401,
            44.799485
          ],
          [
            20.429331,
            44.79951
          ],
          [
            20.429223,
            44.799532
          ],
          [
            20.429099,
            44.799536
          ],
          [
            20.428886,
            44.799521
          ],
          [
            20.428205,
            44.799443
          ],
          [
            20.428047,
            44.799423
          ],
          [
            20.428,
            44.799417
          ],
          [
            20.427666,
            44.799359
          ],
          [
            20.427244,
            44.799308
          ],
          [
            20.426953,
            44.799276
          ],
          [
            20.426604,
            44.799262
          ],
          [
            20.426353,
            44.79925
          ],
          [
            20.42609,
            44.799226
          ],
          [
            20.425983,
            44.799215
          ],
          [
            20.425926,
            44.799216
          ],
          [
            20.425887,
            44.799227
          ],
          [
            20.425845,
            44.799239
          ],
          [
            20.425799,
            44.799246
          ],
          [
            20.425746,
            44.799251
          ],
          [
            20.425717,
            44.799252
          ],
          [
            20.42569,
            44.799252
          ],
          [
            20.42566,
            44.799253
          ],
          [
            20.425634,
            44.79925
          ],
          [
            20.425599,
            44.799245
          ],
          [
            20.425508,
            44.799211
          ],
          [
            20.425302,
            44.799108
          ],
          [
            20.425074,
            44.798943
          ],
          [
            20.42496,
            44.798876
          ],
          [
            20.424826,
            44.798803
          ],
          [
            20.424713,
            44.798761
          ],
          [
            20.424544,
            44.798712
          ],
          [
            20.424373,
            44.798666
          ],
          [
            20.424207,
            44.798633
          ],
          [
            20.423839,
            44.79856
          ],
          [
            20.423365,
            44.798463
          ],
          [
            20.423167,
            44.798421
          ],
          [
            20.422858,
            44.798363
          ],
          [
            20.42253,
            44.798282
          ],
          [
            20.422067,
            44.798161
          ],
          [
            20.421556,
            44.798022
          ],
          [
            20.421209,
            44.797956
          ],
          [
            20.421098,
            44.797939
          ],
          [
            20.420933,
            44.797928
          ],
          [
            20.420821,
            44.797941
          ],
          [
            20.420743,
            44.797961
          ],
          [
            20.420629,
            44.797992
          ],
          [
            20.420344,
            44.798036
          ],
          [
            20.420113,
            44.798072
          ],
          [
            20.419633,
            44.798164
          ],
          [
            20.418731,
            44.798357
          ],
          [
            20.418525,
            44.798402
          ],
          [
            20.418393,
            44.798428
          ],
          [
            20.417757,
            44.798557
          ],
          [
            20.417713,
            44.798585
          ],
          [
            20.417674,
            44.798627
          ],
          [
            20.417606,
            44.799725
          ],
          [
            20.417542,
            44.800775
          ],
          [
            20.417523,
            44.801092
          ],
          [
            20.417491,
            44.80186
          ],
          [
            20.417447,
            44.802947
          ],
          [
            20.417435,
            44.80325
          ],
          [
            20.417431,
            44.803365
          ],
          [
            20.41759,
            44.803576
          ],
          [
            20.417617,
            44.803597
          ],
          [
            20.417653,
            44.803615
          ],
          [
            20.417733,
            44.80364
          ],
          [
            20.417824,
            44.803662
          ],
          [
            20.418076,
            44.803707
          ],
          [
            20.418623,
            44.803684
          ],
          [
            20.419303,
            44.803653
          ],
          [
            20.41952,
            44.803643
          ],
          [
            20.419713,
            44.803634
          ],
          [
            20.420127,
            44.803618
          ],
          [
            20.420831,
            44.80359
          ],
          [
            20.423235,
            44.803489
          ],
          [
            20.423681,
            44.803483
          ],
          [
            20.424043,
            44.803482
          ],
          [
            20.424167,
            44.803482
          ],
          [
            20.424768,
            44.803494
          ],
          [
            20.42489,
            44.803497
          ],
          [
            20.425049,
            44.803501
          ],
          [
            20.425346,
            44.803517
          ],
          [
            20.425657,
            44.80353
          ],
          [
            20.425934,
            44.803547
          ],
          [
            20.426449,
            44.803577
          ],
          [
            20.42685,
            44.803605
          ],
          [
            20.426987,
            44.803641
          ],
          [
            20.427092,
            44.803672
          ],
          [
            20.427149,
            44.803697
          ],
          [
            20.427206,
            44.803728
          ],
          [
            20.427228,
            44.803745
          ],
          [
            20.427275,
            44.803789
          ],
          [
            20.427314,
            44.803832
          ],
          [
            20.42732,
            44.803845
          ],
          [
            20.427324,
            44.803857
          ],
          [
            20.427326,
            44.80387
          ],
          [
            20.4273,
            44.803977
          ],
          [
            20.427268,
            44.804044
          ],
          [
            20.42717,
            44.804168
          ],
          [
            20.426954,
            44.804409
          ],
          [
            20.426843,
            44.804531
          ],
          [
            20.426624,
            44.804798
          ],
          [
            20.42646,
            44.804974
          ],
          [
            20.426401,
            44.805082
          ],
          [
            20.426366,
            44.805156
          ],
          [
            20.426335,
            44.805236
          ],
          [
            20.426328,
            44.805259
          ],
          [
            20.426323,
            44.805287
          ],
          [
            20.426329,
            44.805357
          ],
          [
            20.426341,
            44.805421
          ],
          [
            20.426369,
            44.805518
          ],
          [
            20.42655,
            44.805715
          ],
          [
            20.426647,
            44.80582
          ],
          [
            20.42678,
            44.805964
          ],
          [
            20.426956,
            44.806155
          ],
          [
            20.4272,
            44.806424
          ],
          [
            20.427279,
            44.80651
          ],
          [
            20.427395,
            44.806637
          ],
          [
            20.427577,
            44.806835
          ],
          [
            20.427908,
            44.807199
          ],
          [
            20.427983,
            44.807281
          ],
          [
            20.428034,
            44.80734
          ],
          [
            20.428106,
            44.807419
          ],
          [
            20.428797,
            44.808159
          ],
          [
            20.429256,
            44.808665
          ],
          [
            20.429599,
            44.809051
          ],
          [
            20.429896,
            44.809379
          ],
          [
            20.430007,
            44.809501
          ],
          [
            20.430023,
            44.80952
          ],
          [
            20.430062,
            44.809563
          ],
          [
            20.430185,
            44.809701
          ],
          [
            20.430555,
            44.810113
          ],
          [
            20.431096,
            44.810717
          ],
          [
            20.431297,
            44.810933
          ],
          [
            20.431481,
            44.811137
          ],
          [
            20.431548,
            44.811209
          ],
          [
            20.431596,
            44.811262
          ],
          [
            20.431816,
            44.811504
          ],
          [
            20.431872,
            44.811565
          ],
          [
            20.432005,
            44.811709
          ],
          [
            20.432802,
            44.812578
          ],
          [
            20.433026,
            44.812821
          ],
          [
            20.433095,
            44.812896
          ],
          [
            20.433145,
            44.812951
          ],
          [
            20.433231,
            44.813047
          ],
          [
            20.433877,
            44.813771
          ],
          [
            20.434052,
            44.813967
          ],
          [
            20.434349,
            44.814297
          ],
          [
            20.434525,
            44.814509
          ],
          [
            20.434599,
            44.814595
          ],
          [
            20.434708,
            44.814711
          ],
          [
            20.434987,
            44.814643
          ],
          [
            20.435162,
            44.814602
          ],
          [
            20.435324,
            44.814566
          ],
          [
            20.435753,
            44.814478
          ],
          [
            20.435983,
            44.814434
          ],
          [
            20.436245,
            44.814392
          ],
          [
            20.436539,
            44.814348
          ],
          [
            20.436668,
            44.814333
          ],
          [
            20.436755,
            44.814326
          ],
          [
            20.43699,
            44.814311
          ],
          [
            20.437364,
            44.8143
          ],
          [
            20.437858,
            44.814297
          ],
          [
            20.438076,
            44.814296
          ],
          [
            20.438368,
            44.814303
          ],
          [
            20.438435,
            44.814303
          ],
          [
            20.43849,
            44.814303
          ],
          [
            20.438633,
            44.8143
          ],
          [
            20.438786,
            44.814281
          ],
          [
            20.438911,
            44.814259
          ],
          [
            20.438949,
            44.814223
          ],
          [
            20.438994,
            44.814192
          ],
          [
            20.439047,
            44.814168
          ],
          [
            20.439099,
            44.814151
          ],
          [
            20.439154,
            44.814141
          ],
          [
            20.439211,
            44.814137
          ],
          [
            20.439267,
            44.81414
          ],
          [
            20.439323,
            44.814149
          ],
          [
            20.439375,
            44.814164
          ],
          [
            20.439418,
            44.814181
          ],
          [
            20.439456,
            44.814203
          ],
          [
            20.43949,
            44.814228
          ],
          [
            20.439519,
            44.814256
          ],
          [
            20.439542,
            44.814287
          ],
          [
            20.439559,
            44.81432
          ],
          [
            20.439704,
            44.814339
          ],
          [
            20.440247,
            44.814389
          ],
          [
            20.440605,
            44.814422
          ],
          [
            20.440812,
            44.814442
          ],
          [
            20.44119,
            44.814478
          ],
          [
            20.441408,
            44.814489
          ],
          [
            20.442984,
            44.81457
          ],
          [
            20.445379,
            44.814698
          ],
          [
            20.448014,
            44.814826
          ],
          [
            20.448807,
            44.814864
          ],
          [
            20.45028,
            44.814935
          ],
          [
            20.450856,
            44.814963
          ],
          [
            20.451273,
            44.814983
          ],
          [
            20.451465,
            44.814988
          ],
          [
            20.452369,
            44.815011
          ],
          [
            20.452638,
            44.815018
          ],
          [
            20.453077,
            44.815024
          ],
          [
            20.453163,
            44.815024
          ],
          [
            20.453242,
            44.815025
          ],
          [
            20.453468,
            44.81502
          ],
          [
            20.454009,
            44.814992
          ],
          [
            20.456151,
            44.814568
          ],
          [
            20.456247,
            44.814548
          ],
          [
            20.456451,
            44.814505
          ],
          [
            20.456907,
            44.814411
          ],
          [
            20.456948,
            44.814402
          ],
          [
            20.457399,
            44.814308
          ],
          [
            20.458044,
            44.814175
          ],
          [
            20.458096,
            44.814166
          ],
          [
            20.458191,
            44.814153
          ],
          [
            20.458268,
            44.814143
          ],
          [
            20.458373,
            44.814134
          ],
          [
            20.458433,
            44.81413
          ],
          [
            20.458507,
            44.814128
          ],
          [
            20.458685,
            44.814128
          ],
          [
            20.458852,
            44.814131
          ],
          [
            20.45929,
            44.814149
          ],
          [
            20.459708,
            44.814173
          ],
          [
            20.460177,
            44.814204
          ],
          [
            20.460401,
            44.814223
          ],
          [
            20.460617,
            44.814241
          ],
          [
            20.460857,
            44.814265
          ],
          [
            20.461107,
            44.814291
          ],
          [
            20.461561,
            44.814337
          ],
          [
            20.461913,
            44.814375
          ],
          [
            20.462247,
            44.814426
          ],
          [
            20.462528,
            44.814467
          ],
          [
            20.462744,
            44.814499
          ],
          [
            20.462729,
            44.814538
          ],
          [
            20.462705,
            44.814597
          ],
          [
            20.462612,
            44.814831
          ],
          [
            20.462501,
            44.815099
          ],
          [
            20.462483,
            44.815146
          ],
          [
            20.462436,
            44.815269
          ],
          [
            20.46241,
            44.815339
          ],
          [
            20.46237,
            44.81545
          ],
          [
            20.462323,
            44.815579
          ],
          [
            20.462315,
            44.815603
          ],
          [
            20.46231,
            44.815617
          ],
          [
            20.462303,
            44.815645
          ],
          [
            20.462302,
            44.815667
          ],
          [
            20.462305,
            44.815727
          ],
          [
            20.462309,
            44.815837
          ],
          [
            20.46231,
            44.815859
          ],
          [
            20.462317,
            44.816093
          ],
          [
            20.46233,
            44.816321
          ],
          [
            20.462341,
            44.816526
          ],
          [
            20.462348,
            44.816654
          ],
          [
            20.462354,
            44.816699
          ],
          [
            20.462353,
            44.816736
          ],
          [
            20.462345,
            44.816785
          ],
          [
            20.46234,
            44.816803
          ],
          [
            20.462322,
            44.816855
          ],
          [
            20.462299,
            44.816894
          ],
          [
            20.462236,
            44.816979
          ],
          [
            20.461976,
            44.817162
          ],
          [
            20.461913,
            44.817208
          ],
          [
            20.461895,
            44.817226
          ],
          [
            20.461881,
            44.817241
          ],
          [
            20.461962,
            44.817292
          ],
          [
            20.462403,
            44.817568
          ],
          [
            20.462471,
            44.817614
          ],
          [
            20.462541,
            44.817661
          ],
          [
            20.462865,
            44.817862
          ],
          [
            20.463652,
            44.818345
          ],
          [
            20.463722,
            44.818388
          ],
          [
            20.464333,
            44.818776
          ],
          [
            20.464398,
            44.818817
          ],
          [
            20.464459,
            44.818856
          ],
          [
            20.464555,
            44.818915
          ],
          [
            20.46516,
            44.819288
          ],
          [
            20.465215,
            44.819321
          ],
          [
            20.465249,
            44.819341
          ],
          [
            20.465741,
            44.819644
          ],
          [
            20.465888,
            44.819735
          ],
          [
            20.465945,
            44.819769
          ],
          [
            20.466041,
            44.819822
          ],
          [
            20.466114,
            44.819834
          ],
          [
            20.466166,
            44.819848
          ],
          [
            20.466191,
            44.819855
          ],
          [
            20.466426,
            44.819967
          ],
          [
            20.466651,
            44.8201
          ],
          [
            20.466923,
            44.820283
          ],
          [
            20.467004,
            44.820341
          ],
          [
            20.467047,
            44.820374
          ],
          [
            20.467068,
            44.820397
          ],
          [
            20.46712,
            44.820454
          ],
          [
            20.467161,
            44.820513
          ],
          [
            20.467308,
            44.820601
          ],
          [
            20.467335,
            44.820619
          ],
          [
            20.467969,
            44.821031
          ],
          [
            20.468047,
            44.821082
          ],
          [
            20.468145,
            44.821144
          ],
          [
            20.468361,
            44.821278
          ],
          [
            20.468576,
            44.821412
          ],
          [
            20.468628,
            44.821447
          ],
          [
            20.468776,
            44.821543
          ],
          [
            20.468814,
            44.821568
          ],
          [
            20.468877,
            44.821607
          ],
          [
            20.469324,
            44.821882
          ],
          [
            20.469549,
            44.822028
          ],
          [
            20.470018,
            44.822334
          ],
          [
            20.470067,
            44.822364
          ],
          [
            20.470228,
            44.822472
          ],
          [
            20.470837,
            44.822844
          ],
          [
            20.471586,
            44.823232
          ],
          [
            20.471761,
            44.823313
          ],
          [
            20.471846,
            44.823345
          ],
          [
            20.471926,
            44.82337
          ],
          [
            20.471974,
            44.823378
          ],
          [
            20.472007,
            44.823383
          ],
          [
            20.472032,
            44.823383
          ],
          [
            20.472072,
            44.823371
          ],
          [
            20.472091,
            44.823362
          ],
          [
            20.47223,
            44.823574
          ],
          [
            20.472312,
            44.823699
          ],
          [
            20.472392,
            44.823808
          ],
          [
            20.472461,
            44.823867
          ],
          [
            20.47252,
            44.823925
          ],
          [
            20.472579,
            44.823978
          ],
          [
            20.472762,
            44.824121
          ],
          [
            20.472974,
            44.824283
          ],
          [
            20.472478,
            44.824408
          ],
          [
            20.47242,
            44.824417
          ],
          [
            20.472355,
            44.824421
          ],
          [
            20.472273,
            44.82442
          ],
          [
            20.472285,
            44.82402
          ],
          [
            20.472281,
            44.823882
          ],
          [
            20.472267,
            44.823808
          ],
          [
            20.472233,
            44.82372
          ],
          [
            20.472213,
            44.82369
          ],
          [
            20.472205,
            44.823677
          ],
          [
            20.472179,
            44.823705
          ],
          [
            20.472096,
            44.823778
          ],
          [
            20.472114,
            44.823799
          ],
          [
            20.472129,
            44.823827
          ],
          [
            20.472135,
            44.823862
          ],
          [
            20.472133,
            44.823917
          ],
          [
            20.472123,
            44.824296
          ],
          [
            20.472121,
            44.824311
          ],
          [
            20.472118,
            44.824319
          ],
          [
            20.472102,
            44.824468
          ],
          [
            20.472092,
            44.824558
          ],
          [
            20.472066,
            44.824614
          ],
          [
            20.472003,
            44.824748
          ],
          [
            20.471828,
            44.824869
          ],
          [
            20.471684,
            44.824968
          ],
          [
            20.471432,
            44.825113
          ],
          [
            20.471344,
            44.825162
          ],
          [
            20.471344,
            44.825162
          ],
          [
            20.47127,
            44.825119
          ],
          [
            20.471339,
            44.825051
          ],
          [
            20.471547,
            44.824897
          ],
          [
            20.471706,
            44.824782
          ],
          [
            20.471752,
            44.824749
          ],
          [
            20.471919,
            44.824602
          ],
          [
            20.472005,
            44.824527
          ],
          [
            20.472102,
            44.824468
          ],
          [
            20.472118,
            44.824319
          ],
          [
            20.472121,
            44.824311
          ],
          [
            20.472123,
            44.824296
          ],
          [
            20.472133,
            44.823917
          ],
          [
            20.472135,
            44.823862
          ],
          [
            20.472129,
            44.823827
          ],
          [
            20.472114,
            44.823799
          ],
          [
            20.472096,
            44.823778
          ],
          [
            20.472179,
            44.823705
          ],
          [
            20.472205,
            44.823677
          ],
          [
            20.472188,
            44.823655
          ],
          [
            20.472151,
            44.823617
          ],
          [
            20.472128,
            44.823593
          ],
          [
            20.472061,
            44.823497
          ],
          [
            20.472032,
            44.823383
          ],
          [
            20.472007,
            44.823383
          ],
          [
            20.471974,
            44.823378
          ],
          [
            20.471926,
            44.82337
          ],
          [
            20.471846,
            44.823345
          ],
          [
            20.471761,
            44.823313
          ],
          [
            20.471586,
            44.823232
          ],
          [
            20.470837,
            44.822844
          ],
          [
            20.470228,
            44.822472
          ],
          [
            20.470067,
            44.822364
          ],
          [
            20.470018,
            44.822334
          ],
          [
            20.469549,
            44.822028
          ],
          [
            20.469324,
            44.821882
          ],
          [
            20.468877,
            44.821607
          ],
          [
            20.468814,
            44.821568
          ],
          [
            20.468776,
            44.821543
          ],
          [
            20.468628,
            44.821447
          ],
          [
            20.468576,
            44.821412
          ],
          [
            20.468361,
            44.821278
          ],
          [
            20.468145,
            44.821144
          ],
          [
            20.468047,
            44.821082
          ],
          [
            20.467969,
            44.821031
          ],
          [
            20.467335,
            44.820619
          ],
          [
            20.467308,
            44.820601
          ],
          [
            20.467161,
            44.820513
          ],
          [
            20.466914,
            44.820435
          ],
          [
            20.466853,
            44.820409
          ],
          [
            20.466825,
            44.820395
          ],
          [
            20.466794,
            44.82038
          ],
          [
            20.466435,
            44.820153
          ],
          [
            20.466122,
            44.81994
          ],
          [
            20.466111,
            44.819927
          ],
          [
            20.466085,
            44.819893
          ],
          [
            20.466041,
            44.819822
          ],
          [
            20.465945,
            44.819769
          ],
          [
            20.465888,
            44.819735
          ],
          [
            20.465741,
            44.819644
          ],
          [
            20.465249,
            44.819341
          ],
          [
            20.465215,
            44.819321
          ],
          [
            20.46516,
            44.819288
          ],
          [
            20.464555,
            44.818915
          ],
          [
            20.464459,
            44.818856
          ],
          [
            20.464398,
            44.818817
          ],
          [
            20.464333,
            44.818776
          ],
          [
            20.463722,
            44.818388
          ],
          [
            20.463652,
            44.818345
          ],
          [
            20.462865,
            44.817862
          ],
          [
            20.462541,
            44.817661
          ],
          [
            20.462471,
            44.817614
          ],
          [
            20.462403,
            44.817568
          ],
          [
            20.461962,
            44.817292
          ],
          [
            20.461881,
            44.817241
          ],
          [
            20.461091,
            44.816748
          ],
          [
            20.461046,
            44.816719
          ],
          [
            20.460979,
            44.816695
          ],
          [
            20.460938,
            44.816677
          ],
          [
            20.460844,
            44.816618
          ],
          [
            20.460771,
            44.816573
          ],
          [
            20.460625,
            44.816477
          ],
          [
            20.460744,
            44.816389
          ],
          [
            20.460866,
            44.816302
          ],
          [
            20.460921,
            44.816257
          ],
          [
            20.461039,
            44.816161
          ],
          [
            20.461134,
            44.816037
          ],
          [
            20.461102,
            44.816031
          ],
          [
            20.461072,
            44.816019
          ],
          [
            20.461047,
            44.816003
          ],
          [
            20.461027,
            44.815983
          ],
          [
            20.461014,
            44.815961
          ],
          [
            20.461009,
            44.815938
          ],
          [
            20.461011,
            44.815914
          ],
          [
            20.461025,
            44.815882
          ],
          [
            20.461053,
            44.815856
          ],
          [
            20.461091,
            44.815836
          ],
          [
            20.461135,
            44.815826
          ],
          [
            20.461182,
            44.815826
          ],
          [
            20.461226,
            44.815836
          ],
          [
            20.461264,
            44.815855
          ],
          [
            20.461292,
            44.815881
          ],
          [
            20.461443,
            44.815823
          ],
          [
            20.461618,
            44.815788
          ],
          [
            20.462024,
            44.815752
          ],
          [
            20.462108,
            44.815744
          ],
          [
            20.462305,
            44.815727
          ],
          [
            20.462302,
            44.815667
          ],
          [
            20.462303,
            44.815645
          ],
          [
            20.46231,
            44.815617
          ],
          [
            20.462315,
            44.815603
          ],
          [
            20.462323,
            44.815579
          ],
          [
            20.46237,
            44.81545
          ],
          [
            20.46241,
            44.815339
          ],
          [
            20.462436,
            44.815269
          ],
          [
            20.462483,
            44.815146
          ],
          [
            20.462501,
            44.815099
          ],
          [
            20.462612,
            44.814831
          ],
          [
            20.462586,
            44.814707
          ],
          [
            20.462562,
            44.814654
          ],
          [
            20.462533,
            44.814609
          ],
          [
            20.462516,
            44.814588
          ],
          [
            20.462493,
            44.814561
          ],
          [
            20.46247,
            44.814535
          ],
          [
            20.462425,
            44.814505
          ],
          [
            20.46239,
            44.814485
          ],
          [
            20.462247,
            44.814426
          ],
          [
            20.461913,
            44.814375
          ],
          [
            20.461561,
            44.814337
          ],
          [
            20.461107,
            44.814291
          ],
          [
            20.460857,
            44.814265
          ],
          [
            20.460617,
            44.814241
          ],
          [
            20.460401,
            44.814223
          ],
          [
            20.460177,
            44.814204
          ],
          [
            20.459708,
            44.814173
          ],
          [
            20.45929,
            44.814149
          ],
          [
            20.458852,
            44.814131
          ],
          [
            20.458685,
            44.814128
          ],
          [
            20.458507,
            44.814128
          ],
          [
            20.458433,
            44.81413
          ],
          [
            20.458373,
            44.814134
          ],
          [
            20.458268,
            44.814143
          ],
          [
            20.458191,
            44.814153
          ],
          [
            20.458096,
            44.814166
          ],
          [
            20.458044,
            44.814175
          ],
          [
            20.457399,
            44.814308
          ],
          [
            20.456948,
            44.814402
          ],
          [
            20.456907,
            44.814411
          ],
          [
            20.456451,
            44.814505
          ],
          [
            20.456247,
            44.814548
          ],
          [
            20.456151,
            44.814568
          ],
          [
            20.454009,
            44.814992
          ],
          [
            20.453813,
            44.815053
          ],
          [
            20.45366,
            44.815084
          ],
          [
            20.453512,
            44.815101
          ],
          [
            20.453297,
            44.81511
          ],
          [
            20.453245,
            44.815112
          ],
          [
            20.453098,
            44.815118
          ],
          [
            20.452985,
            44.815121
          ],
          [
            20.452573,
            44.815116
          ],
          [
            20.45226,
            44.815107
          ],
          [
            20.451736,
            44.81509
          ],
          [
            20.451433,
            44.815079
          ],
          [
            20.451275,
            44.815074
          ],
          [
            20.450651,
            44.815047
          ],
          [
            20.450397,
            44.815034
          ],
          [
            20.442975,
            44.814666
          ],
          [
            20.440972,
            44.814567
          ],
          [
            20.440758,
            44.814556
          ],
          [
            20.439977,
            44.814517
          ],
          [
            20.439823,
            44.814508
          ],
          [
            20.439692,
            44.814503
          ],
          [
            20.439535,
            44.814504
          ],
          [
            20.439497,
            44.814546
          ],
          [
            20.439449,
            44.814582
          ],
          [
            20.439391,
            44.814611
          ],
          [
            20.439326,
            44.814631
          ],
          [
            20.439263,
            44.814641
          ],
          [
            20.439199,
            44.814643
          ],
          [
            20.439136,
            44.814637
          ],
          [
            20.439075,
            44.814622
          ],
          [
            20.439019,
            44.814601
          ],
          [
            20.438969,
            44.814572
          ],
          [
            20.438927,
            44.814538
          ],
          [
            20.438895,
            44.8145
          ],
          [
            20.438873,
            44.814458
          ],
          [
            20.438771,
            44.814434
          ],
          [
            20.438643,
            44.814416
          ],
          [
            20.43851,
            44.814407
          ],
          [
            20.438437,
            44.814405
          ],
          [
            20.438316,
            44.814401
          ],
          [
            20.438198,
            44.814398
          ],
          [
            20.438048,
            44.814397
          ],
          [
            20.437745,
            44.814401
          ],
          [
            20.437229,
            44.814426
          ],
          [
            20.436735,
            44.814461
          ],
          [
            20.436583,
            44.814476
          ],
          [
            20.436437,
            44.814496
          ],
          [
            20.436114,
            44.814546
          ],
          [
            20.435861,
            44.814592
          ],
          [
            20.435496,
            44.814663
          ],
          [
            20.435386,
            44.814685
          ],
          [
            20.435319,
            44.814699
          ],
          [
            20.435219,
            44.81472
          ],
          [
            20.435096,
            44.814746
          ],
          [
            20.434807,
            44.814816
          ],
          [
            20.434677,
            44.814849
          ],
          [
            20.434586,
            44.814745
          ],
          [
            20.434483,
            44.814632
          ],
          [
            20.434411,
            44.814553
          ],
          [
            20.434352,
            44.814487
          ],
          [
            20.43423,
            44.814353
          ],
          [
            20.433386,
            44.813423
          ],
          [
            20.433331,
            44.813363
          ],
          [
            20.433098,
            44.813106
          ],
          [
            20.432992,
            44.812987
          ],
          [
            20.433095,
            44.812896
          ],
          [
            20.433141,
            44.812875
          ],
          [
            20.433204,
            44.812846
          ],
          [
            20.434936,
            44.812058
          ],
          [
            20.435019,
            44.812021
          ]
        ]
      }
    }
  ]
}