{
  "type": "FeatureCollection",
  "features": [
    {
      "type": "Feature",
      "properties": {
        "id": "viewpoint-sunset",
        "kind": "osrm-walk"
      },
      "geometry": {
        "type": "LineString",
        "coordinates": [
          [
            20.448397,
            44.821125
          ],
          [
            20.448397,
            44.821125
          ],
          [
            20.448504,
            44.821048
          ],
          [
            20.44863,
            44.820945
          ],
          [
            20.44901,
            44.82059
          ],
          [
            20.449025,
            44.820576
          ],
          [
            20.44906,
            44.820543
          ],
          [
            20.449085,
            44.820518
          ],
          [
            20.449118,
            44.820484
          ],
          [
            20.449152,
            44.82045
          ],
          [
            20.449385,
            44.820224
          ],
          [
            20.449571,
            44.820063
          ],
          [
            20.449646,
            44.819992
          ],
          [
            20.449718,
            44.819922
          ],
          [
            20.449759,
            44.819857
          ],
          [
            20.449775,
            44.819816
          ],
          [
            20.449781,
            44.819776
          ],
          [
            20.449783,
            44.819745
          ],
          [
            20.449783,
            44.819705
          ],
          [
            20.449774,
            44.819633
          ],
          [
            20.44968,
            44.819039
          ],
          [
            20.449641,
            44.818765
          ],
          [
            20.449623,
            44.818668
          ],
          [
            20.449581,
            44.818562
          ],
          [
            20.449557,
            44.818498
          ],
          [
            20.449546,
            44.818467
          ],
          [
            20.449539,
            44.81843
          ],
          [
            20.449536,
            44.818362
          ],
          [
            20.449537,
            44.81833
          ],
          [
            20.449553,
            44.818233
          ],
          [
            20.449583,
            44.818066
          ],
          [
            20.449638,
            44.817692
          ],
          [
            20.449683,
            44.817374
          ],
          [
            20.449725,
            44.817093
          ],
          [
            20.449733,
            44.817041
          ],
          [
            20.449739,
            44.817014
          ],
          [
            20.449752,
            44.816936
          ],
          [
            20.449766,
            44.816881
          ],
          [
            20.449794,
            44.816769
          ],
          [
            20.449859,
            44.816572
          ],
          [
            20.449957,
            44.816328
          ],
          [
            20.450042,
            44.816134
          ],
          [
            20.450075,
            44.816045
          ],
          [
            20.450095,
            44.815978
          ],
          [
            20.450137,
            44.81583
          ],
          [
            20.450188,
            44.815215
          ],
          [
            20.450206,
            44.815039
          ],
          [
            20.450217,
            44.81491
          ],
          [
            20.450224,
            44.814879
          ],
          [
            20.450153,
            44.81484
          ],
          [
            20.450099,
            44.8148
          ],
          [
            20.450083,
            44.814776
          ],
          [
            20.450069,
            44.81475
          ],
          [
            20.450055,
            44.814709
          ],
          [
            20.450048,
            44.814665
          ],
          [
            20.45005,
            44.814255
          ],
          [
            20.450038,
            44.813528
          ],
          [
            20.450037,
            44.81335
          ],
          [
            20.450062,
            44.813163
          ],
          [
            20.45011,
            44.812998
          ],
          [
            20.450158,
            44.812887
          ],
          [
            20.450224,
            44.812765
          ],
          [
            20.450309,
            44.812642
          ],
          [
            20.450431,
            44.812502
          ],
          [
            20.450614,
            44.812336
          ],
          [
            20.450648,
            44.812311
          ],
          [
            20.450849,
            44.812158
          ],
          [
            20.450932,
            44.812096
          ],
          [
            20.45098,
            44.812059
          ],
          [
            20.451091,
            44.811983
          ],
          [
            20.45162,
            44.811745
          ],
          [
            20.451874,
            44.811636
          ],
          [
            20.452005,
            44.811568
          ],
          [
            20.452131,
            44.811485
          ],
          [
            20.452199,
            44.811437
          ],
          [
            20.452278,
            44.811372
          ],
          [
            20.452488,
            44.811175
          ],
          [
            20.452559,
            44.811091
          ],
          [
            20.452625,
            44.811001
          ],
          [
            20.452631,
            44.810994
          ],
          [
            20.45268,
            44.810933
          ],
          [
            20.45274,
            44.810876
          ],
          [
            20.4528,
            44.810832
          ],
          [
            20.452861,
            44.810799
          ],
          [
            20.452924,
            44.810769
          ],
          [
            20.45295,
            44.810756
          ],
          [
            20.452968,
            44.810736
          ],
          [
            20.452974,
            44.810716
          ],
          [
            20.452971,
            44.810697
          ],
          [
            20.452974,
            44.810669
          ],
          [
            20.452984,
            44.810646
          ],
          [
            20.452994,
            44.810633
          ],
          [
            20.453031,
            44.810604
          ],
          [
            20.453039,
            44.810549
          ],
          [
            20.453025,
            44.810501
          ],
          [
            20.452989,
            44.810447
          ],
          [
            20.452951,
            44.810411
          ],
          [
            20.452863,
            44.810363
          ],
          [
            20.452771,
            44.810323
          ],
          [
            20.452602,
            44.810245
          ],
          [
            20.452548,
            44.810202
          ],
          [
            20.452492,
            44.81015
          ],
          [
            20.452481,
            44.810137
          ],
          [
            20.452163,
            44.809743
          ],
          [
            20.451898,
            44.809397
          ],
          [
            20.451886,
            44.809382
          ],
          [
            20.4518,
            44.809246
          ],
          [
            20.451787,
            44.809222
          ],
          [
            20.451758,
            44.80918
          ],
          [
            20.451727,
            44.809126
          ],
          [
            20.451712,
            44.809092
          ],
          [
            20.451697,
            44.809058
          ],
          [
            20.451464,
            44.808536
          ],
          [
            20.451406,
            44.808245
          ],
          [
            20.451382,
            44.807976
          ],
          [
            20.451387,
            44.807799
          ],
          [
            20.451398,
            44.807383
          ],
          [
            20.451408,
            44.80706
          ],
          [
            20.45141,
            44.80703
          ],
          [
            20.451406,
            44.806856
          ],
          [
            20.451405,
            44.806797
          ],
          [
            20.451402,
            44.806739
          ],
          [
            20.451394,
            44.806563
          ],
          [
            20.451383,
            44.806466
          ],
          [
            20.451368,
            44.806378
          ],
          [
            20.451324,
            44.806168
          ],
          [
            20.451222,
            44.805826
          ],
          [
            20.451104,
            44.805548
          ],
          [
            20.451005,
            44.805349
          ],
          [
            20.450943,
            44.805224
          ],
          [
            20.450724,
            44.804885
          ],
          [
            20.450445,
            44.804526
          ],
          [
            20.45015,
            44.804247
          ],
          [
            20.450074,
            44.804183
          ],
          [
            20.449941,
            44.804072
          ],
          [
            20.449812,
            44.803971
          ],
          [
            20.449952,
            44.803896
          ],
          [
            20.450047,
            44.803844
          ],
          [
            20.450104,
            44.803814
          ],
          [
            20.450295,
            44.803709
          ],
          [
            20.450698,
            44.803493
          ],
          [
            20.45094,
            44.803361
          ],
          [
            20.451106,
            44.803271
          ],
          [
            20.451312,
            44.803161
          ],
          [
            20.451368,
            44.803131
          ],
          [
            20.451646,
            44.802981
          ],
          [
            20.451801,
            44.80293
          ],
          [
            20.451713,
            44.802821
          ],
          [
            20.451453,
            44.802501
          ],
          [
            20.451053,
            44.801997
          ],
          [
            20.451014,
            44.801948
          ],
          [
            20.450816,
            44.801714
          ],
          [
            20.450661,
            44.801544
          ],
          [
            20.45056,
            44.801438
          ],
          [
            20.45043,
            44.80133
          ],
          [
            20.450243,
            44.801193
          ],
          [
            20.450071,
            44.801056
          ],
          [
            20.449988,
            44.801026
          ],
          [
            20.449913,
            44.800982
          ],
          [
            20.449805,
            44.800903
          ],
          [
            20.449605,
            44.800714
          ],
          [
            20.449562,
            44.800672
          ],
          [
            20.449214,
            44.800312
          ],
          [
            20.449129,
            44.800233
          ],
          [
            20.449057,
            44.800169
          ],
          [
            20.448922,
            44.80007
          ],
          [
            20.448814,
            44.799998
          ],
          [
            20.448716,
            44.799942
          ],
          [
            20.448627,
            44.799902
          ],
          [
            20.448506,
            44.799861
          ],
          [
            20.448377,
            44.799825
          ],
          [
            20.448257,
            44.799794
          ],
          [
            20.448159,
            44.799774
          ],
          [
            20.448071,
            44.799758
          ],
          [
            20.447889,
            44.79972
          ],
          [
            20.447793,
            44.799714
          ],
          [
            20.447679,
            44.799707
          ],
          [
            20.447567,
            44.799706
          ],
          [
            20.447407,
            44.799717
          ],
          [
            20.447229,
            44.799743
          ],
          [
            20.447083,
            44.799773
          ],
          [
            20.446972,
            44.799801
          ],
          [
            20.446841,
            44.799836
          ],
          [
            20.446719,
            44.799878
          ],
          [
            20.446623,
            44.799915
          ],
          [
            20.446505,
            44.79996
          ],
          [
            20.44638,
            44.80001
          ],
          [
            20.446261,
            44.800046
          ],
          [
            20.446152,
            44.800067
          ],
          [
            20.44568,
            44.800323
          ],
          [
            20.445311,
            44.800514
          ],
          [
            20.445056,
            44.800647
          ],
          [
            20.444822,
            44.800767
          ],
          [
            20.44463,
            44.800865
          ],
          [
            20.44423,
            44.801071
          ],
          [
            20.443518,
            44.801429
          ],
          [
            20.442092,
            44.802165
          ],
          [
            20.438765,
            44.803884
          ],
          [
            20.436974,
            44.804795
          ],
          [
            20.436699,
            44.804934
          ],
          [
            20.436295,
            44.805139
          ],
          [
            20.435945,
            44.805304
          ],
          [
            20.435407,
            44.80556
          ],
          [
            20.434963,
            44.805773
          ],
          [
            20.434383,
            44.806045
          ],
          [
            20.433456,
            44.806463
          ],
          [
            20.432748,
            44.806785
          ],
          [
            20.431883,
            44.807182
          ],
          [
            20.431125,
            44.807529
          ],
          [
            20.43101,
            44.807581
          ],
          [
            20.430716,
            44.807715
          ],
          [
            20.430345,
            44.807887
          ],
          [
            20.430115,
            44.807993
          ],
          [
            20.429297,
            44.808356
          ],
          [
            20.429277,
            44.808365
          ],
          [
            20.4288,
            44.808584
          ],
          [
            20.428199,
            44.808861
          ],
          [
            20.425565,
            44.810061
          ],
          [
            20.424952,
            44.810343
          ],
          [
            20.420538,
            44.812371
          ],
          [
            20.416622,
            44.81417
          ],
          [
            20.415842,
            44.814529
          ],
          [
            20.414868,
            44.814972
          ],
          [
            20.413957,
            44.815387
          ],
          [
            20.413245,
            44.815711
          ],
          [
            20.41285,
            44.815891
          ],
          [
            20.412202,
            44.816186
          ],
          [
            20.411715,
            44.81641
          ],
          [
            20.41157,
            44.816474
          ],
          [
            20.410621,
            44.816918
          ],
          [
            20.409925,
            44.817241
          ],
          [
            20.409335,
            44.817515
          ],
          [
            20.408726,
            44.817787
          ],
          [
            20.408104,
            44.818074
          ],
          [
            20.407472,
            44.818362
          ],
          [
            20.407194,
            44.818489
          ],
          [
            20.406886,
            44.81863
          ],
          [
            20.406647,
            44.818739
          ],
          [
            20.403741,
            44.82007
          ],
          [
            20.403649,
            44.820112
          ],
          [
            20.403315,
            44.820265
          ],
          [
            20.402852,
            44.820477
          ],
          [
            20.402036,
            44.82085
          ],
          [
            20.401773,
            44.820973
          ],
          [
            20.401019,
            44.821326
          ],
          [
            20.400085,
            44.821756
          ],
          [
            20.399124,
            44.822194
          ],
          [
            20.398351,
            44.822548
          ],
          [
            20.398005,
            44.822704
          ],
          [
            20.397626,
            44.822876
          ],
          [
            20.397297,
            44.82303
          ],
          [
            20.396761,
            44.823279
          ],
          [
            20.396204,
            44.823529
          ],
          [
            20.394742,
            44.824203
          ],
          [
            20.394643,
            44.824246
          ],
          [
            20.394238,
            44.824426
          ],
          [
            20.393826,
            44.824609
          ],
          [
            20.393461,
            44.824779
          ],
          [
            20.393126,
            44.824927
          ],
          [
            20.392684,
            44.82513
          ],
          [
            20.392326,
            44.82529
          ],
          [
            20.391898,
            44.825488
          ],
          [
            20.391601,
            44.825617
          ],
          [
            20.391143,
            44.825816
          ],
          [
            20.390736,
            44.826015
          ],
          [
            20.390339,
            44.826298
          ],
          [
            20.390136,
            44.826443
          ],
          [
            20.389792,
            44.826599
          ],
          [
            20.389445,
            44.82676
          ],
          [
            20.389285,
            44.826831
          ],
          [
            20.389109,
            44.826909
          ],
          [
            20.388541,
            44.827128
          ],
          [
            20.388515,
            44.827161
          ],
          [
            20.388498,
            44.827189
          ],
          [
            20.388487,
            44.827206
          ],
          [
            20.388478,
            44.827226
          ],
          [
            20.388467,
            44.82726
          ],
          [
            20.388462,
            44.827317
          ],
          [
            20.388464,
            44.827394
          ],
          [
            20.388529,
            44.827585
          ],
          [
            20.388547,
            44.827637
          ],
          [
            20.388482,
            44.827646
          ],
          [
            20.38809,
            44.827704
          ],
          [
            20.388134,
            44.827834
          ],
          [
            20.388196,
            44.828015
          ],
          [
            20.388384,
            44.828487
          ],
          [
            20.388558,
            44.828924
          ],
          [
            20.388803,
            44.829481
          ],
          [
            20.38886,
            44.829615
          ],
          [
            20.388866,
            44.82963
          ],
          [
            20.388989,
            44.829923
          ],
          [
            20.38911,
            44.830202
          ],
          [
            20.389126,
            44.830239
          ],
          [
            20.389336,
            44.830732
          ],
          [
            20.389358,
            44.830784
          ],
          [
            20.389558,
            44.831267
          ],
          [
            20.390028,
            44.832332
          ],
          [
            20.390057,
            44.832394
          ],
          [
            20.3901,
            44.832487
          ],
          [
            20.390179,
            44.832571
          ],
          [
            20.390306,
            44.832711
          ],
          [
            20.390394,
            44.832792
          ],
          [
            20.390498,
            44.832887
          ],
          [
            20.39057,
            44.832957
          ],
          [
            20.390628,
            44.833033
          ],
          [
            20.3907,
            44.833129
          ],
          [
            20.390742,
            44.8332
          ],
          [
            20.39078,
            44.833291
          ],
          [
            20.3908,
            44.833349
          ],
          [
            20.390827,
            44.833453
          ],
          [
            20.390836,
            44.833517
          ],
          [
            20.390844,
            44.833597
          ],
          [
            20.390843,
            44.833629
          ],
          [
            20.390839,
            44.833679
          ],
          [
            20.3908,
            44.833886
          ],
          [
            20.390721,
            44.834296
          ],
          [
            20.390706,
            44.834425
          ],
          [
            20.390706,
            44.834504
          ],
          [
            20.390711,
            44.834559
          ],
          [
            20.390728,
            44.834635
          ],
          [
            20.390784,
            44.834798
          ],
          [
            20.390817,
            44.834868
          ],
          [
            20.390853,
            44.834952
          ],
          [
            20.390988,
            44.835267
          ],
          [
            20.391259,
            44.835898
          ],
          [
            20.391494,
            44.836419
          ],
          [
            20.391627,
            44.836712
          ],
          [
            20.391713,
            44.836904
          ],
          [
            20.391744,
            44.836958
          ],
          [
            20.391863,
            44.837159
          ],
          [
            20.391912,
            44.837242
          ],
          [
            20.391946,
            44.837299
          ],
          [
            20.392148,
            44.837613
          ],
          [
            20.392273,
            44.837802
          ],
          [
            20.392399,
            44.837992
          ],
          [
            20.392447,
            44.838065
          ],
          [
            20.392542,
            44.838202
          ],
          [
            20.392922,
            44.838729
          ],
          [
            20.393121,
            44.839011
          ],
          [
            20.393189,
            44.839105
          ],
          [
            20.393233,
            44.839164
          ],
          [
            20.393315,
            44.839272
          ],
          [
            20.393439,
            44.839439
          ],
          [
            20.393551,
            44.839587
          ],
          [
            20.393576,
            44.83962
          ],
          [
            20.393826,
            44.839932
          ],
          [
            20.393842,
            44.839953
          ],
          [
            20.394256,
            44.840461
          ],
          [
            20.394271,
            44.840484
          ],
          [
            20.394283,
            44.840506
          ],
          [
            20.394288,
            44.840534
          ],
          [
            20.394241,
            44.840535
          ],
          [
            20.394192,
            44.840533
          ],
          [
            20.394129,
            44.840534
          ],
          [
            20.393627,
            44.840534
          ],
          [
            20.393531,
            44.840533
          ],
          [
            20.393429,
            44.840533
          ],
          [
            20.393249,
            44.840533
          ],
          [
            20.393101,
            44.840535
          ],
          [
            20.393181,
            44.840895
          ],
          [
            20.393188,
            44.840931
          ],
          [
            20.39321,
            44.84105
          ],
          [
            20.393233,
            44.841161
          ],
          [
            20.393265,
            44.841286
          ],
          [
            20.393307,
            44.84148
          ],
          [
            20.393352,
            44.84166
          ],
          [
            20.393393,
            44.841788
          ],
          [
            20.393498,
            44.842099
          ],
          [
            20.39357,
            44.842323
          ],
          [
            20.393624,
            44.842499
          ],
          [
            20.393653,
            44.842578
          ],
          [
            20.393694,
            44.842654
          ],
          [
            20.393773,
            44.842799
          ],
          [
            20.393834,
            44.842942
          ],
          [
            20.394055,
            44.843262
          ],
          [
            20.394116,
            44.84335
          ],
          [
            20.394194,
            44.843469
          ],
          [
            20.394264,
            44.843571
          ],
          [
            20.394377,
            44.843745
          ],
          [
            20.394586,
            44.844073
          ],
          [
            20.39465,
            44.844179
          ],
          [
            20.39471,
            44.844266
          ],
          [
            20.394781,
            44.844378
          ],
          [
            20.394875,
            44.844531
          ],
          [
            20.394911,
            44.844584
          ],
          [
            20.395078,
            44.844839
          ],
          [
            20.395159,
            44.844907
          ],
          [
            20.395242,
            44.84501
          ],
          [
            20.395338,
            44.845176
          ],
          [
            20.395418,
            44.8453
          ],
          [
            20.395497,
            44.845428
          ],
          [
            20.395519,
            44.845463
          ],
          [
            20.395582,
            44.845562
          ],
          [
            20.395738,
            44.845842
          ],
          [
            20.395789,
            44.845977
          ],
          [
            20.395832,
            44.84606
          ],
          [
            20.396327,
            44.846931
          ],
          [
            20.396453,
            44.847125
          ],
          [
            20.396578,
            44.847339
          ],
          [
            20.396628,
            44.847406
          ],
          [
            20.396738,
            44.847367
          ],
          [
            20.396927,
            44.847299
          ],
          [
            20.397015,
            44.847267
          ],
          [
            20.397956,
            44.846937
          ],
          [
            20.399514,
            44.846391
          ],
          [
            20.399652,
            44.84634
          ],
          [
            20.400469,
            44.846017
          ],
          [
            20.400958,
            44.845834
          ],
          [
            20.401095,
            44.845782
          ],
          [
            20.40116,
            44.845867
          ],
          [
            20.401543,
            44.846324
          ],
          [
            20.401725,
            44.846248
          ],
          [
            20.401883,
            44.846192
          ],
          [
            20.401948,
            44.846181
          ],
          [
            20.402013,
            44.846171
          ],
          [
            20.402117,
            44.846156
          ],
          [
            20.402218,
            44.84615
          ],
          [
            20.402306,
            44.846148
          ],
          [
            20.402756,
            44.846151
          ],
          [
            20.402832,
            44.846149
          ],
          [
            20.402906,
            44.846144
          ],
          [
            20.403031,
            44.846128
          ],
          [
            20.403406,
            44.846069
          ],
          [
            20.403792,
            44.846008
          ],
          [
            20.40422,
            44.845924
          ],
          [
            20.404788,
            44.845809
          ],
          [
            20.404908,
            44.845783
          ],
          [
            20.405203,
            44.84572
          ],
          [
            20.40536,
            44.845681
          ],
          [
            20.405519,
            44.845635
          ],
          [
            20.405615,
            44.845601
          ],
          [
            20.405705,
            44.845561
          ],
          [
            20.405874,
            44.845467
          ],
          [
            20.405901,
            44.845453
          ],
          [
            20.405836,
            44.845383
          ],
          [
            20.405705,
            44.845263
          ],
          [
            20.40547,
            44.845034
          ],
          [
            20.405051,
            44.844648
          ],
          [
            20.404997,
            44.844592
          ],
          [
            20.404689,
            44.844796
          ],
          [
            20.40446,
            44.844953
          ],
          [
            20.404388,
            44.845004
          ],
          [
            20.404208,
            44.845127
          ],
          [
            20.404153,
            44.845167
          ],
          [
            20.40411,
            44.845207
          ],
          [
            20.403945,
            44.845398
          ],
          [
            20.403803,
            44.845563
          ],
          [
            20.403766,
            44.845577
          ],
          [
            20.40372,
            44.845577
          ],
          [
            20.403137,
            44.845321
          ],
          [
            20.402781,
            44.845155
          ],
          [
            20.402681,
            44.845106
          ],
          [
            20.40271,
            44.845078
          ],
          [
            20.402757,
            44.845022
          ],
          [
            20.402939,
            44.844769
          ],
          [
            20.403045,
            44.844626
          ],
          [
            20.403154,
            44.84448
          ],
          [
            20.403261,
            44.844356
          ],
          [
            20.403412,
            44.844168
          ],
          [
            20.403581,
            44.843962
          ],
          [
            20.403744,
            44.843767
          ],
          [
            20.403875,
            44.843613
          ],
          [
            20.403958,
            44.843516
          ],
          [
            20.404076,
            44.843387
          ],
          [
            20.404243,
            44.843203
          ],
          [
            20.404402,
            44.843023
          ],
          [
            20.404525,
            44.842898
          ],
          [
            20.404833,
            44.842588
          ],
          [
            20.405129,
            44.842312
          ],
          [
            20.40518,
            44.842266
          ],
          [
            20.405284,
            44.842172
          ],
          [
            20.405349,
            44.842112
          ],
          [
            20.405377,
            44.842086
          ],
          [
            20.405774,
            44.841712
          ],
          [
            20.405825,
            44.841662
          ],
          [
            20.406072,
            44.841411
          ],
          [
            20.406463,
            44.841031
          ],
          [
            20.406725,
            44.840762
          ],
          [
            20.406898,
            44.840591
          ],
          [
            20.407033,
            44.84045
          ],
          [
            20.40715,
            44.840331
          ],
          [
            20.407517,
            44.839955
          ],
          [
            20.40809,
            44.839381
          ],
          [
            20.408213,
            44.839261
          ],
          [
            20.408255,
            44.839227
          ],
          [
            20.408287,
            44.839218
          ],
          [
            20.40831,
            44.839214
          ],
          [
            20.408333,
            44.839211
          ],
          [
            20.40837,
            44.839211
          ],
          [
            20.408407,
            44.839214
          ],
          [
            20.408447,
            44.839221
          ],
          [
            20.408534,
            44.839246
          ],
          [
            20.408639,
            44.839275
          ],
          [
            20.408776,
            44.839313
          ],
          [
            20.409135,
            44.839415
          ],
          [
            20.40921,
            44.839436
          ],
          [
            20.409267,
            44.839452
          ],
          [
            20.409326,
            44.839468
          ],
          [
            20.409505,
            44.839518
          ],
          [
            20.409541,
            44.839526
          ],
          [
            20.409579,
            44.83953
          ],
          [
            20.409625,
            44.839531
          ],
          [
            20.409682,
            44.839527
          ],
          [
            20.409743,
            44.839521
          ],
          [
            20.409781,
            44.839515
          ],
          [
            20.409824,
            44.839503
          ],
          [
            20.409894,
            44.83948
          ],
          [
            20.40997,
            44.839446
          ],
          [
            20.410304,
            44.839297
          ],
          [
            20.410935,
            44.839015
          ],
          [
            20.411358,
            44.838827
          ],
          [
            20.411464,
            44.838777
          ],
          [
            20.411504,
            44.838761
          ],
          [
            20.411546,
            44.838748
          ],
          [
            20.411625,
            44.838729
          ],
          [
            20.411695,
            44.838717
          ],
          [
            20.411763,
            44.838708
          ],
          [
            20.411796,
            44.838702
          ],
          [
            20.411843,
            44.838693
          ],
          [
            20.411951,
            44.838669
          ],
          [
            20.412035,
            44.83865
          ],
          [
            20.412467,
            44.838556
          ],
          [
            20.412951,
            44.838454
          ],
          [
            20.413322,
            44.838377
          ],
          [
            20.413679,
            44.838301
          ],
          [
            20.413753,
            44.838286
          ],
          [
            20.413844,
            44.838267
          ],
          [
            20.413944,
            44.838245
          ],
          [
            20.41398,
            44.838238
          ],
          [
            20.414029,
            44.838228
          ],
          [
            20.414041,
            44.838225
          ],
          [
            20.414974,
            44.838033
          ],
          [
            20.415261,
            44.837977
          ],
          [
            20.415469,
            44.837936
          ],
          [
            20.415633,
            44.837902
          ],
          [
            20.415722,
            44.837882
          ],
          [
            20.415793,
            44.837866
          ],
          [
            20.415886,
            44.837844
          ],
          [
            20.415951,
            44.837826
          ],
          [
            20.416048,
            44.837799
          ],
          [
            20.416267,
            44.837724
          ],
          [
            20.416635,
            44.837586
          ],
          [
            20.416788,
            44.837526
          ],
          [
            20.416839,
            44.837507
          ],
          [
            20.416857,
            44.837499
          ],
          [
            20.416891,
            44.837485
          ],
          [
            20.417086,
            44.837412
          ],
          [
            20.417137,
            44.837325
          ],
          [
            20.417255,
            44.837186
          ],
          [
            20.417402,
            44.836996
          ],
          [
            20.417512,
            44.836838
          ],
          [
            20.417635,
            44.836642
          ],
          [
            20.417691,
            44.836529
          ],
          [
            20.417756,
            44.836371
          ],
          [
            20.4178,
            44.83626
          ],
          [
            20.417844,
            44.836123
          ],
          [
            20.417891,
            44.835902
          ],
          [
            20.4179,
            44.835858
          ],
          [
            20.417929,
            44.835713
          ],
          [
            20.418094,
            44.834887
          ],
          [
            20.418127,
            44.834728
          ],
          [
            20.418165,
            44.834508
          ],
          [
            20.418179,
            44.834438
          ],
          [
            20.418196,
            44.834346
          ],
          [
            20.418211,
            44.834272
          ],
          [
            20.418227,
            44.834188
          ],
          [
            20.418269,
            44.833966
          ],
          [
            20.418298,
            44.833812
          ],
          [
            20.41869,
            44.832074
          ],
          [
            20.418747,
            44.831822
          ],
          [
            20.418788,
            44.831637
          ],
          [
            20.418831,
            44.831439
          ],
          [
            20.418838,
            44.831407
          ],
          [
            20.418863,
            44.831293
          ],
          [
            20.418882,
            44.831208
          ],
          [
            20.418908,
            44.831099
          ],
          [
            20.418969,
            44.830842
          ],
          [
            20.419337,
            44.829027
          ],
          [
            20.419395,
            44.828737
          ],
          [
            20.41945,
            44.828468
          ],
          [
            20.419457,
            44.828433
          ],
          [
            20.419494,
            44.82828
          ],
          [
            20.419509,
            44.828201
          ],
          [
            20.419542,
            44.828023
          ],
          [
            20.419903,
            44.826327
          ],
          [
            20.419988,
            44.825924
          ],
          [
            20.420055,
            44.825782
          ],
          [
            20.42016,
            44.825621
          ],
          [
            20.420288,
            44.825466
          ],
          [
            20.42042,
            44.825329
          ],
          [
            20.420567,
            44.82521
          ],
          [
            20.420685,
            44.825132
          ],
          [
            20.420792,
            44.825065
          ],
          [
            20.420918,
            44.824997
          ],
          [
            20.421326,
            44.824804
          ],
          [
            20.424746,
            44.823292
          ],
          [
            20.425482,
            44.822964
          ],
          [
            20.425512,
            44.82295
          ],
          [
            20.425641,
            44.822889
          ],
          [
            20.426886,
            44.822339
          ],
          [
            20.427884,
            44.821889
          ],
          [
            20.429533,
            44.821144
          ],
          [
            20.430396,
            44.820754
          ],
          [
            20.430558,
            44.820681
          ],
          [
            20.431877,
            44.820085
          ],
          [
            20.433635,
            44.819291
          ],
          [
            20.435734,
            44.818343
          ],
          [
            20.435846,
            44.818293
          ],
          [
            20.436144,
            44.818158
          ],
          [
            20.436928,
            44.817804
          ],
          [
            20.43704,
            44.817754
          ],
          [
            20.437198,
            44.817682
          ],
          [
            20.437298,
            44.817633
          ],
          [
            20.437488,
            44.81754
          ],
          [
            20.437593,
            44.817477
          ],
          [
            20.438023,
            44.817138
          ],
          [
            20.438215,
            44.816959
          ],
          [
            20.438372,
            44.816796
          ],
          [
            20.438622,
            44.81646
          ],
          [
            20.438665,
            44.816387
          ],
          [
            20.438699,
            44.816329
          ],
          [
            20.438736,
            44.816267
          ],
          [
            20.438806,
            44.816122
          ],
          [
            20.438865,
            44.815972
          ],
          [
            20.438921,
            44.815828
          ],
          [
            20.438953,
            44.815734
          ],
          [
            20.438989,
            44.815568
          ],
          [
            20.439021,
            44.81536
          ],
          [
            20.43906,
            44.815075
          ],
          [
            20.439082,
            44.814875
          ],
          [
            20.43908,
            44.81478
          ],
          [
            20.439069,
            44.814711
          ],
          [
            20.439049,
            44.814685
          ],
          [
            20.439023,
            44.814644
          ],
          [
            20.438969,
            44.814572
          ],
          [
            20.438927,
            44.814538
          ],
          [
            20.438895,
            44.8145
          ],
          [
            20.438873,
            44.814458
          ],
          [
            20.438862,
            44.814417
          ],
          [
            20.43886,
            44.814376
          ],
          [
            20.438868,
            44.814335
          ],
          [
            20.438885,
            44.814296
          ],
          [
            20.438911,
            44.814259
          ],
          [
            20.438949,
            44.814223
          ],
          [
            20.438994,
            44.814192
          ],
          [
            20.439047,
            44.814168
          ],
          [
            20.439099,
            44.814151
          ],
          [
            20.439154,
            44.814141
          ],
          [
            20.439211,
            44.814137
          ],
          [
            20.439267,
            44.81414
          ],
          [
            20.439323,
            44.814149
          ],
          [
            20.439375,
            44.814164
          ],
          [
            20.439418,
            44.814181
          ],
          [
            20.439456,
            44.814203
          ],
          [
            20.43949,
            44.814228
          ],
          [
            20.439519,
            44.814256
          ],
          [
            20.439542,
            44.814287
          ],
          [
            20.439559,
            44.81432
          ],
          [
            20.439704,
            44.814339
          ],
          [
            20.440247,
            44.814389
          ],
          [
            20.440605,
            44.814422
          ],
          [
            20.440812,
            44.814442
          ],
          [
            20.44119,
            44.814478
          ],
          [
            20.441408,
            44.814489
          ],
          [
            20.442984,
            44.81457
          ],
          [
            20.445379,
            44.814698
          ],
          [
            20.448014,
            44.814826
          ],
          [
            20.448807,
            44.814864
          ],
          [
            20.45028,
            44.814935
          ],
          [
            20.450856,
            44.814963
          ],
          [
            20.451273,
            44.814983
          ],
          [
            20.451465,
            44.814988
          ],
          [
            20.45158,
            44.814961
          ],
          [
            20.451798,
            44.814894
          ],
          [
            20.451843,
            44.81488
          ],
          [
            20.451936,
            44.814856
          ],
          [
            20.452031,
            44.814834
          ],
          [
            20.452141,
            44.814812
          ],
          [
            20.452257,
            44.814794
          ],
          [
            20.45239,
            44.814779
          ],
          [
            20.45253,
            44.814765
          ],
          [
            20.45273,
            44.814752
          ],
          [
            20.452879,
            44.81473
          ],
          [
            20.452921,
            44.814719
          ],
          [
            20.452968,
            44.814703
          ],
          [
            20.453014,
            44.814685
          ],
          [
            20.453052,
            44.814663
          ],
          [
            20.453098,
            44.814624
          ],
          [
            20.453152,
            44.814574
          ],
          [
            20.453186,
            44.814476
          ],
          [
            20.453183,
            44.814442
          ],
          [
            20.453178,
            44.814422
          ],
          [
            20.45317,
            44.814401
          ],
          [
            20.453147,
            44.814387
          ],
          [
            20.453131,
            44.814369
          ],
          [
            20.453128,
            44.814357
          ],
          [
            20.453106,
            44.814338
          ],
          [
            20.453089,
            44.814328
          ],
          [
            20.453071,
            44.81432
          ],
          [
            20.453025,
            44.814302
          ],
          [
            20.452971,
            44.814302
          ],
          [
            20.452776,
            44.814299
          ],
          [
            20.452721,
            44.814306
          ],
          [
            20.452671,
            44.814315
          ],
          [
            20.452575,
            44.814337
          ],
          [
            20.452498,
            44.814359
          ],
          [
            20.45234,
            44.81441
          ],
          [
            20.452078,
            44.814494
          ],
          [
            20.451428,
            44.814692
          ],
          [
            20.451413,
            44.814697
          ],
          [
            20.451286,
            44.814731
          ],
          [
            20.45114,
            44.814776
          ],
          [
            20.451084,
            44.814795
          ],
          [
            20.451051,
            44.814809
          ],
          [
            20.451006,
            44.814828
          ],
          [
            20.450958,
            44.814852
          ],
          [
            20.450929,
            44.81487
          ],
          [
            20.450904,
            44.814891
          ],
          [
            20.450688,
            44.815248
          ],
          [
            20.450681,
            44.815259
          ],
          [
            20.450642,
            44.815314
          ],
          [
            20.450505,
            44.815431
          ],
          [
            20.450432,
            44.815495
          ],
          [
            20.450399,
            44.81553
          ],
          [
            20.450366,
            44.815575
          ],
          [
            20.450344,
            44.815615
          ],
          [
            20.450189,
            44.815938
          ],
          [
            20.450169,
            44.81598
          ],
          [
            20.45017,
            44.815992
          ],
          [
            20.450165,
            44.816052
          ],
          [
            20.450158,
            44.816097
          ],
          [
            20.450122,
            44.816233
          ],
          [
            20.450085,
            44.816333
          ],
          [
            20.449954,
            44.816686
          ],
          [
            20.449913,
            44.816814
          ],
          [
            20.449889,
            44.816906
          ],
          [
            20.449865,
            44.817004
          ],
          [
            20.449861,
            44.817024
          ],
          [
            20.449854,
            44.817063
          ],
          [
            20.449838,
            44.817148
          ],
          [
            20.449792,
            44.817426
          ],
          [
            20.449749,
            44.817685
          ],
          [
            20.449734,
            44.817772
          ],
          [
            20.449671,
            44.818228
          ],
          [
            20.449659,
            44.81832
          ],
          [
            20.449657,
            44.818337
          ],
          [
            20.449652,
            44.818392
          ],
          [
            20.449642,
            44.818488
          ],
          [
            20.449623,
            44.818607
          ],
          [
            20.449623,
            44.818668
          ],
          [
            20.449641,
            44.818765
          ],
          [
            20.44968,
            44.819039
          ],
          [
            20.449774,
            44.819633
          ],
          [
            20.449783,
            44.819705
          ],
          [
            20.449783,
            44.819745
          ],
          [
            20.449781,
            44.819776
          ],
          [
            20.449853,
            44.819774
          ],
          [
            20.449911,
            44.819768
          ],
          [
            20.449961,
            44.819753
          ],
          [
            20.45004,
            44.819706
          ],
          [
            20.450139,
            44.819647
          ],
          [
            20.450262,
            44.819581
          ],
          [
            20.450312,
            44.819549
          ],
          [
            20.450363,
            44.819513
          ],
          [
            20.45042,
            44.819469
          ],
          [
            20.450473,
            44.819421
          ],
          [
            20.450688,
            44.819185
          ],
          [
            20.451003,
            44.818825
          ],
          [
            20.451137,
            44.81867
          ],
          [
            20.451156,
            44.818644
          ],
          [
            20.451214,
            44.818567
          ],
          [
            20.451321,
            44.818408
          ],
          [
            20.451436,
            44.818247
          ],
          [
            20.45149,
            44.818175
          ],
          [
            20.451534,
            44.818121
          ],
          [
            20.451591,
            44.818058
          ],
          [
            20.451639,
            44.818007
          ],
          [
            20.451707,
            44.817944
          ],
          [
            20.451846,
            44.817841
          ],
          [
            20.452141,
            44.817606
          ],
          [
            20.452231,
            44.817538
          ],
          [
            20.452475,
            44.817358
          ],
          [
            20.45279,
            44.817132
          ],
          [
            20.452896,
            44.817063
          ],
          [
            20.452911,
            44.81705
          ],
          [
            20.452929,
            44.817032
          ],
          [
            20.452941,
            44.817013
          ],
          [
            20.452948,
            44.816967
          ],
          [
            20.452952,
            44.81691
          ],
          [
            20.452959,
            44.816831
          ],
          [
            20.452978,
            44.81665
          ],
          [
            20.452996,
            44.816437
          ],
          [
            20.453031,
            44.816024
          ],
          [
            20.452944,
            44.815996
          ],
          [
            20.452818,
            44.815955
          ],
          [
            20.452432,
            44.81583
          ],
          [
            20.452407,
            44.815822
          ],
          [
            20.451779,
            44.815619
          ],
          [
            20.451683,
            44.815588
          ],
          [
            20.451499,
            44.815528
          ],
          [
            20.451389,
            44.815492
          ],
          [
            20.451334,
            44.815475
          ],
          [
            20.451389,
            44.815492
          ],
          [
            20.451499,
            44.815528
          ],
          [
            20.451683,
            44.815588
          ],
          [
            20.451779,
            44.815619
          ],
          [
            20.451899,
            44.815658
          ],
          [
            20.452407,
            44.815822
          ],
          [
            20.452432,
            44.81583
          ],
          [
            20.452818,
            44.815955
          ],
          [
            20.452944,
            44.815996
          ],
          [
            20.453031,
            44.816024
          ],
          [
            20.453089,
            44.815332
          ],
          [
            20.45309,
            44.815318
          ],
          [
            20.453091,
            44.815303
          ],
          [
            20.453094,
            44.815225
          ],
          [
            20.453098,
            44.815118
          ],
          [
            20.452985,
            44.815121
          ],
          [
            20.452573,
            44.815116
          ],
          [
            20.45226,
            44.815107
          ],
          [
            20.451736,
            44.81509
          ],
          [
            20.451433,
            44.815079
          ],
          [
            20.451275,
            44.815074
          ],
          [
            20.450651,
            44.815047
          ],
          [
            20.450397,
            44.815034
          ],
          [
            20.442975,
            44.814666
          ],
          [
            20.440972,
            44.814567
          ],
          [
            20.440758,
            44.814556
          ],
          [
            20.439977,
            44.814517
          ],
          [
            20.439823,
            44.814508
          ],
          [
            20.439692,
            44.814503
          ],
          [
            20.439535,
            44.814504
          ],
          [
            20.439497,
            44.814546
          ],
          [
            20.439449,
            44.814582
          ],
          [
            20.439391,
            44.814611
          ],
          [
            20.439326,
            44.814631
          ],
          [
            20.439263,
            44.814641
          ],
          [
            20.439199,
            44.814643
          ],
          [
            20.439136,
            44.814637
          ],
          [
            20.439075,
            44.814622
          ],
          [
            20.439019,
            44.814601
          ],
          [
            20.438969,
            44.814572
          ],
          [
            20.438927,
            44.814538
          ],
          [
            20.438895,
            44.8145
          ],
          [
            20.438873,
            44.814458
          ],
          [
            20.438771,
            44.814434
          ],
          [
            20.438643,
            44.814416
          ],
          [
            20.43851,
            44.814407
          ],
          [
            20.438437,
            44.814405
          ],
          [
            20.438316,
            44.814401
          ],
          [
            20.438198,
            44.814398
          ],
          [
            20.438048,
            44.814397
          ],
          [
            20.437745,
            44.814401
          ],
          [
            20.437229,
            44.814426
          ],
          [
            20.436735,
            44.814461
          ],
          [
            20.436583,
            44.814476
          ],
          [
            20.436437,
            44.814496
          ],
          [
            20.436114,
            44.814546
          ],
          [
            20.435861,
            44.814592
          ],
          [
            20.435496,
            44.814663
          ],
          [
            20.435386,
            44.814685
          ],
          [
            20.435319,
            44.814699
          ],
          [
            20.435219,
            44.81472
          ],
          [
            20.435096,
            44.814746
          ],
          [
            20.434807,
            44.814816
          ],
          [
            20.434677,
            44.814849
          ],
          [
            20.434586,
            44.814745
          ],
          [
            20.434483,
            44.814632
          ],
          [
            20.434411,
            44.814553
          ],
          [
            20.434352,
            44.814487
          ],
          [
            20.43423,
            44.814353
          ],
          [
            20.433386,
            44.813423
          ],
          [
            20.433331,
            44.813363
          ],
          [
            20.433098,
            44.813106
          ],
          [
            20.432992,
            44.812987
          ],
          [
            20.432895,
            44.812881
          ],
          [
            20.432855,
            44.812837
          ],
          [
            20.432555,
            44.812508
          ],
          [
            20.432174,
            44.812093
          ],
          [
            20.431993,
            44.811895
          ],
          [
            20.431865,
            44.811755
          ],
          [
            20.431775,
            44.811654
          ],
          [
            20.431744,
            44.81162
          ],
          [
            20.431691,
            44.81156
          ],
          [
            20.431477,
            44.811317
          ],
          [
            20.431428,
            44.811263
          ],
          [
            20.4313,
            44.811123
          ],
          [
            20.430987,
            44.810778
          ],
          [
            20.430433,
            44.81017
          ],
          [
            20.430054,
            44.809758
          ],
          [
            20.429933,
            44.809622
          ],
          [
            20.429895,
            44.809579
          ],
          [
            20.429878,
            44.80956
          ],
          [
            20.429766,
            44.809435
          ],
          [
            20.429743,
            44.809409
          ],
          [
            20.429505,
            44.809144
          ],
          [
            20.42913,
            44.808725
          ],
          [
            20.42867,
            44.808218
          ],
          [
            20.428543,
            44.808083
          ],
          [
            20.428336,
            44.807864
          ],
          [
            20.427976,
            44.80747
          ],
          [
            20.427908,
            44.807394
          ],
          [
            20.427858,
            44.807336
          ],
          [
            20.427784,
            44.807255
          ],
          [
            20.427382,
            44.806814
          ],
          [
            20.427155,
            44.806563
          ],
          [
            20.426736,
            44.806105
          ],
          [
            20.426537,
            44.805885
          ],
          [
            20.426333,
            44.805657
          ],
          [
            20.42621,
            44.805519
          ],
          [
            20.426156,
            44.805457
          ],
          [
            20.426114,
            44.80541
          ],
          [
            20.426082,
            44.805373
          ],
          [
            20.426042,
            44.805322
          ],
          [
            20.426036,
            44.805311
          ],
          [
            20.42603,
            44.80529
          ],
          [
            20.426026,
            44.805266
          ],
          [
            20.426026,
            44.805227
          ],
          [
            20.426031,
            44.805177
          ],
          [
            20.426044,
            44.805132
          ],
          [
            20.426069,
            44.805085
          ],
          [
            20.426123,
            44.805018
          ],
          [
            20.426293,
            44.804834
          ],
          [
            20.426467,
            44.804626
          ],
          [
            20.426625,
            44.804453
          ],
          [
            20.426764,
            44.8043
          ],
          [
            20.426837,
            44.804214
          ],
          [
            20.426896,
            44.804149
          ],
          [
            20.426916,
            44.804058
          ],
          [
            20.42692,
            44.804001
          ],
          [
            20.42691,
            44.803957
          ],
          [
            20.426887,
            44.803929
          ],
          [
            20.42686,
            44.803902
          ],
          [
            20.426806,
            44.803867
          ],
          [
            20.426773,
            44.80385
          ],
          [
            20.426681,
            44.803817
          ],
          [
            20.426571,
            44.803808
          ],
          [
            20.425944,
            44.803755
          ],
          [
            20.425496,
            44.803727
          ],
          [
            20.425193,
            44.803712
          ],
          [
            20.424846,
            44.803701
          ],
          [
            20.424441,
            44.803692
          ],
          [
            20.423711,
            44.803689
          ],
          [
            20.422981,
            44.803705
          ],
          [
            20.422075,
            44.80374
          ],
          [
            20.421519,
            44.803768
          ],
          [
            20.421131,
            44.803787
          ],
          [
            20.420364,
            44.803825
          ],
          [
            20.420101,
            44.803837
          ],
          [
            20.419716,
            44.803856
          ],
          [
            20.419555,
            44.803864
          ],
          [
            20.41884,
            44.803898
          ],
          [
            20.418442,
            44.803917
          ],
          [
            20.41791,
            44.803943
          ],
          [
            20.417573,
            44.803958
          ],
          [
            20.417446,
            44.803965
          ],
          [
            20.417241,
            44.803977
          ],
          [
            20.417194,
            44.80398
          ],
          [
            20.417197,
            44.803932
          ],
          [
            20.417209,
            44.80375
          ],
          [
            20.417215,
            44.803662
          ],
          [
            20.417235,
            44.803353
          ],
          [
            20.417256,
            44.803233
          ],
          [
            20.417276,
            44.803095
          ],
          [
            20.41729,
            44.803054
          ],
          [
            20.417326,
            44.803005
          ],
          [
            20.417356,
            44.802983
          ],
          [
            20.417396,
            44.802961
          ],
          [
            20.417447,
            44.802947
          ],
          [
            20.417491,
            44.80186
          ],
          [
            20.417523,
            44.801092
          ],
          [
            20.417542,
            44.800775
          ],
          [
            20.417606,
            44.799725
          ],
          [
            20.417674,
            44.798627
          ],
          [
            20.417713,
            44.798585
          ],
          [
            20.417757,
            44.798557
          ],
          [
            20.418393,
            44.798428
          ],
          [
            20.418525,
            44.798402
          ],
          [
            20.418731,
            44.798357
          ],
          [
            20.419633,
            44.798164
          ],
          [
            20.420113,
            44.798072
          ],
          [
            20.420344,
            44.798036
          ],
          [
            20.420629,
            44.797992
          ],
          [
            20.420743,
            44.797961
          ],
          [
            20.420821,
            44.797941
          ],
          [
            20.420933,
            44.797928
          ],
          [
            20.421098,
            44.797939
          ],
          [
            20.421209,
            44.797956
          ],
          [
            20.421556,
            44.798022
          ],
          [
            20.422067,
            44.798161
          ],
          [
            20.42253,
            44.798282
          ],
          [
            20.422858,
            44.798363
          ],
          [
            20.423167,
            44.798421
          ],
          [
            20.423365,
            44.798463
          ],
          [
            20.423839,
            44.79856
          ],
          [
            20.424207,
            44.798633
          ],
          [
            20.424373,
            44.798666
          ],
          [
            20.424544,
            44.798712
          ],
          [
            20.424713,
            44.798761
          ],
          [
            20.424826,
            44.798803
          ],
          [
            20.42496,
            44.798876
          ],
          [
            20.425074,
            44.798943
          ],
          [
            20.425302,
            44.799108
          ],
          [
            20.425508,
            44.799211
          ],
          [
            20.425599,
            44.799245
          ],
          [
            20.425634,
            44.79925
          ],
          [
            20.42566,
            44.799253
          ],
          [
            20.42569,
            44.799252
          ],
          [
            20.425717,
            44.799252
          ],
          [
            20.425746,
            44.799251
          ],
          [
            20.425799,
            44.799246
          ],
          [
            20.425845,
            44.799239
          ],
          [
            20.425887,
            44.799227
          ],
          [
            20.425926,
            44.799216
          ],
          [
            20.425983,
            44.799215
          ],
          [
            20.42609,
            44.799226
          ],
          [
            20.426353,
            44.79925
          ],
          [
            20.426604,
            44.799262
          ],
          [
            20.426953,
            44.799276
          ],
          [
            20.427244,
            44.799308
          ],
          [
            20.427666,
            44.799359
          ],
          [
            20.428,
            44.799417
          ],
          [
            20.428047,
            44.799423
          ],
          [
            20.428205,
            44.799443
          ],
          [
            20.428886,
            44.799521
          ],
          [
            20.429099,
            44.799536
          ],
          [
            20.429223,
            44.799532
          ],
          [
            20.429331,
            44.79951
          ],
          [
            20.429401,
            44.799485
          ],
          [
            20.429453,
            44.799454
          ],
          [
            20.429506,
            44.79942
          ],
          [
            20.42964,
            44.799344
          ],
          [
            20.429733,
            44.799289
          ],
          [
            20.429784,
            44.799257
          ],
          [
            20.429829,
            44.799235
          ],
          [
            20.429873,
            44.799222
          ],
          [
            20.429923,
            44.799215
          ],
          [
            20.430018,
            44.799212
          ],
          [
            20.43017,
            44.799251
          ],
          [
            20.430761,
            44.79942
          ],
          [
            20.430925,
            44.799467
          ],
          [
            20.431402,
            44.799618
          ],
          [
            20.431442,
            44.799907
          ],
          [
            20.431402,
            44.799618
          ],
          [
            20.430925,
            44.799467
          ],
          [
            20.43017,
            44.799251
          ],
          [
            20.430018,
            44.799212
          ],
          [
            20.429923,
            44.799215
          ],
          [
            20.429873,
            44.799222
          ],
          [
            20.429829,
            44.799235
          ],
          [
            20.429784,
            44.799257
          ],
          [
            20.429733,
            44.799289
          ],
          [
            20.42964,
            44.799344
          ],
          [
            20.429506,
            44.79942
          ],
          [
            20.429453,
            44.799454
          ],
          [
            20.429401,
            44.799485
          ],
          [
            20.429331,
            44.79951
          ],
          [
            20.429223,
            44.799532
          ],
          [
            20.429099,
            44.799536
          ],
          [
            20.428886,
            44.799521
          ],
          [
            20.428205,
            44.799443
          ],
          [
            20.428047,
            44.799423
          ],
          [
            20.428,
            44.799417
          ],
          [
            20.427666,
            44.799359
          ],
          [
            20.427244,
            44.799308
          ],
          [
            20.426953,
            44.799276
          ],
          [
            20.426604,
            44.799262
          ],
          [
            20.426353,
            44.79925
          ],
          [
            20.42609,
            44.799226
          ],
          [
            20.425983,
            44.799215
          ],
          [
            20.425926,
            44.799216
          ],
          [
            20.425887,
            44.799227
          ],
          [
            20.425845,
            44.799239
          ],
          [
            20.425799,
            44.799246
          ],
          [
            20.425746,
            44.799251
          ],
          [
            20.425717,
            44.799252
          ],
          [
            20.42569,
            44.799252
          ],
          [
            20.42566,
            44.799253
          ],
          [
            20.425634,
            44.79925
          ],
          [
            20.425599,
            44.799245
          ],
          [
            20.425508,
            44.799211
          ],
          [
            20.425302,
            44.799108
          ],
          [
            20.425074,
            44.798943
          ],
          [
            20.42496,
            44.798876
          ],
          [
            20.424826,
            44.798803
          ],
          [
            20.424713,
            44.798761
          ],
          [
            20.424544,
            44.798712
          ],
          [
            20.424373,
            44.798666
          ],
          [
            20.424207,
            44.798633
          ],
          [
            20.423839,
            44.79856
          ],
          [
            20.423365,
            44.798463
          ],
          [
            20.423167,
            44.798421
          ],
          [
            20.422858,
            44.798363
          ],
          [
            20.42253,
            44.798282
          ],
          [
            20.422067,
            44.798161
          ],
          [
            20.421556,
            44.798022
          ],
          [
            20.421209,
            44.797956
          ],
          [
            20.421098,
            44.797939
          ],
          [
            20.420933,
            44.797928
          ],
          [
            20.420821,
            44.797941
          ],
          [
            20.420743,
            44.797961
          ],
          [
            20.420629,
            44.797992
          ],
          [
            20.420344,
            44.798036
          ],
          [
            20.420113,
            44.798072
          ],
          [
            20.419633,
            44.798164
          ],
          [
            20.418731,
            44.798357
          ],
          [
            20.418525,
            44.798402
          ],
          [
            20.418393,
            44.798428
          ],
          [
            20.417757,
            44.798557
          ],
          [
            20.417713,
            44.798585
          ],
          [
            20.417674,
            44.798627
          ],
          [
            20.417606,
            44.799725
          ],
          [
            20.417542,
            44.800775
          ],
          [
            20.417523,
            44.801092
          ],
          [
            20.417491,
            44.80186
          ],
          [
            20.417447,
            44.802947
          ],
          [
            20.417435,
            44.80325
          ],
          [
            20.417431,
            44.803365
          ],
          [
            20.41759,
            44.803576
          ],
          [
            20.417617,
            44.803597
          ],
          [
            20.417653,
            44.803615
          ],
          [
            20.417733,
            44.80364
          ],
          [
            20.417824,
            44.803662
          ],
          [
            20.418076,
            44.803707
          ],
          [
            20.418623,
            44.803684
          ],
          [
            20.419303,
            44.803653
          ],
          [
            20.41952,
            44.803643
          ],
          [
            20.419713,
            44.803634
          ],
          [
            20.420127,
            44.803618
          ],
          [
            20.420831,
            44.80359
          ],
          [
            20.423235,
            44.803489
          ],
          [
            20.423681,
            44.803483
          ],
          [
            20.424043,
            44.803482
          ],
          [
            20.424167,
            44.803482
          ],
          [
            20.424768,
            44.803494
          ],
          [
            20.42489,
            44.803497
          ],
          [
            20.425049,
            44.803501
          ],
          [
            20.425346,
            44.803517
          ],
          [
            20.425657,
            44.80353
          ],
          [
            20.425934,
            44.803547
          ],
          [
            20.426449,
            44.803577
          ],
          [
            20.42685,
            44.803605
          ],
          [
            20.42748,
            44.803664
          ],
          [
            20.427628,
            44.80368
          ],
          [
            20.427948,
            44.803714
          ],
          [
            20.428234,
            44.80375
          ],
          [
            20.428484,
            44.80379
          ],
          [
            20.428873,
            44.803863
          ],
          [
            20.429005,
            44.80389
          ],
          [
            20.429167,
            44.803927
          ],
          [
            20.429362,
            44.803974
          ],
          [
            20.429651,
            44.804046
          ],
          [
            20.430086,
            44.804167
          ],
          [
            20.430394,
            44.80426
          ],
          [
            20.430546,
            44.804308
          ],
          [
            20.430846,
            44.804413
          ],
          [
            20.431064,
            44.804501
          ],
          [
            20.431246,
            44.804569
          ],
          [
            20.431448,
            44.804654
          ],
          [
            20.431696,
            44.804766
          ],
          [
            20.431892,
            44.804859
          ],
          [
            20.432024,
            44.804925
          ],
          [
            20.432307,
            44.80507
          ],
          [
            20.432355,
            44.805096
          ],
          [
            20.432593,
            44.805171
          ],
          [
            20.432842,
            44.805297
          ],
          [
            20.432914,
            44.805334
          ],
          [
            20.433154,
            44.805434
          ],
          [
            20.433278,
            44.805481
          ],
          [
            20.433414,
            44.805525
          ],
          [
            20.433634,
            44.805577
          ],
          [
            20.433831,
            44.805606
          ],
          [
            20.434054,
            44.805613
          ],
          [
            20.434364,
            44.805581
          ],
          [
            20.434678,
            44.805512
          ],
          [
            20.434809,
            44.805468
          ],
          [
            20.435001,
            44.805403
          ],
          [
            20.435191,
            44.80534
          ],
          [
            20.435679,
            44.805151
          ],
          [
            20.436147,
            44.804956
          ],
          [
            20.436449,
            44.804841
          ],
          [
            20.436582,
            44.804792
          ],
          [
            20.436877,
            44.804707
          ],
          [
            20.43747,
            44.804399
          ],
          [
            20.437816,
            44.80422
          ],
          [
            20.438022,
            44.804113
          ],
          [
            20.438238,
            44.804001
          ],
          [
            20.438616,
            44.803804
          ],
          [
            20.44196,
            44.802071
          ],
          [
            20.443412,
            44.801319
          ],
          [
            20.443698,
            44.801175
          ],
          [
            20.444101,
            44.800978
          ],
          [
            20.444495,
            44.800769
          ],
          [
            20.444852,
            44.800585
          ],
          [
            20.445134,
            44.800442
          ],
          [
            20.445454,
            44.800286
          ],
          [
            20.445842,
            44.800087
          ],
          [
            20.446213,
            44.799895
          ],
          [
            20.446842,
            44.799565
          ],
          [
            20.447536,
            44.799213
          ],
          [
            20.447912,
            44.79901
          ],
          [
            20.448768,
            44.798572
          ],
          [
            20.449521,
            44.798174
          ],
          [
            20.449864,
            44.798001
          ],
          [
            20.450142,
            44.797856
          ],
          [
            20.450487,
            44.797679
          ],
          [
            20.450757,
            44.797542
          ],
          [
            20.450949,
            44.797443
          ],
          [
            20.451146,
            44.797344
          ],
          [
            20.451239,
            44.797298
          ],
          [
            20.451349,
            44.797247
          ],
          [
            20.451731,
            44.797081
          ],
          [
            20.451846,
            44.797034
          ],
          [
            20.4524,
            44.796807
          ],
          [
            20.452972,
            44.796604
          ],
          [
            20.453402,
            44.796465
          ],
          [
            20.453843,
            44.796329
          ],
          [
            20.454287,
            44.796219
          ],
          [
            20.454738,
            44.796108
          ],
          [
            20.454968,
            44.796052
          ],
          [
            20.455063,
            44.796029
          ],
          [
            20.455773,
            44.795885
          ],
          [
            20.456432,
            44.795747
          ],
          [
            20.458168,
            44.795375
          ],
          [
            20.458576,
            44.795288
          ],
          [
            20.459186,
            44.79514
          ],
          [
            20.459424,
            44.795089
          ],
          [
            20.459676,
            44.795017
          ],
          [
            20.460007,
            44.794924
          ],
          [
            20.460467,
            44.794791
          ],
          [
            20.461102,
            44.79459
          ],
          [
            20.461484,
            44.794464
          ],
          [
            20.461741,
            44.794368
          ],
          [
            20.46191,
            44.794306
          ],
          [
            20.462271,
            44.794159
          ],
          [
            20.462621,
            44.794016
          ],
          [
            20.46307,
            44.793821
          ],
          [
            20.463181,
            44.793767
          ],
          [
            20.463629,
            44.793552
          ],
          [
            20.464179,
            44.793268
          ],
          [
            20.464509,
            44.793091
          ],
          [
            20.464878,
            44.792871
          ],
          [
            20.465271,
            44.792548
          ],
          [
            20.465628,
            44.792254
          ],
          [
            20.465755,
            44.79215
          ],
          [
            20.466283,
            44.791733
          ],
          [
            20.466463,
            44.791595
          ],
          [
            20.46654,
            44.791537
          ],
          [
            20.4666,
            44.791491
          ],
          [
            20.466892,
            44.791282
          ],
          [
            20.466992,
            44.79121
          ],
          [
            20.46737,
            44.79093
          ],
          [
            20.467617,
            44.790755
          ],
          [
            20.468151,
            44.790378
          ],
          [
            20.468246,
            44.790312
          ],
          [
            20.468338,
            44.79015
          ],
          [
            20.468357,
            44.790108
          ],
          [
            20.468373,
            44.79006
          ],
          [
            20.468375,
            44.790011
          ],
          [
            20.468367,
            44.789956
          ],
          [
            20.468341,
            44.789909
          ],
          [
            20.468299,
            44.78986
          ],
          [
            20.468248,
            44.789818
          ],
          [
            20.468174,
            44.789775
          ],
          [
            20.468096,
            44.789741
          ],
          [
            20.46806,
            44.78973
          ],
          [
            20.467973,
            44.789704
          ],
          [
            20.467738,
            44.78965
          ],
          [
            20.467631,
            44.789634
          ],
          [
            20.467523,
            44.78962
          ],
          [
            20.467418,
            44.789616
          ],
          [
            20.467322,
            44.789626
          ],
          [
            20.467235,
            44.789649
          ],
          [
            20.467154,
            44.789681
          ],
          [
            20.467079,
            44.78973
          ],
          [
            20.467022,
            44.789779
          ],
          [
            20.466983,
            44.789829
          ],
          [
            20.466953,
            44.789894
          ],
          [
            20.466939,
            44.789945
          ],
          [
            20.466932,
            44.789993
          ],
          [
            20.466917,
            44.790053
          ],
          [
            20.466876,
            44.790197
          ],
          [
            20.466967,
            44.790471
          ],
          [
            20.467081,
            44.79083
          ],
          [
            20.467327,
            44.791127
          ],
          [
            20.467362,
            44.791169
          ],
          [
            20.467446,
            44.791253
          ],
          [
            20.46753,
            44.79132
          ],
          [
            20.467603,
            44.791364
          ],
          [
            20.467672,
            44.791393
          ],
          [
            20.467762,
            44.791425
          ],
          [
            20.467818,
            44.791441
          ],
          [
            20.467879,
            44.791456
          ],
          [
            20.46798,
            44.791482
          ],
          [
            20.468086,
            44.791495
          ],
          [
            20.468278,
            44.791474
          ],
          [
            20.468479,
            44.791453
          ],
          [
            20.46884,
            44.791422
          ],
          [
            20.468941,
            44.791451
          ],
          [
            20.468972,
            44.791468
          ],
          [
            20.468992,
            44.791482
          ],
          [
            20.469007,
            44.7915
          ],
          [
            20.469015,
            44.791513
          ],
          [
            20.469018,
            44.79152
          ],
          [
            20.469021,
            44.791528
          ],
          [
            20.469044,
            44.79158
          ],
          [
            20.469057,
            44.791629
          ],
          [
            20.46907,
            44.791677
          ],
          [
            20.469077,
            44.791745
          ],
          [
            20.469075,
            44.791815
          ],
          [
            20.469066,
            44.791867
          ],
          [
            20.469048,
            44.791928
          ],
          [
            20.469001,
            44.79205
          ],
          [
            20.468865,
            44.792299
          ],
          [
            20.468801,
            44.792423
          ],
          [
            20.468784,
            44.792459
          ],
          [
            20.468763,
            44.792503
          ],
          [
            20.468771,
            44.792559
          ],
          [
            20.468796,
            44.792628
          ],
          [
            20.46881,
            44.792673
          ],
          [
            20.46886,
            44.792812
          ],
          [
            20.469008,
            44.793229
          ],
          [
            20.469226,
            44.793755
          ],
          [
            20.469234,
            44.793772
          ],
          [
            20.469444,
            44.794334
          ],
          [
            20.469462,
            44.794383
          ],
          [
            20.469468,
            44.794433
          ],
          [
            20.469469,
            44.794519
          ],
          [
            20.469457,
            44.794604
          ],
          [
            20.469371,
            44.79496
          ],
          [
            20.469223,
            44.795577
          ],
          [
            20.469215,
            44.795612
          ],
          [
            20.469208,
            44.795663
          ],
          [
            20.469212,
            44.795706
          ],
          [
            20.46925,
            44.796031
          ],
          [
            20.469252,
            44.796047
          ],
          [
            20.469254,
            44.796065
          ],
          [
            20.469309,
            44.796608
          ],
          [
            20.469329,
            44.796694
          ],
          [
            20.469338,
            44.796728
          ],
          [
            20.469369,
            44.796784
          ],
          [
            20.469398,
            44.796826
          ],
          [
            20.469412,
            44.796846
          ],
          [
            20.469435,
            44.796878
          ],
          [
            20.469458,
            44.796915
          ],
          [
            20.469621,
            44.797169
          ],
          [
            20.469733,
            44.79735
          ],
          [
            20.469778,
            44.797423
          ],
          [
            20.46981,
            44.797476
          ],
          [
            20.469746,
            44.797488
          ],
          [
            20.46964,
            44.797509
          ],
          [
            20.469566,
            44.797523
          ],
          [
            20.469351,
            44.797497
          ],
          [
            20.46926,
            44.797484
          ],
          [
            20.469183,
            44.797474
          ],
          [
            20.469183,
            44.797474
          ]
        ]
      }
    }
  ]
}